202509010000 METAR VABB 010000Z 26013KT 2500 BR SCT018 FEW025TCU BKN100 27/25 Q1004 NOSIG=
202509010030 METAR VABB 010030Z 26010KT 2500 BR SCT018 FEW025TCU BKN100 27/25 Q1005 NOSIG=
202509010100 METAR VABB 010100Z 26010G20KT 2500 -RA FEW012 SCT018 FEW025TCU BKN090 26/25 Q1005 NOSIG=
202509010130 METAR VABB 010130Z 24012KT 2500 BR FEW012 SCT018 FEW025TCU BKN090 27/25 Q1005 NOSIG=
202509010200 METAR VABB 010200Z 25012KT 2500 BR FEW012 SCT018 FEW025TCU BKN090 27/25 Q1005 BECMG 3000 BR=
202509010230 METAR VABB 010230Z 25014KT 3000 BR SCT018 FEW025TCU BKN100 28/25 Q1005 NOSIG=
202509010300 METAR VABB 010300Z 25014KT 3000 BR SCT018 FEW025TCU BKN100 28/25 Q1006 NOSIG=
202509010330 METAR VABB 010330Z 25010KT 3000 BR SCT018 FEW025TCU BKN100 28/25 Q1006 NOSIG=
202509010400 METAR VABB 010400Z 25013KT 3000 BR FEW012 SCT018 FEW030CB BKN090 28/25 Q1006 TEMPO 1500 SHRA=
202509010000 METAR VABB NIL=
202509010430 METAR VABB 010430Z 25012KT 3000 BR FEW012 SCT018 FEW025TCU BKN090 28/25 Q1006 NOSIG=
202509010500 METAR VABB 010500Z 26015KT 3500 BR FEW012 SCT018 FEW025TCU BKN090 29/25 Q1006 NOSIG=
202509010530 METAR VABB 010530Z 26017KT 3500 BR FEW012 SCT018 FEW025TCU BKN090 29/25 Q1006 NOSIG=
202509010600 METAR VABB 010600Z 26016KT 3500 BR FEW012 SCT018 FEW025TCU BKN090 30/25 Q1006 NOSIG=
202509010630 METAR VABB 010630Z 25010G20KT 3500 HZ FEW012 SCT018 FEW025TCU BKN090 30/25 Q1006 NOSIG=
202509010700 METAR VABB 010700Z 25012G22KT 3500 HZ FEW012 SCT018 FEW025TCU BKN090 29/25 Q1005 NOSIG=
202509010730 METAR VABB 010730Z 24012KT 3500 BR FEW012 SCT018 FEW025TCU BKN090 29/25 Q1005 NOSIG=
202509010800 METAR VABB 010800Z 24016KT 2500 -RA FEW010 SCT018 FEW030CB OVC080 29/25 Q1005 TEMPO 1500 SHRA=
202509010830 METAR VABB 010830Z 25011KT 2500 BR FEW012 SCT018 FEW025TCU BKN090 28/26 Q1004 TEMPO 1500 SHRA=
202509010900 METAR VABB 010900Z 26016KT 2500 BR FEW012 SCT018 FEW025TCU BKN090 28/25 Q1004 NOSIG=
202509010930 METAR VABB 010930Z 25013KT 2500 -RA FEW012 SCT018 FEW025TCU BKN090 27/25 Q1004 NOSIG=
202509011000 METAR VABB 011000Z 26013KT 2500 BR SCT018 FEW025TCU BKN090 28/25 Q1004 BECMG 3000 BR=
202509011030 METAR VABB 011030Z 27014KT 2500 BR SCT018 FEW025TCU BKN090 27/25 Q1004 NOSIG=
202509011100 METAR VABB 011100Z 28013KT 2100 SHRA FEW012 SCT018 FEW025TCU BKN090 26/24 Q1004 NOSIG=
202509011130 METAR VABB 011130Z 25014KT 2100 SHRA FEW012 SCT018 FEW025TCU OVC090 26/25 Q1004 TEMPO 1500 SHRA=
202509011200 METAR VABB 011200Z 24010KT 2100 -RA FEW012 SCT018 FEW025TCU OVC090 26/25 Q1003 NOSIG=
202509011230 METAR VABB 011230Z 26013KT 2100 -RA FEW012 SCT018 FEW025TCU OVC090 27/25 Q1003 NOSIG=
202509011300 METAR VABB 011300Z 25013KT 2100 BR FEW012 SCT018 FEW025TCU OVC090 27/25 Q1003 NOSIG=
202509011330 METAR VABB 011330Z 26014KT 2100 BR FEW012 SCT018 FEW025TCU OVC090 27/25 Q1004 NOSIG=
202509011400 METAR VABB 011400Z 26015KT 2500 BR FEW012 SCT018 FEW025TCU OVC090 27/25 Q1004 TEMPO 1500 SHRA=
202509011430 METAR VABB 011430Z 25014KT 2500 BR FEW012 SCT018 FEW025TCU OVC090 28/25 Q1004 NOSIG=
202509011500 METAR VABB 011500Z 26015KT 2500 BR SCT018 FEW025TCU OVC090 27/24 Q1005 TEMPO 1500 SHRA=
202509011530 METAR VABB 011530Z 25015KT 2100 -RA SCT018 FEW025TCU OVC090 27/25 Q1005 TEMPO 1500 SHRA=
202509011600 METAR VABB 011600Z 24010KT 2500 BR SCT018 FEW025TCU OVC090 27/25 Q1006 NOSIG=
202509011630 METAR VABB 011630Z 25013KT 2500 BR SCT018 FEW025TCU OVC090 27/25 Q1006 NOSIG=
202509011700 METAR VABB 011700Z 26014KT 2500 BR SCT018 FEW025TCU OVC090 27/25 Q1006 NOSIG=
202509011730 METAR VABB 011730Z 25012KT 2500 BR SCT018 FEW025TCU OVC090 27/25 Q1006 NOSIG=
202509011800 METAR COR VABB 011800Z 25012G22KT 2500 -RA SCT018 FEW025TCU OVC090 27/25 Q1005 TEMPO 1500 SHRA=
202509011830 METAR VABB 011830Z 26014KT 2500 BR SCT018 FEW025TCU OVC090 27/25 Q1005 NOSIG=
202509011900 METAR COR VABB 011900Z 25012G22KT 1800 RA SCT018 FEW025TCU OVC090 27/25 Q1005 NOSIG=
202509011930 METAR VABB 011930Z 25012KT 2500 BR SCT018 FEW025TCU OVC090 27/25 Q1005 NOSIG=
202509012000 METAR VABB 012000Z 25014KT 2500 BR SCT018 FEW025TCU OVC090 27/25 Q1005 NOSIG=
202509012030 METAR VABB 012030Z 25012KT 2500 BR FEW012 SCT018 FEW025TCU OVC090 27/25 Q1004 NOSIG=
202509012100 METAR VABB 012100Z 25010G20KT 2500 BR FEW012 SCT018 FEW025TCU OVC090 27/25 Q1004 NOSIG=
202509012130 METAR VABB 012130Z 26014KT 2500 BR FEW012 SCT018 FEW025TCU OVC090 27/25 Q1004 NOSIG=
202509012200 METAR VABB 012200Z 26012KT 2500 BR FEW012 SCT018 FEW025TCU OVC090 27/25 Q1004 TEMPO 1500 SHRA=
202509012230 METAR VABB 012230Z 26012KT 2500 VCSH FEW012 SCT018 FEW025TCU OVC090 27/25 Q1004 NOSIG=
202509012300 METAR VABB 012300Z 25011KT 2500 BR SCT018 FEW025TCU OVC090 27/25 Q1003 NOSIG=
202509012330 METAR VABB 012330Z 26007G17KT 2500 BR SCT018 FEW025TCU OVC090 27/25 Q1004 NOSIG=
202509020000 METAR VABB 020000Z 26011KT 2500 BR SCT018 FEW025TCU BKN090 27/25 Q1004 NOSIG=
202509020030 METAR VABB 020030Z 25009KT 2500 BR SCT018 FEW025TCU BKN090 27/25 Q1004 NOSIG=
202509020100 METAR VABB 020100Z 27012KT 1800 -RA FEW012 SCT018 FEW025TCU BKN090 26/25 Q1004 TEMPO 1500 SHRA=
202509020130 METAR VABB 020130Z 27012KT 2500 BR FEW012 SCT018 FEW025TCU OVC090 26/24 Q1004 NOSIG=
202509020200 METAR VABB 020200Z 27010KT 2500 BR SCT018 FEW025TCU BKN090 27/25 Q1005 NOSIG=
202509020230 METAR VABB 020230Z 27011KT 2500 BR SCT018 FEW025TCU BKN090 27/25 Q1005 TEMPO 1500 SHRA=
202509020300 METAR VABB 020300Z 25010KT 2500 -RA SCT018 FEW025TCU BKN090 27/25 Q1005 TEMPO 1500 SHRA=
202509020330 METAR VABB 020330Z 27008KT 2500 -RA FEW012 SCT018 FEW025TCU BKN090 27/25 Q1006 NOSIG=
202509020400 METAR VABB 020400Z 31007KT 2500 -RA FEW012 SCT018 FEW025TCU BKN090 27/25 Q1006 TEMPO 1500 SHRA=
202509020430 METAR VABB 020430Z 30008KT 2500 BR SCT018 FEW025TCU BKN090 28/26 Q1006 BECMG 3000 BR=
202509020500 METAR VABB 020500Z 32009KT 3000 BR SCT018 FEW025TCU BKN100 28/25 Q1006 NOSIG=
202509020530 METAR VABB 020530Z 31011KT 3000 BR SCT018 FEW025TCU BKN100 29/26 Q1006 TEMPO 1500 SHRA=
202509020600 METAR VABB 020600Z 29011KT 2500 -RA SCT018 FEW025TCU BKN100 28/26 Q1006 NOSIG=
202509020630 METAR VABB 020630Z 28010KT 2500 BR SCT018 FEW025TCU BKN100 28/26 Q1006 NOSIG=
202509020700 METAR VABB 020700Z 31011KT 3000 BR SCT018 FEW025TCU BKN100 28/25 Q1006 NOSIG=
202509020730 METAR VABB 020730Z 30010KT 3000 BR SCT018 FEW025TCU BKN100 29/27 Q1005 NOSIG=
202509020800 METAR VABB 020800Z 28014KT 3000 BR SCT018 FEW025TCU BKN100 29/25 Q1005 NOSIG=
202509020830 METAR VABB 020830Z 29013KT 3000 BR SCT018 FEW025TCU BKN100 29/26 Q1004 NOSIG=
202509020900 METAR VABB 020900Z 29011KT 3000 BR SCT018 FEW025TCU BKN100 29/26 Q1004 NOSIG=
202509020930 METAR VABB 020930Z 28012KT 3000 BR SCT018 FEW025TCU BKN100 30/26 Q1004 NOSIG=
202509021000 METAR VABB 021000Z 27015KT 3000 BR SCT018 FEW025TCU BKN100 29/25 Q1003 NOSIG=
202509021030 METAR VABB 021030Z 28014KT 3000 HZ SCT018 FEW025TCU BKN100 29/24 Q1003 BECMG 5000 HZ=
202509021100 METAR VABB 021100Z 28013KT 5000 HZ SCT018 FEW025TCU BKN100 29/25 Q1003 NOSIG=
202509021130 METAR VABB 021130Z 29011KT 5000 HZ SCT018 FEW025TCU BKN100 29/25 Q1003 NOSIG=
202509021200 METAR VABB 021200Z 26015KT 5000 HZ SCT018 FEW025TCU BKN100 29/25 Q1003 NOSIG=
202509021230 METAR VABB 021230Z 29013KT 5000 HZ SCT018 FEW025TCU BKN100 28/25 Q1003 NOSIG=
202509021300 METAR VABB 021300Z 27010KT 5000 BR SCT018 FEW025TCU BKN100 28/25 Q1004 NOSIG=
202509021330 METAR VABB 021330Z 28010KT 5000 BR SCT018 FEW025TCU BKN100 28/24 Q1004 NOSIG=
202509021400 METAR VABB 021400Z 28012KT 4000 BR SCT018 FEW025TCU BKN100 28/24 Q1004 BECMG 3000 BR=
202509021430 METAR VABB 021430Z 27010KT 3000 BR SCT018 FEW025TCU BKN100 28/25 Q1005 NOSIG=
202509021500 METAR VABB 021500Z 27011KT 3000 BR SCT018 SCT025 BKN100 28/24 Q1005 NOSIG=
202509021530 METAR VABB 021530Z 28009KT 3000 BR SCT018 SCT025 BKN100 27/25 Q1006 NOSIG=
202509021600 METAR VABB 021600Z 27009KT 3000 BR SCT018 SCT025 BKN100 28/25 Q1006 NOSIG=
202509021630 METAR VABB 021630Z 27011KT 3000 BR SCT018 SCT025 BKN100 28/25 Q1006 NOSIG=
202509021700 METAR VABB 021700Z 26010KT 3000 BR SCT018 SCT025 BKN100 27/25 Q1006 NOSIG=
202509021730 METAR VABB 021730Z 26008KT 3000 BR SCT018 SCT025 BKN100 27/25 Q1006 NOSIG=
202509021800 METAR VABB 021800Z 26012KT 3000 BR SCT018 SCT025 BKN100 27/25 Q1006 NOSIG=
202509021830 METAR VABB 021830Z 26012KT 3000 BR SCT018 SCT025 BKN100 27/24 Q1006 NOSIG=
202509021900 METAR VABB 021900Z 26010KT 3000 BR SCT018 SCT025 BKN100 27/25 Q1005 NOSIG=
202509021930 METAR VABB 021930Z 26011KT 3000 BR SCT018 SCT025 BKN100 27/25 Q1005 NOSIG=
202509022000 METAR VABB 022000Z 27010KT 3000 BR SCT018 SCT025 BKN100 27/25 Q1005 NOSIG=
202509022030 METAR VABB 022030Z 25010KT 2500 -RA SCT018 SCT025 BKN100 27/25 Q1005 TEMPO 1500 SHRA=
202509022100 METAR VABB 022100Z 26014KT 2500 -RA SCT018 SCT025 BKN090 27/25 Q1004 TEMPO 1500 SHRA=
202509022130 METAR VABB 022130Z 26012KT 2500 BR SCT018 SCT025 BKN090 27/25 Q1004 NOSIG=
202509022200 METAR VABB 022200Z 27011KT 2500 BR SCT018 SCT025 BKN100 27/25 Q1004 BECMG 3000 BR=
202509022230 METAR VABB 022230Z 27010KT 3000 BR SCT018 SCT025 BKN100 27/25 Q1004 NOSIG=
202509022300 METAR VABB 022300Z 28009KT 3000 BR SCT018 SCT025 BKN100 27/25 Q1004 NOSIG=
202509022330 METAR VABB 022330Z 28012KT 3000 BR SCT018 SCT025 BKN100 27/25 Q1004 NOSIG=
202509030000 METAR VABB 030000Z 28010KT 3000 BR SCT018 SCT025 BKN100 27/25 Q1004 NOSIG=
202509030030 METAR VABB 030030Z 27012KT 3000 BR SCT018 SCT025 BKN100 27/25 Q1004 NOSIG=
202509030100 METAR VABB 030100Z 29011KT 3000 BR SCT012 SCT018 SCT025 27/25 Q1004 NOSIG=
202509030130 METAR VABB 030130Z 28012KT 3000 BR SCT018 SCT025 27/25 Q1005 NOSIG=
202509030200 METAR VABB 030200Z 29009KT 3000 BR SCT020 SCT025 BKN090 28/25 Q1005 BECMG 5000 BR=
202509030230 METAR VABB 030230Z 29011KT 4000 BR SCT020 SCT025 BKN100 28/25 Q1005 NOSIG=
202509030300 METAR VABB 030300Z 28012KT 4000 HZ SCT020 SCT025 BKN100 29/25 Q1006 NOSIG=
202509030330 METAR VABB 030330Z 30010KT 4000 HZ SCT020 SCT025 BKN100 28/25 Q1006 NOSIG=
202509030400 METAR VABB 030400Z 29011KT 4000 HZ SCT020 FEW025TCU BKN100 28/25 Q1006 NOSIG=
202509030430 METAR VABB 030430Z 28012KT 4000 HZ SCT020 FEW025TCU BKN100 29/25 Q1006 NOSIG=
202509030500 METAR VABB 030500Z 28011KT 4000 HZ SCT020 FEW025TCU BKN100 29/25 Q1006 NOSIG=
202509030530 METAR VABB 030530Z 27013KT 4000 HZ FEW020 SCT025 BKN100 30/25 Q1006 NOSIG=
202509030600 METAR VABB 030600Z 29014KT 4000 HZ FEW020 SCT025 BKN100 30/25 Q1006 NOSIG=
202509030630 METAR VABB 030630Z 28015KT 4000 HZ FEW020 SCT025 BKN100 30/25 Q1006 NOSIG=
202509030700 METAR VABB 030700Z 28014KT 4000 HZ FEW020 SCT025 BKN100 30/25 Q1006 BECMG 5000 HZ=
202509030730 METAR VABB 030730Z 27015KT 4000 HZ FEW020 SCT025 BKN100 29/25 Q1005 NOSIG=
202509030800 METAR VABB 030800Z 29010G20KT 5000 HZ FEW020 SCT025 BKN100 30/25 Q1005 NOSIG=
202509030830 METAR VABB 030830Z 28010G20KT 5000 HZ FEW020 SCT025 BKN100 30/25 Q1005 NOSIG=
202509030900 METAR VABB 030900Z 29010G20KT 5000 HZ SCT018 SCT025 30/25 Q1005 NOSIG=
202509030930 METAR VABB 030930Z 28010G20KT 5000 HZ SCT018 SCT025 30/25 Q1004 NOSIG=
202509031000 METAR VABB 031000Z 28012KT 5000 HZ SCT020 SCT025 30/25 Q1004 NOSIG=
202509031030 METAR VABB 031030Z 28015KT 5000 HZ SCT020 SCT025 30/24 Q1004 NOSIG=
202509031100 METAR VABB 031100Z 28016KT 5000 HZ SCT020 SCT025 BKN100 29/24 Q1004 NOSIG=
202509031130 METAR VABB 031130Z 27012KT 5000 HZ SCT020 SCT025 BKN100 29/24 Q1003 NOSIG=
202509031200 METAR VABB 031200Z 28014KT 5000 HZ SCT020 SCT025 BKN100 29/25 Q1003 NOSIG=
202509031230 METAR VABB 031230Z 27011KT 5000 HZ SCT020 SCT025 BKN100 28/25 Q1004 BECMG 3000 HZ=
202509031300 METAR VABB 031300Z 27010KT 4000 HZ FEW020 SCT025 BKN100 28/25 Q1004 NOSIG=
202509031330 METAR VABB 031330Z 27009KT 4000 HZ FEW020 SCT025 BKN100 28/24 Q1004 NOSIG=
202509031400 METAR VABB 031400Z 26011KT 3000 BR FEW020 SCT025 BKN100 28/25 Q1005 NOSIG=
202509031430 METAR VABB 031430Z 25010KT 3000 BR FEW020 SCT025 BKN100 28/24 Q1005 NOSIG=
202509031500 METAR VABB 031500Z 27009KT 3000 BR FEW020 SCT025 BKN100 28/24 Q1005 NOSIG=
202509031530 METAR VABB 031530Z 27009KT 3000 BR FEW020 SCT025 BKN100 28/25 Q1006 NOSIG=
202509031600 METAR VABB 031600Z 28009KT 3000 BR FEW020 SCT025 BKN100 28/25 Q1006 NOSIG=
202509031630 METAR VABB 031630Z 28007KT 3000 BR FEW020 SCT025 BKN100 28/25 Q1006 NOSIG=
202509031700 METAR VABB 031700Z 27008KT 3000 BR FEW020 SCT025 BKN100 28/25 Q1006 NOSIG=
202509031730 METAR VABB 031730Z 27007KT 3000 BR FEW020 SCT025 BKN100 28/24 Q1006 NOSIG=
202509031800 METAR VABB 031800Z 27008KT 3000 BR FEW020 SCT025 BKN100 28/24 Q1006 NOSIG=
202509031830 METAR VABB 031830Z 28008KT 3000 BR FEW018 SCT025 BKN100 28/24 Q1006 TEMPO 1500 SHRA=
202509031900 METAR COR VABB 031900Z 26008KT 3000 -RA FEW018 FEW025TCU BKN100 28/24 Q1006 TEMPO 1500 SHRA=
202509031930 METAR VABB 031930Z 30012KT 3000 -RA FEW018 FEW025TCU BKN090 27/24 Q1005 NOSIG=
202509032000 METAR VABB 032000Z 30007KT 3000 BR FEW018 FEW025TCU BKN090 26/23 Q1005 NOSIG=
202509032030 METAR VABB 032030Z 28006KT 3000 BR FEW018 FEW025TCU BKN090 27/24 Q1005 NOSIG=
202509032100 METAR VABB 032100Z 26005KT 3000 BR FEW018 FEW025TCU BKN090 27/25 Q1004 TEMPO 1500 SHRA=
202509032130 METAR VABB 032130Z 24013KT 3000 -RA FEW018 FEW025TCU BKN090 26/24 Q1004 TEMPO 1500 SHRA=
202509032200 METAR VABB 032200Z 22004KT 3000 BR FEW018 FEW025TCU BKN090 26/24 Q1004 NOSIG=
202509032230 METAR VABB 032230Z 25005KT 3000 BR FEW018 FEW025TCU BKN090 26/24 Q1004 NOSIG=
202509032300 METAR VABB 032300Z 21004KT 3000 BR FEW018 FEW025TCU BKN090 26/24 Q1004 NOSIG=
202509032330 METAR VABB 032330Z 31007KT 3000 -SHRA FEW018 FEW025TCU BKN090 26/23 Q1004 NOSIG=
202509040000 METAR VABB 040000Z 00000KT 3000 BR FEW018 FEW025TCU BKN090 26/23 Q1004 TEMPO 1500 SHRA=
202509040030 METAR VABB 040030Z 29007KT 3000 BR FEW018 FEW025TCU BKN090 27/25 Q1004 TEMPO 1500 SHRA=
202509040100 METAR VABB 040100Z 31008KT 3000 BR FEW018 FEW025TCU BKN090 27/24 Q1005 NOSIG=
202509040130 METAR VABB 040130Z 29011KT 3000 BR FEW018 FEW025TCU BKN090 27/24 Q1005 NOSIG=
202509040200 METAR VABB 040200Z 30010KT 3000 BR FEW018 FEW025TCU BKN090 27/24 Q1005 NOSIG=
202509040230 METAR VABB 040230Z 30009KT 3000 BR FEW018 FEW025TCU BKN090 27/24 Q1006 NOSIG=
202509040300 METAR VABB 040300Z 31013KT 3000 BR SCT018 FEW030CB BKN090 27/24 Q1006 NOSIG=
202509040330 METAR VABB 040330Z 30012KT 3000 BR SCT018 FEW030CB BKN090 26/24 Q1006 TEMPO 1500 SHRA=
202509040400 METAR VABB 040400Z 30013KT 3000 BR SCT018 FEW030CB BKN090 26/23 Q1007 NOSIG=
202509040430 METAR VABB 040430Z 30010KT 3000 BR SCT018 FEW030CB BKN090 26/23 Q1007 NOSIG=
202509040500 METAR VABB 040500Z 30009KT 3000 BR SCT018 FEW030CB BKN090 26/23 Q1007 TEMPO 1500 SHRA=
202509040530 METAR VABB 040530Z 30006KT 3000 VCSH SCT018 FEW030CB BKN090 26/24 Q1007 TEMPO 1500 SHRA=
202509040600 METAR VABB 040600Z 30008KT 3000 BR SCT018 FEW030CB BKN090 26/24 Q1007 TEMPO 1500 SHRA=
202509040630 METAR VABB 040630Z 31004KT 2500 -RA SCT018 FEW030CB BKN090 26/24 Q1007 TEMPO 1500 SHRA=
202509040700 METAR VABB 040700Z 33007KT 2500 -RA SCT018 FEW030CB OVC090 26/24 Q1006 TEMPO 1500 SHRA=
202509040730 METAR VABB 040730Z 32008KT 2500 -RA FEW012 SCT018 FEW025TCU OVC090 26/24 Q1006 TEMPO 1500 SHRA=
202509040800 METAR VABB 040800Z 30009KT 2500 -DZ FEW012 SCT018 FEW025TCU OVC090 27/25 Q1005 TEMPO 1500 SHRA=
202509040830 METAR VABB 040830Z 31007KT 2500 BR FEW012 SCT018 FEW025TCU OVC090 27/25 Q1005 TEMPO 1500 SHRA=
202509040900 METAR VABB 040900Z 34007KT 2500 -RA FEW012 SCT018 FEW025TCU OVC090 26/24 Q1005 TEMPO 1500 SHRA=
202509040930 METAR VABB 040930Z 30007KT 2500 -RA FEW012 SCT018 FEW025TCU OVC090 26/25 Q1005 NOSIG=
202509041000 METAR VABB 041000Z 34005KT 2500 BR FEW012 SCT018 FEW025TCU OVC090 27/25 Q1004 TEMPO 1500 SHRA=
202509041030 METAR VABB 041030Z 33007KT 2500 -RA FEW012 SCT018 FEW025TCU OVC090 26/24 Q1004 NOSIG=
202509041100 METAR VABB 041100Z 32007KT 2500 BR FEW012 SCT018 FEW025TCU OVC090 26/24 Q1004 NOSIG=
202509041130 METAR VABB 041130Z 31009KT 2500 BR FEW012 SCT018 FEW025TCU OVC090 26/23 Q1004 NOSIG=
202509041200 METAR VABB 041200Z 31004KT 2500 BR FEW012 SCT018 FEW025TCU OVC090 26/24 Q1004 NOSIG=
202509041230 METAR VABB 041230Z 30007KT 2500 BR FEW012 SCT018 FEW025TCU OVC090 27/24 Q1004 NOSIG=
202509041300 METAR VABB 041300Z 28008KT 2500 BR FEW012 SCT018 FEW025TCU OVC090 27/25 Q1004 NOSIG=
202509041330 METAR VABB 041330Z 28007KT 2500 BR FEW012 SCT018 FEW025TCU OVC090 27/25 Q1005 NOSIG=
202509041400 METAR VABB 041400Z 27007KT 2500 BR SCT018 SCT025 BKN100 28/25 Q1005 NOSIG=
202509041430 METAR VABB 041430Z 28007KT 2500 BR SCT018 SCT025 BKN100 28/24 Q1005 NOSIG=
202509041500 METAR VABB 041500Z 26007KT 2500 BR SCT018 SCT025 BKN100 27/25 Q1005 NOSIG=
202509041530 METAR VABB 041530Z 28017KT 1500 SHRA SCT018 SCT025 BKN100 27/25 Q1005 TEMPO 0800 +SHRA=
202509041540 METAR VABB 041540Z 26013KT 3000 -RA SCT018 SCT025 BKN090 25/24 Q1006 NOSIG=
202509041600 METAR VABB 041600Z 24007KT 3000 -RA SCT018 SCT025 BKN090 26/24 Q1006 NOSIG=
202509041630 VABB 041630Z 28010KT 3000 BR SCT018 SCT025 BKN090 26/24 Q1006 NOSIG=
202509041700 METAR VABB 041700Z 25008KT 3000 BR SCT018 SCT025 BKN090 27/25 Q1006 NOSIG=
202509041730 METAR VABB 041730Z 25009KT 3000 BR SCT018 FEW025TCU BKN090 27/25 Q1006 NOSIG=
202509041800 METAR VABB 041800Z 24009KT 3000 BR SCT018 FEW025TCU BKN090 27/25 Q1006 NOSIG=
202509041830 METAR VABB 041830Z 26011KT 3000 BR SCT018 FEW025TCU BKN090 27/25 Q1006 NOSIG=
202509041900 METAR VABB 041900Z 26011KT 3000 BR SCT018 FEW025TCU BKN090 27/25 Q1006 NOSIG=
202509041930 METAR VABB 041930Z 26010KT 3000 BR SCT018 FEW025TCU BKN090 27/25 Q1005 NOSIG=
202509042000 METAR VABB 042000Z 27013KT 3000 BR SCT018 FEW025TCU BKN090 27/25 Q1005 NOSIG=
202509042030 METAR VABB 042030Z 27010KT 3000 BR SCT018 FEW025TCU BKN090 27/25 Q1004 NOSIG=
202509042100 METAR VABB 042100Z 28013KT 3000 BR SCT018 FEW025TCU BKN090 27/25 Q1004 NOSIG=
202509042130 VABB 042130Z 27012KT 3000 BR SCT018 FEW025TCU BKN090 27/25 Q1004 NOSIG=
202509042200 METAR VABB 042200Z 27013KT 3000 BR SCT018 FEW025TCU BKN090 27/25 Q1004 NOSIG=
202509042230 METAR VABB 042230Z 27010KT 3000 BR SCT018 FEW025TCU BKN090 27/25 Q1004 NOSIG=
202509042300 METAR VABB 042300Z 26011KT 3000 BR SCT018 FEW025TCU BKN090 27/24 Q1004 NOSIG=
202509042330 VABB 042330Z 26011KT 3000 BR SCT018 FEW025TCU BKN090 27/24 Q1004 NOSIG=
202509050000 METAR VABB 050000Z 26011KT 3000 BR SCT018 FEW025TCU BKN100 27/25 Q1004 NOSIG=
202509050030 METAR VABB 050030Z 26010KT 3000 BR SCT018 FEW025TCU BKN100 27/25 Q1005 NOSIG=
202509050100 VABB 050100Z 25010KT 3000 BR SCT018 FEW025TCU BKN100 27/25 Q1005 NOSIG=
202509050130 METAR VABB 050130Z 26009KT 3000 -RA FEW012 SCT018 FEW025TCU BKN100 27/25 Q1005 NOSIG=
202509050200 VABB 050200Z 25011KT 2500 -SHRA FEW012 SCT018 FEW025TCU BKN100 27/25 Q1005 NOSIG=
202509050230 VABB 050230Z 25011KT 2500 BR FEW012 SCT018 FEW025TCU BKN100 27/25 Q1006 NOSIG=
202509050300 METAR VABB 050300Z 25008G18KT 2500 BR FEW012 SCT018 FEW025TCU BKN100 28/25 Q1006 NOSIG=
202509050330 VABB 050330Z 25011KT 2500 BR FEW012 SCT018 FEW025TCU BKN100 28/25 Q1007 NOSIG=
202509050400 METAR VABB 050400Z 25009G19KT 2500 -RA FEW012 SCT018 FEW025TCU OVC080 28/25 Q1007 NOSIG=
202509050430 VABB 050430Z 28013G23KT 2500 -RA FEW012 SCT018 FEW025TCU OVC080 27/24 Q1007 TEMPO 1500 SHRA=
202509050500 METAR VABB 050500Z 29015KT 2500 -RA FEW012 SCT018 FEW025TCU OVC080 25/24 Q1007 NOSIG=
202509050530 METAR VABB 050530Z 28013KT 2500 BR FEW012 SCT018 FEW025TCU OVC080 26/24 Q1007 NOSIG=
202509050600 METAR VABB 050600Z 28012KT 2500 BR FEW012 SCT018 FEW025TCU OVC080 27/25 Q1007 NOSIG=
202509050630 VABB 050630Z 32009KT 2100 -RA FEW012 SCT018 FEW025TCU OVC080 27/24 Q1007 NOSIG=
202509050700 METAR VABB 050700Z 26007KT 2100 SHRA FEW012 SCT018 FEW025TCU OVC080 26/25 Q1007 NOSIG=
202509050730 METAR VABB 050730Z 22009KT 2100 -RA FEW012 SCT018 FEW025TCU OVC080 26/25 Q1006 NOSIG=
202509050800 METAR VABB 050800Z 24011KT 2100 DZ FEW012 SCT018 FEW025TCU OVC080 27/26 Q1006 NOSIG=
202509050830 METAR VABB 050830Z 36008KT 2100 -SHRA FEW012 SCT018 FEW025TCU OVC080 26/24 Q1006 NOSIG=
202509050900 METAR VABB 050900Z 36004KT 2500 VCSH FEW012 SCT018 FEW025TCU OVC080 26/24 Q1005 TEMPO 1500 SHRA=
202509050930 METAR VABB 050930Z 29013KT 1500 SHRA FEW010 SCT018 FEW030CB OVC080 26/24 Q1005 TEMPO 0800 +SHRA=
202509051000 METAR VABB 051000Z 33005KT 2500 -RA FEW010 SCT018 FEW030CB OVC080 27/25 Q1005 TEMPO 1500 SHRA=
202509051030 METAR VABB 051030Z 30008KT 2100 -RA FEW010 SCT018 FEW030CB OVC080 27/25 Q1005 TEMPO 1500 SHRA=
202509051100 METAR VABB 051100Z 29009KT 2500 -RA FEW012 SCT018 FEW025TCU BKN090 27/26 Q1004 TEMPO 1500 SHRA=
202509051130 METAR VABB 051130Z 25010KT 2500 -DZ FEW012 SCT018 FEW025TCU BKN090 27/25 Q1004 NOSIG=
202509051200 METAR VABB 051200Z 25011KT 2500 BR FEW012 SCT018 FEW025TCU BKN090 27/25 Q1004 NOSIG=
202509051230 VABB 051230Z 26011KT 2500 BR FEW012 SCT018 FEW025TCU BKN090 28/25 Q1005 TEMPO 1500 SHRA=
202509051300 METAR VABB 051300Z 26011KT 2500 BR FEW012 SCT018 FEW025TCU BKN090 27/25 Q1005 NOSIG=
202509051330 METAR VABB 051330Z 26010KT 2500 BR FEW012 SCT018 FEW025TCU BKN090 27/25 Q1005 NOSIG=
202509051400 METAR VABB 051400Z 26010KT 2500 BR FEW012 SCT018 FEW025TCU BKN090 27/25 Q1006 NOSIG=
202509051430 METAR VABB 051430Z 25009KT 2500 BR FEW012 SCT018 FEW025TCU BKN090 27/25 Q1006 NOSIG=
202509051500 METAR VABB 051500Z 30005KT 2500 BR FEW012 SCT018 FEW025TCU BKN090 27/25 Q1006 NOSIG=
202509051530 METAR VABB 051530Z 24006KT 2500 BR FEW012 SCT018 FEW025TCU BKN090 27/25 Q1007 NOSIG=
202509051600 METAR VABB 051600Z 31004KT 2500 BR FEW012 SCT018 FEW025TCU BKN090 27/25 Q1007 NOSIG=
202509051630 METAR COR VABB 051630Z 25007KT 2500 BR FEW012 SCT018 FEW025TCU BKN090 27/25 Q1007 TEMPO 1500 SHRA=
202509051700 METAR VABB 051700Z 28009G19KT 1800 RA FEW012 SCT018 FEW025TCU OVC080 26/25 Q1007 TEMPO 1500 SHRA=
202509051730 METAR VABB 051730Z 32006KT 2500 -RA FEW012 SCT018 FEW025TCU OVC080 25/24 Q1007 NOSIG=
202509051800 METAR VABB 051800Z 28004KT 2500 BR FEW012 SCT018 FEW030CB OVC080 26/25 Q1007 NOSIG=
202509051830 METAR VABB 051830Z 24009KT 2500 BR FEW012 SCT018 FEW030CB OVC090 27/25 Q1007 NOSIG=
202509051900 METAR VABB 051900Z 25008KT 2500 BR SCT018 FEW030CB BKN090 27/25 Q1007 NOSIG=
202509051930 METAR VABB 051930Z 25009KT 2500 BR SCT018 FEW025TCU BKN090 27/25 Q1006 NOSIG=
202509052000 METAR VABB 052000Z 25008KT 2500 BR SCT018 FEW025TCU BKN090 27/25 Q1006 NOSIG=
202509052030 METAR VABB 052030Z 25010KT 2500 BR SCT018 FEW025TCU BKN090 27/25 Q1006 NOSIG=
202509052100 METAR VABB 052100Z 25011KT 2500 BR SCT018 FEW025TCU BKN090 27/25 Q1005 NOSIG=
202509052130 METAR VABB 052130Z 25010KT 2500 BR SCT018 FEW025TCU BKN090 27/25 Q1005 NOSIG=
202509052200 METAR VABB 052200Z 26010KT 2500 -RA FEW012 SCT018 FEW025TCU BKN090 27/25 Q1005 TEMPO 1500 SHRA=
202509052230 METAR VABB 052230Z 32010KT 2500 BR FEW012 SCT018 FEW025TCU BKN090 26/25 Q1005 NOSIG=
202509052300 METAR VABB 052300Z 30008KT 2500 -RA FEW012 SCT018 FEW025TCU BKN090 25/24 Q1005 NOSIG=
202509052330 METAR VABB 052330Z 30006KT 2500 BR FEW012 SCT018 FEW025TCU BKN090 26/24 Q1006 NOSIG=
202509060000 METAR VABB 060000Z 30007KT 2500 BR FEW012 SCT018 FEW025TCU BKN090 26/25 Q1006 NOSIG=
202509060030 METAR VABB 060030Z 30007KT 2500 BR FEW012 SCT018 FEW025TCU BKN090 26/24 Q1006 NOSIG=
202509060100 METAR VABB 060100Z 27015KT 2100 -RA FEW010 SCT015 FEW025TCU OVC090 25/24 Q1006 TEMPO 1500 SHRA=
202509060130 METAR VABB 060130Z 27011KT 1500 -RA FEW010 SCT015 FEW025TCU OVC090 25/24 Q1007 TEMPO 0800 +SHRA=
202509060200 METAR VABB 060200Z 25012KT 1500 -RA FEW010 SCT015 FEW025TCU OVC090 25/24 Q1007 TEMPO 0800 +SHRA=
202509060230 METAR VABB 060230Z 26009KT 1200 R27/1800 -RA FEW010 SCT015 FEW025TCU OVC090 25/24 Q1008 TEMPO 0800 +SHRA=
202509060300 METAR VABB 060300Z 27013KT 1200 R27/1800 +RA FEW008 SCT015 FEW030CB OVC080 25/24 Q1008 TEMPO 0800 +SHRA=
202509060330 METAR VABB 060330Z 27014KT 1500 RA FEW008 SCT015 FEW030CB OVC080 24/23 Q1009 TEMPO 0800 +SHRA=
202509060400 METAR VABB 060400Z 27008KT 1800 -RA FEW010 SCT015 FEW025TCU OVC080 25/24 Q1008 TEMPO 1500 SHRA=
202509060430 METAR VABB 060430Z 28009KT 1800 -RA FEW010 SCT015 FEW025TCU OVC080 25/25 Q1009 TEMPO 1500 SHRA=
202509060500 METAR VABB 060500Z 26012KT 1800 -RA FEW010 SCT015 FEW025TCU OVC080 25/24 Q1009 NOSIG=
202509060530 METAR VABB 060530Z 27012KT 3000 BR FEW010 SCT015 FEW025TCU OVC080 27/25 Q1009 NOSIG=
202509060600 METAR VABB 060600Z 27015KT 3000 BR FEW010 SCT015 FEW025TCU OVC080 27/24 Q1009 NOSIG=
202509060630 METAR VABB 060630Z 29012KT 3000 BR FEW012 SCT018 FEW025TCU OVC080 26/24 Q1008 NOSIG=
202509060700 METAR VABB 060700Z 28011KT 3000 BR FEW012 SCT018 FEW025TCU OVC080 27/24 Q1008 NOSIG=
202509060730 METAR VABB 060730Z 26011KT 3000 BR FEW012 SCT018 FEW025TCU OVC080 27/24 Q1008 NOSIG=
202509060800 METAR VABB 060800Z 25009KT 3000 -SHRA FEW012 SCT018 FEW025TCU OVC080 27/24 Q1008 TEMPO 1500 SHRA=
202509060830 METAR VABB 060830Z 29010KT 3000 BR FEW012 SCT018 FEW025TCU OVC080 26/24 Q1007 NOSIG=
202509060900 METAR VABB 060900Z 31005KT 2500 -RA FEW012 SCT018 FEW025TCU OVC080 25/24 Q1007 NOSIG=
202509060930 METAR VABB 060930Z 24009KT 2500 -RA FEW012 SCT018 FEW025TCU OVC080 26/25 Q1007 NOSIG=
202509061000 METAR VABB 061000Z 23008KT 2100 -RA FEW012 SCT018 FEW025TCU OVC080 25/24 Q1006 NOSIG=
202509061030 METAR VABB 061030Z 22006KT 2500 BR FEW012 SCT018 FEW025TCU OVC080 25/24 Q1006 BECMG 3000 BR=
202509061100 METAR VABB 061100Z 24010KT 3000 BR FEW012 SCT018 FEW025TCU OVC080 26/24 Q1006 NOSIG=
202509061130 METAR VABB 061130Z 23006KT 3000 BR FEW012 SCT018 FEW025TCU OVC080 25/23 Q1006 NOSIG=
202509061200 METAR VABB 061200Z 25007KT 2500 -RA FEW012 SCT018 FEW025TCU OVC080 25/23 Q1006 NOSIG=
202509061230 METAR VABB 061230Z 23003KT 2500 -RA FEW012 SCT018 FEW025TCU OVC080 25/24 Q1006 NOSIG=
202509061300 METAR VABB 061300Z 23003KT 2500 -RA FEW012 SCT018 FEW025TCU OVC080 25/24 Q1006 TEMPO 1500 SHRA=
202509061330 METAR VABB 061330Z 25009KT 2500 -RA FEW012 SCT018 FEW025TCU OVC080 25/24 Q1007 NOSIG=
202509061400 METAR VABB 061400Z 21004KT 2500 BR FEW012 SCT018 FEW025TCU OVC080 25/23 Q1007 NOSIG=
202509061430 METAR VABB 061430Z 28003KT 2500 BR FEW012 SCT018 FEW025TCU OVC080 25/24 Q1007 BECMG 3000 BR=
202509061500 METAR VABB 061500Z 27004KT 2500 BR FEW012 SCT018 FEW025TCU OVC080 26/24 Q1008 NOSIG=
202509061530 METAR VABB 061530Z 22009G19KT 2500 BR FEW012 SCT018 FEW025TCU OVC080 25/23 Q1008 NOSIG=
202509061600 METAR VABB 061600Z 20006KT 2500 BR SCT018 FEW025TCU OVC080 26/23 Q1008 NOSIG=
202509061630 METAR VABB 061630Z 20004KT 2500 BR SCT018 FEW025TCU OVC090 26/23 Q1008 BECMG 3000 BR=
202509061700 METAR VABB 061700Z 17004KT 3000 BR SCT018 FEW025TCU BKN090 26/23 Q1008 NOSIG=
202509061730 METAR VABB 061730Z 19006KT 2500 DZ SCT018 FEW025TCU BKN090 26/24 Q1008 NOSIG=
202509061800 METAR VABB 061800Z 18006KT 2500 BR SCT018 FEW025TCU BKN090 26/24 Q1008 NOSIG=
202509061830 METAR VABB 061830Z 21007KT 2500 -RA FEW012 SCT018 FEW030CB OVC090 26/24 Q1008 TEMPO 1500 SHRA=
202509061900 METAR VABB 061900Z 21007G18KT 2500 BR FEW012 SCT018 FEW030CB OVC090 26/23 Q1008 NOSIG=
202509061930 METAR VABB 061930Z 23008G18KT 2500 BR SCT018 FEW025TCU OVC090 26/24 Q1007 NOSIG=
202509062000 METAR VABB 062000Z 21007G17KT 2500 BR SCT018 FEW025TCU OVC090 26/24 Q1007 NOSIG=
202509062030 METAR VABB 062030Z 23007KT 2500 BR SCT018 FEW025TCU OVC090 27/24 Q1006 NOSIG=
202509062100 METAR VABB 062100Z 23009KT 2500 BR SCT018 FEW030CB OVC090 26/24 Q1006 NOSIG=
202509062130 METAR VABB 062130Z 21009G21KT 2500 -SHRA SCT018 FEW030CB OVC090 27/24 Q1006 NOSIG=
202509062200 METAR VABB 062200Z 23009G19KT 2100 RA FEW010 SCT018 FEW025TCU OVC080 26/24 Q1006 TEMPO 1500 SHRA=
202509062230 METAR VABB 062230Z 26012G22KT 1600 +RA SCT008 SCT018 FEW025TCU OVC080 25/24 Q1006 TEMPO 0800 +SHRA=
202509062300 METAR VABB 062300Z 23009KT 2100 -RA FEW010 SCT018 FEW025TCU OVC080 24/24 Q1006 TEMPO 1500 SHRA=
202509062330 METAR VABB 062330Z 22007G17KT 2100 -RA FEW012 SCT018 FEW025TCU OVC080 25/24 Q1006 TEMPO 1500 SHRA=
202509070000 METAR VABB 070000Z 21005KT 2500 -RA FEW012 SCT018 FEW030CB OVC080 26/25 Q1006 NOSIG=
202509070030 METAR VABB 070030Z 23008KT 2500 BR FEW012 SCT018 FEW030CB OVC080 26/25 Q1006 NOSIG=
202509070100 METAR VABB 070100Z 24008KT 2500 BR FEW012 SCT018 FEW030CB OVC080 27/25 Q1006 NOSIG=
202509070130 METAR VABB 070130Z 24009KT 2500 BR SCT018 FEW030CB BKN090 27/25 Q1007 BECMG 3000 BR=
202509070200 METAR VABB 070200Z 25009G19KT 2500 -SHRA FEW010 SCT018 FEW030CB OVC080 26/23 Q1007 TEMPO 1500 SHRA=
202509070230 METAR VABB 070230Z 25010KT 3000 BR SCT018 FEW030CB BKN090 26/24 Q1008 NOSIG=
202509070300 METAR VABB 070300Z 24007KT 3000 BR SCT018 FEW030CB BKN090 27/25 Q1008 NOSIG=
202509070330 METAR VABB 070330Z 25010KT 3000 BR SCT018 FEW030CB BKN090 27/25 Q1008 NOSIG=
202509070400 METAR VABB 070400Z 24010KT 3000 BR SCT018 FEW030CB BKN090 27/24 Q1008 NOSIG=
202509070430 METAR VABB 070430Z 24008KT 3000 BR SCT018 FEW030CB BKN090 27/25 Q1008 NOSIG=
202509070500 METAR VABB 070500Z 25009KT 3000 VCSH FEW012 SCT018 FEW030CB OVC090 26/24 Q1009 NOSIG=
202509070530 METAR VABB 070530Z 25008KT 3000 BR SCT018 FEW030CB OVC090 28/25 Q1008 NOSIG=
202509070600 METAR VABB 070600Z 25011KT 3000 BR SCT018 FEW025TCU OVC090 28/25 Q1008 NOSIG=
202509070630 METAR VABB 070630Z 25010KT 3000 -RA SCT018 FEW025TCU OVC090 28/25 Q1008 TEMPO 1500 SHRA=
202509070700 METAR VABB 070700Z 26013KT 2500 -RA SCT018 FEW025TCU OVC090 26/24 Q1008 TEMPO 1500 SHRA=
202509070730 METAR VABB 070730Z 25008KT 2500 BR SCT018 FEW025TCU OVC090 27/25 Q1008 BECMG 3000 BR=
202509070800 METAR VABB 070800Z 27011KT 3000 BR SCT018 FEW025TCU OVC090 28/25 Q1007 NOSIG=
202509070830 METAR VABB 070830Z 26014KT 3000 BR SCT018 FEW025TCU OVC090 28/25 Q1007 NOSIG=
202509070900 METAR VABB 070900Z 25013KT 3000 BR SCT018 FEW025TCU OVC090 29/25 Q1006 NOSIG=
202509070930 METAR VABB 070930Z 25012KT 3000 BR SCT018 FEW025TCU OVC090 28/25 Q1006 NOSIG=
202509071000 METAR VABB 071000Z 25011KT 3000 BR SCT018 FEW025TCU OVC090 28/25 Q1006 NOSIG=
202509071030 METAR VABB 071030Z 26009KT 3000 BR SCT018 FEW025TCU BKN090 28/25 Q1006 TEMPO 1500 SHRA=
202509071100 METAR VABB 071100Z 25010KT 3000 VCSH SCT018 FEW025TCU BKN090 28/25 Q1005 TEMPO 1500 SHRA=
202509071130 METAR VABB 071130Z 29006KT 3000 BR SCT018 FEW025TCU BKN090 27/24 Q1005 NOSIG=
202509071200 METAR VABB 071200Z 24010KT 3000 BR SCT018 FEW025TCU BKN090 28/24 Q1005 NOSIG=
202509071230 METAR VABB 071230Z 28006KT 3000 BR SCT018 FEW025TCU BKN090 27/24 Q1005 NOSIG=
202509071300 METAR VABB 071300Z 25008KT 3000 BR SCT018 FEW025TCU BKN090 27/24 Q1006 NOSIG=
202509071330 METAR VABB 071330Z 25007KT 3000 BR SCT018 FEW025TCU BKN090 27/25 Q1006 NOSIG=
202509071400 METAR VABB 071400Z 24007KT 3000 BR SCT018 FEW025TCU BKN090 27/25 Q1006 NOSIG=
202509071430 METAR VABB 071430Z 23007KT 3000 BR SCT018 FEW025TCU BKN090 27/24 Q1007 NOSIG=
202509071500 METAR VABB 071500Z 24008KT 3000 BR SCT018 FEW025TCU BKN090 27/24 Q1007 NOSIG=
202509071530 METAR VABB 071530Z 22006KT 3000 BR SCT018 FEW025TCU BKN090 27/25 Q1007 NOSIG=
202509071600 METAR VABB 071600Z 20006KT 3000 BR SCT018 SCT025 BKN090 27/24 Q1008 NOSIG=
202509071630 METAR VABB 071630Z 20005KT 3000 BR SCT018 SCT025 BKN090 27/25 Q1008 NOSIG=
202509071700 METAR VABB 071700Z 18007KT 2100 -RA SCT018 FEW025TCU BKN090 26/25 Q1008 TEMPO 1500 SHRA=
202509071730 METAR VABB 071730Z 16010KT 2500 -RA SCT018 FEW025TCU BKN090 26/24 Q1008 TEMPO 1500 SHRA=
202509071800 METAR VABB 071800Z 15005KT 2500 -RA SCT018 FEW025TCU BKN090 26/24 Q1008 TEMPO 1500 SHRA=
202509071830 METAR VABB 071830Z 14003KT 2500 BR SCT018 FEW025TCU BKN090 26/24 Q1008 NOSIG=
202509071900 METAR VABB 071900Z 12005KT 2500 BR SCT018 FEW025TCU BKN090 25/24 Q1008 NOSIG=
202509071930 METAR VABB 071930Z 12005KT 2500 BR SCT018 FEW025TCU BKN090 25/24 Q1007 NOSIG=
202509072000 METAR VABB 072000Z 13003KT 2500 BR SCT018 FEW025TCU BKN090 25/24 Q1007 NOSIG=
202509072030 METAR VABB 072030Z 16006KT 2500 BR SCT018 FEW025TCU BKN090 25/24 Q1007 NOSIG=
202509072100 METAR VABB 072100Z 17007G17KT 2500 BR SCT018 FEW025TCU BKN090 25/24 Q1007 TEMPO 1500 SHRA=
202509072130 METAR VABB 072130Z 14006KT 2500 BR SCT018 FEW025TCU BKN090 25/24 Q1006 NOSIG=
202509072200 METAR VABB 072200Z 13003KT 2500 BR SCT018 FEW025TCU BKN090 25/24 Q1006 NOSIG=
202509072230 METAR VABB 072230Z 12005KT 2500 BR SCT018 FEW025TCU BKN090 25/24 Q1006 NOSIG=
202509072300 METAR VABB 072300Z 13004KT 2500 BR SCT018 FEW025TCU BKN090 25/23 Q1006 TEMPO 1500 SHRA=
202509072330 METAR VABB 072330Z 15004KT 2500 BR SCT018 FEW025TCU BKN090 25/24 Q1006 TEMPO 1500 SHRA=
202509080000 METAR VABB 080000Z 17007KT 2500 BR SCT018 FEW025TCU BKN090 25/24 Q1006 NOSIG=
202509080030 METAR VABB 080030Z 17007KT 2500 BR SCT018 FEW025TCU BKN090 25/23 Q1006 NOSIG=
202509080100 METAR VABB 080100Z 18006KT 2500 BR SCT018 FEW025TCU BKN090 25/24 Q1006 NOSIG=
202509080130 METAR VABB 080130Z 17007KT 2500 BR SCT018 FEW025TCU BKN090 26/24 Q1007 BECMG 3000 BR=
202509080200 METAR VABB 080200Z 18007G17KT 3000 BR FEW018 SCT025 BKN100 26/24 Q1007 NOSIG=
202509080230 METAR VABB 080230Z 17008G19KT 3000 BR FEW018 SCT025 BKN100 26/24 Q1007 NOSIG=
202509080300 METAR VABB 080300Z 18009G22KT 3000 BR FEW018 SCT025 BKN100 27/24 Q1008 NOSIG=
202509080330 METAR VABB 080330Z 17009G19KT 3000 BR FEW018 SCT025 BKN100 26/23 Q1008 NOSIG=
202509080400 METAR VABB 080400Z 17008G18KT 3000 BR FEW018 SCT025 BKN100 27/24 Q1008 NOSIG=
202509080430 METAR VABB 080430Z 17008KT 3000 BR FEW018 SCT025 BKN100 27/24 Q1008 NOSIG=
202509080500 METAR VABB 080500Z 19009KT 3000 BR FEW018 SCT025 BKN100 28/25 Q1008 NOSIG=
202509080530 METAR VABB 080530Z 19009G19KT 3000 BR FEW018 SCT025 BKN100 28/25 Q1008 NOSIG=
202509080600 METAR COR VABB 080600Z 18009G19KT 3000 BR FEW018 SCT025 BKN100 27/25 Q1008 NOSIG=
202509080630 METAR VABB 080630Z 20005KT 4000 BR FEW018 SCT025 BKN100 27/25 Q1008 NOSIG=
202509080700 METAR VABB 080700Z 23008G18KT 4000 HZ FEW020 SCT025 BKN100 29/24 Q1008 NOSIG=
202509080730 METAR VABB 080730Z 24009KT 4000 HZ FEW020 SCT025 BKN100 29/26 Q1007 NOSIG=
202509080800 METAR VABB 080800Z 22010KT 4000 HZ FEW020 SCT025 BKN100 29/24 Q1007 NOSIG=
202509080830 METAR VABB 080830Z 23009KT 4000 HZ FEW020 SCT025 BKN100 29/24 Q1007 NOSIG=
202509080900 METAR VABB 080900Z 22010KT 4000 HZ FEW020 SCT025 BKN100 30/24 Q1006 NOSIG=
202509080930 METAR VABB 080930Z 22008KT 4000 HZ FEW020 SCT025 BKN100 29/24 Q1006 NOSIG=
202509081000 METAR VABB 081000Z 24011KT 4000 HZ FEW020 SCT025 BKN100 30/24 Q1006 NOSIG=
202509081030 METAR VABB 081030Z 25010KT 4000 HZ FEW020 SCT025 BKN100 30/23 Q1006 BECMG 5000 HZ=
202509081100 METAR VABB 081100Z 25009KT 5000 HZ FEW020 SCT025 BKN100 29/24 Q1006 NOSIG=
202509081130 METAR VABB 081130Z 25011KT 5000 HZ FEW020 SCT025 BKN100 29/24 Q1006 NOSIG=
202509081200 METAR VABB 081200Z 25010KT 4500 HZ FEW020 SCT025 BKN100 29/24 Q1006 NOSIG=
202509081230 METAR VABB 081230Z 25009KT 4500 HZ FEW020 SCT025 BKN100 28/24 Q1006 NOSIG=
202509081300 METAR VABB 081300Z 24008KT 4000 HZ FEW020 SCT025 BKN100 28/24 Q1007 NOSIG=
202509081330 METAR VABB 081330Z 23007KT 4000 HZ FEW020 SCT025 BKN100 28/24 Q1007 NOSIG=
202509081400 METAR VABB 081400Z 22005KT 4000 HZ FEW020 SCT025 BKN100 27/24 Q1007 NOSIG=
202509081430 METAR VABB 081430Z 22005KT 4000 HZ FEW020 SCT025 28/24 Q1007 NOSIG=
202509081500 METAR VABB 081500Z 17004KT 4000 HZ FEW020 SCT025 27/24 Q1008 NOSIG=
202509081530 METAR VABB 081530Z 19005KT 4000 HZ FEW020 SCT025 27/24 Q1008 NOSIG=
202509081600 METAR VABB 081600Z 20003KT 4000 HZ FEW020 SCT100 27/24 Q1009 BECMG 3000 HZ=
202509081630 METAR VABB 081630Z 20003KT 3000 HZ FEW020 SCT100 27/24 Q1009 NOSIG=
202509081700 METAR VABB 081700Z 18003KT 3000 HZ FEW020 SCT100 27/24 Q1009 NOSIG=
202509081730 METAR VABB 081730Z 18003KT 3000 HZ FEW020 SCT100 27/25 Q1009 NOSIG=
202509081800 METAR VABB 081800Z 16004KT 3000 BR FEW020 SCT100 27/25 Q1009 NOSIG=
202509081830 METAR VABB 081830Z 18003KT 3000 BR FEW020 SCT100 27/25 Q1009 NOSIG=
202509081900 METAR VABB 081900Z 16003KT 3000 BR FEW020 SCT100 26/24 Q1009 NOSIG=
202509081930 METAR VABB 081930Z 12005KT 3000 BR FEW020 SCT100 26/24 Q1008 NOSIG=
202509082000 METAR VABB 082000Z 13004KT 3000 BR FEW020 SCT100 26/24 Q1008 NOSIG=
202509082030 METAR VABB 082030Z 13004KT 3000 BR FEW020 SCT100 26/24 Q1008 NOSIG=
202509082100 METAR VABB 082100Z 14004KT 3000 -RA FEW020 SCT025 26/24 Q1008 NOSIG=
202509082130 METAR VABB 082130Z 14004KT 3000 -RA FEW018 SCT025 BKN100 26/24 Q1008 NOSIG=
202509082200 METAR VABB 082200Z 12004KT 3000 BR FEW020 SCT100 26/24 Q1007 NOSIG=
202509082230 METAR VABB 082230Z 12003KT 3000 BR FEW020 SCT100 25/24 Q1007 NOSIG=
202509082300 METAR VABB 082300Z 00000KT 3000 BR FEW020 SCT100 26/24 Q1007 NOSIG=
202509082330 METAR VABB 082330Z 00000KT 3000 BR FEW020 SCT100 26/24 Q1007 NOSIG=
202509090000 METAR VABB 090000Z 12004KT 3000 BR FEW018 SCT100 25/24 Q1008 NOSIG=
202509090030 METAR VABB 090030Z 13005KT 3000 BR FEW020 SCT100 25/24 Q1008 NOSIG=
202509090100 METAR VABB 090100Z 00000KT 3000 BR FEW020 SCT025 25/24 Q1008 NOSIG=
202509090130 METAR VABB 090130Z 00000KT 3000 BR FEW020 SCT025 26/24 Q1008 NOSIG=
202509090200 METAR VABB 090200Z 13003KT 2500 BR FEW020 SCT025 26/24 Q1009 NOSIG=
202509090230 METAR VABB 090230Z 13004KT 2500 BR FEW020 SCT025 26/24 Q1009 NOSIG=
202509090300 METAR VABB 090300Z 12004KT 2500 BR FEW020 SCT025 27/24 Q1009 NOSIG=
202509090330 METAR VABB 090330Z 20007KT 2500 BR FEW020 SCT025 27/24 Q1010 NOSIG=
202509090400 METAR VABB 090400Z 20008KT 2500 BR FEW020 SCT025 28/24 Q1010 BECMG 3000 HZ=
202509090430 METAR VABB 090430Z 19007G17KT 3000 HZ FEW020 SCT025 29/24 Q1010 NOSIG=
202509090500 METAR VABB 090500Z 19007G17KT 3000 HZ FEW020 SCT025 29/24 Q1010 NOSIG=
202509090530 METAR VABB 090530Z 22007KT 3000 HZ FEW020 SCT025 29/23 Q1010 NOSIG=
202509090600 METAR VABB 090600Z 21008G18KT 3000 HZ FEW020 SCT025 29/24 Q1010 NOSIG=
202509090630 METAR VABB 090630Z 22007G17KT 3000 HZ FEW020 SCT025 30/24 Q1009 NOSIG=
202509090700 METAR VABB 090700Z 24008KT 3000 HZ FEW020 SCT025 30/23 Q1009 NOSIG=
202509090730 METAR VABB 090730Z 22008KT 3500 HZ FEW020 SCT025 30/23 Q1009 NOSIG=
202509090800 METAR VABB 090800Z 24009KT 3500 HZ FEW020 SCT025 31/22 Q1008 NOSIG=
202509090830 METAR VABB 090830Z 24009KT 3500 HZ FEW020 SCT025 31/23 Q1008 NOSIG=
202509090900 METAR VABB 090900Z 25010KT 4000 HZ FEW020 SCT025 31/23 Q1008 NOSIG=
202509090930 METAR VABB 090930Z 24009KT 4000 HZ FEW020 SCT025 30/23 Q1008 BECMG 5000 HZ=
202509091000 METAR VABB 091000Z 25009KT 5000 HZ FEW020 SCT025 31/23 Q1008 NOSIG=
202509091030 METAR VABB 091030Z 24009KT 5000 HZ FEW020 SCT025 31/23 Q1008 NOSIG=
202509091100 METAR VABB 091100Z 24009KT 5000 HZ FEW020 SCT025 30/23 Q1007 NOSIG=
202509091130 METAR VABB 091130Z 25009KT 5000 HZ FEW020 SCT025 30/23 Q1007 NOSIG=
202509091200 METAR VABB 091200Z 25010KT 5000 HZ FEW020 SCT025 29/24 Q1008 NOSIG=
202509091230 METAR VABB 091230Z 25009KT 5000 HZ FEW020 SCT025 29/24 Q1008 NOSIG=
202509091300 METAR VABB 091300Z 25010KT 4000 HZ FEW020 SCT025 29/24 Q1008 NOSIG=
202509091330 METAR VABB 091330Z 26007KT 4000 HZ FEW020 SCT025 28/24 Q1009 NOSIG=
202509091400 METAR VABB 091400Z 27006KT 4000 HZ FEW020 SCT025 28/24 Q1009 NOSIG=
202509091430 METAR VABB 091430Z 26008KT 4000 HZ FEW020 SCT025 28/24 Q1009 NOSIG=
202509091500 METAR VABB 091500Z 26006KT 4000 HZ FEW020 SCT025 28/24 Q1009 NOSIG=
202509091530 METAR VABB 091530Z 28005KT 4000 HZ FEW020 SCT025 28/24 Q1010 NOSIG=
202509091600 METAR VABB 091600Z 29004KT 4000 HZ FEW020 SCT025 28/24 Q1010 NOSIG=
202509091630 METAR VABB 091630Z 25005KT 4000 HZ FEW020 SCT025 28/24 Q1010 NOSIG=
202509091700 METAR VABB 091700Z 24003KT 4000 HZ FEW020 SCT025 27/24 Q1010 NOSIG=
202509091730 METAR VABB 091730Z 36003KT 4000 HZ FEW020 SCT025 28/24 Q1010 NOSIG=
202509091800 METAR VABB 091800Z 29003KT 4000 HZ FEW020 SCT025 27/24 Q1010 NOSIG=
202509091830 METAR VABB 091830Z 00000KT 4000 HZ FEW020 SCT025 27/24 Q1010 NOSIG=
202509091900 METAR VABB 091900Z 22004KT 4000 HZ FEW020 SCT025 27/24 Q1010 NOSIG=
202509091930 METAR VABB 091930Z 22004KT 4000 HZ FEW020 SCT025 27/24 Q1010 NOSIG=
202509092000 METAR VABB 092000Z 22000KT 4000 HZ FEW020 SCT025 27/24 Q1009 NOSIG=
202509092030 METAR VABB 092030Z 14003KT 3500 HZ FEW020 SCT025 27/24 Q1009 BECMG 3000 HZ=
202509092100 METAR VABB 092100Z 12005KT 3000 BR FEW020 SCT025 27/25 Q1009 NOSIG=
202509092130 METAR VABB 092130Z 11003KT 3000 BR FEW020 SCT025 26/25 Q1009 NOSIG=
202509092200 METAR VABB 092200Z 11004KT 3000 BR FEW020 SCT025 26/25 Q1009 NOSIG=
202509092230 METAR VABB 092230Z 12004KT 3000 BR FEW020 SCT025 26/25 Q1009 NOSIG=
202509092300 METAR VABB 092300Z 14003KT 3000 BR FEW020 SCT025 26/25 Q1009 NOSIG=
202509092330 METAR VABB 092330Z 14004KT 3000 BR FEW020 SCT025 26/25 Q1009 NOSIG=
202509100000 METAR VABB 100000Z 13005KT 3000 BR FEW020 SCT025 26/25 Q1009 NOSIG=
202509100030 METAR VABB 100030Z 12004KT 3000 BR FEW020 SCT025 26/25 Q1009 NOSIG=
202509100100 METAR VABB 100100Z 10005KT 3000 BR FEW020 SCT025 26/25 Q1010 NOSIG=
202509100130 METAR VABB 100130Z 12004KT 3000 BR FEW020 SCT025 26/25 Q1010 NOSIG=
202509100155 METAR VABB 100155Z 13004KT 1800 BR FEW020 SCT025 26/25 Q1010 NOSIG=
202509010000 METAR VABB NIL=
202509100230 METAR VABB 100230Z 15004KT 2500 BR FEW020 SCT025 27/25 Q1011 NOSIG=
202509100300 METAR VABB 100300Z 16003KT 2500 BR FEW020 SCT025 28/25 Q1011 NOSIG=
202509100330 METAR VABB 100330Z 13004KT 2500 HZ FEW020 SCT025 28/23 Q1011 BECMG 3000 HZ=
202509100400 METAR VABB 100400Z 00000KT 3000 HZ FEW020 SCT025 29/23 Q1011 NOSIG=
202509100430 METAR VABB 100430Z 06003KT 3000 HZ FEW020 SCT025 29/23 Q1011 NOSIG=
202509100500 METAR VABB 100500Z 21005KT 3000 HZ FEW020 SCT025 30/23 Q1011 NOSIG=
202509100530 METAR VABB 100530Z 25006KT 3000 HZ FEW020 SCT025 29/23 Q1011 NOSIG=
202509100600 METAR VABB 100600Z 28006KT 3000 HZ FEW020 SCT025 30/23 Q1011 NOSIG=
202509100630 METAR VABB 100630Z 28008KT 3000 HZ FEW020 SCT025 29/23 Q1010 NOSIG=
202509100700 METAR VABB 100700Z 31006KT 3000 HZ FEW020 SCT025 29/23 Q1010 NOSIG=
202509100730 METAR VABB 100730Z 28008KT 3000 HZ FEW020 SCT025 29/23 Q1010 NOSIG=
202509100800 METAR VABB 100800Z 28009KT 3000 HZ FEW020 SCT025 28/24 Q1009 NOSIG=
202509100830 METAR VABB 100830Z 29008KT 3000 HZ FEW020 SCT025 29/23 Q1009 NOSIG=
202509100900 METAR VABB 100900Z 28010KT 4000 HZ FEW020 SCT025 30/23 Q1009 BECMG 5000 HZ=
202509100930 METAR VABB 100930Z 28010KT 5000 HZ FEW020 SCT025 BKN100 30/23 Q1008 NOSIG=
202509101000 METAR VABB 101000Z 29010KT 5000 HZ FEW020 SCT025 BKN100 30/23 Q1008 NOSIG=
202509101030 METAR VABB 101030Z 28011KT 5000 HZ FEW020 SCT025 BKN100 30/23 Q1008 NOSIG=
202509101100 METAR VABB 101100Z 28011KT 6000 FEW020 SCT100 30/23 Q1007 NOSIG=
202509101130 METAR VABB 101130Z 28011KT 6000 FEW020 SCT100 30/22 Q1007 NOSIG=
202509101200 METAR VABB 101200Z 28011KT 6000 FEW020 SCT100 29/23 Q1007 NOSIG=
202509101230 METAR VABB 101230Z 31009KT 6000 FEW020 SCT100 29/23 Q1008 NOSIG=
202509101300 METAR VABB 101300Z 30009KT 5000 HZ FEW020 SCT100 29/22 Q1008 BECMG 3000 HZ=
202509101330 METAR VABB 101330Z 30009KT 4000 HZ FEW020 SCT100 29/23 Q1008 NOSIG=
202509101400 METAR VABB 101400Z 31007KT 4000 HZ FEW020 SCT100 28/23 Q1008 NOSIG=
202509101430 METAR VABB 101430Z 33005KT 4000 HZ FEW020 SCT100 28/23 Q1009 NOSIG=
202509101500 METAR VABB 101500Z 29007KT 4000 HZ FEW020 SCT100 28/23 Q1009 NOSIG=
202509101530 METAR VABB 101530Z 31006KT 4000 HZ FEW020 SCT100 28/23 Q1009 NOSIG=
202509101600 METAR VABB 101600Z 31005KT 4000 HZ FEW020 SCT100 28/23 Q1010 BECMG 3000 HZ=
202509101630 METAR VABB 101630Z 34004KT 3000 HZ FEW020 SCT100 28/23 Q1010 NOSIG=
202509101700 METAR VABB 101700Z 35006KT 3000 HZ FEW020 SCT100 29/24 Q1010 NOSIG=
202509101730 METAR VABB 101730Z 04004KT 3000 HZ FEW020 SCT100 28/24 Q1010 NOSIG=
202509101800 METAR VABB 101800Z 34004KT 3000 HZ FEW020 SCT100 28/24 Q1010 NOSIG=
202509101830 METAR VABB 101830Z 33003KT 3000 HZ FEW020 SCT100 28/24 Q1010 NOSIG=
202509101900 METAR VABB 101900Z 30003KT 3000 HZ FEW020 SCT100 28/24 Q1010 NOSIG=
202509101930 METAR VABB 101930Z 28005KT 3000 HZ FEW020 SCT100 28/24 Q1009 NOSIG=
202509102000 METAR VABB 102000Z 00000KT 3000 HZ FEW020 SCT100 28/24 Q1009 NOSIG=
202509102030 METAR VABB 102030Z 28004KT 3000 HZ FEW020 SCT100 28/24 Q1009 NOSIG=
202509102100 METAR VABB 102100Z 27004KT 3000 HZ FEW020 SCT100 28/24 Q1008 NOSIG=
202509102130 METAR VABB 102130Z 30003KT 3000 HZ FEW020 SCT100 28/23 Q1008 NOSIG=
202509102200 METAR VABB 102200Z 27004KT 3000 HZ FEW020 SCT100 27/24 Q1008 NOSIG=
202509102230 METAR VABB 102230Z 26003KT 3000 HZ FEW020 SCT100 27/24 Q1008 NOSIG=
202509102300 METAR VABB 102300Z 25004KT 3000 HZ FEW020 SCT100 27/24 Q1008 NOSIG=
202509102330 METAR VABB 102330Z 25004KT 3000 HZ FEW020 SCT100 27/24 Q1008 NOSIG=
202509110000 METAR VABB 110000Z 22003KT 3000 HZ FEW020 SCT100 27/24 Q1008 NOSIG=
202509110030 METAR VABB 110030Z 24005KT 3000 HZ FEW020 SCT100 27/24 Q1009 NOSIG=
202509110100 METAR VABB 110100Z 27004KT 3000 HZ FEW020 SCT025 27/24 Q1009 NOSIG=
202509110130 METAR VABB 110130Z 35003KT 3000 HZ FEW020 SCT025 27/24 Q1009 NOSIG=
202509110200 METAR VABB 110200Z 00000KT 3000 HZ FEW020 SCT025 27/24 Q1009 NOSIG=
202509110230 METAR VABB 110230Z 00000KT 3000 HZ FEW020 SCT025 28/24 Q1010 NOSIG=
202509110300 METAR VABB 110300Z 30006KT 3000 HZ SCT020 SCT025 28/24 Q1010 NOSIG=
202509110330 METAR VABB 110330Z 29006KT 3000 DZ SCT020 SCT025 28/24 Q1010 NOSIG=
202509110400 METAR VABB 110400Z 29007KT 4000 HZ SCT020 SCT025 28/23 Q1010 NOSIG=
202509110430 METAR VABB 110430Z 29007KT 4000 HZ SCT020 SCT025 29/23 Q1010 NOSIG=
202509110500 METAR VABB 110500Z 28005KT 4000 HZ FEW020 SCT025 29/24 Q1010 NOSIG=
202509110530 METAR VABB 110530Z 28009KT 4000 HZ FEW020 SCT025 29/23 Q1010 NOSIG=
202509110600 METAR VABB 110600Z 26010KT 4000 HZ FEW020 SCT025 30/23 Q1010 BECMG 5000 HZ=
202509110630 METAR VABB 110630Z 27010KT 5000 HZ FEW020 SCT025 30/22 Q1010 NOSIG=
202509110700 METAR VABB 110700Z 27010KT 5000 HZ FEW020 SCT025 31/23 Q1010 NOSIG=
202509110730 METAR VABB 110730Z 27012KT 5000 HZ FEW020 SCT025 31/23 Q1009 NOSIG=
202509110800 METAR VABB 110800Z 28012KT 5000 HZ FEW020 SCT025 31/23 Q1009 NOSIG=
202509110830 METAR VABB 110830Z 28009KT 5000 HZ FEW020 SCT025 30/24 Q1009 NOSIG=
202509110900 METAR VABB 110900Z 28011KT 5000 HZ FEW020 SCT025 30/24 Q1008 NOSIG=
202509110930 METAR VABB 110930Z 27012KT 5000 HZ FEW020 SCT025 30/24 Q1008 NOSIG=
202509111000 METAR VABB 111000Z 29012KT 5000 HZ FEW020 SCT025 30/24 Q1008 NOSIG=
202509111030 METAR VABB 111030Z 27012KT 5000 HZ FEW020 SCT025 30/24 Q1007 NOSIG=
202509111100 METAR VABB 111100Z 29012KT 5000 HZ FEW020 SCT025 30/23 Q1007 NOSIG=
202509111130 METAR VABB 111130Z 28012KT 5000 HZ FEW020 SCT025 30/24 Q1008 NOSIG=
202509111200 METAR VABB 111200Z 30011KT 5000 HZ FEW020 SCT025 30/23 Q1008 NOSIG=
202509111230 METAR VABB 111230Z 30012KT 5000 HZ FEW020 SCT025 29/24 Q1008 NOSIG=
202509111300 METAR VABB 111300Z 32009KT 5000 HZ FEW020 SCT025 29/23 Q1008 NOSIG=
202509111330 METAR VABB 111330Z 31007KT 4000 HZ FEW020 SCT025 29/24 Q1009 NOSIG=
202509111400 METAR VABB 111400Z 31008KT 4000 HZ FEW020 SCT025 29/23 Q1009 NOSIG=
202509111430 METAR VABB 111430Z 31007KT 4000 HZ FEW020 SCT025 29/24 Q1009 NOSIG=
202509111500 METAR VABB 111500Z 31006KT 4000 HZ FEW020 SCT025 28/24 Q1009 NOSIG=
202509111530 METAR VABB 111530Z 32007KT 4000 HZ FEW020 SCT025 29/23 Q1010 NOSIG=
202509111600 METAR VABB 111600Z 32005KT 4000 HZ FEW020 SCT025 28/23 Q1010 NOSIG=
202509111630 METAR VABB 111630Z 30005KT 4000 HZ FEW020 SCT025 28/23 Q1010 NOSIG=
202509111700 METAR VABB 111700Z 31005KT 4000 HZ FEW020 SCT025 28/23 Q1010 NOSIG=
202509111730 METAR VABB 111730Z 32004KT 4000 HZ FEW020 SCT025 28/23 Q1010 NOSIG=
202509111800 METAR VABB 111800Z 30005KT 4000 HZ FEW020 SCT025 28/23 Q1010 NOSIG=
202509111830 METAR VABB 111830Z 29005KT 4000 HZ FEW020 SCT025 28/23 Q1010 NOSIG=
202509111900 METAR VABB 111900Z 30005KT 4000 HZ FEW020 SCT025 28/23 Q1009 NOSIG=
202509111930 METAR VABB 111930Z 33005KT 4000 HZ FEW020 SCT025 28/24 Q1009 NOSIG=
202509112000 METAR VABB 112000Z 31004KT 4000 HZ FEW020 SCT025 28/24 Q1009 NOSIG=
202509112030 METAR VABB 112030Z 29005KT 4000 HZ FEW020 SCT025 28/24 Q1009 NOSIG=
202509112100 METAR VABB 112100Z 31004KT 4000 HZ FEW020 SCT025 28/24 Q1009 NOSIG=
202509112130 METAR VABB 112130Z 35005KT 4000 HZ FEW020 SCT025 28/24 Q1008 NOSIG=
202509112200 METAR VABB 112200Z 32004KT 4000 HZ FEW020 SCT025 28/23 Q1008 NOSIG=
202509010000 METAR VABB NIL=
202509112300 METAR VABB 112300Z 34003KT 4000 HZ FEW020 SCT025 28/24 Q1008 NOSIG=
202509112330 METAR VABB 112330Z 34003KT 4000 HZ FEW020 SCT025 28/23 Q1008 NOSIG=
202509120000 METAR VABB 120000Z 02003KT 3000 SHRA FEW020 SCT025 28/24 Q1008 TEMPO 1500 SHRA=
202509120030 METAR VABB 120030Z 25007KT 3000 DZ FEW020 SCT025 25/22 Q1009 NOSIG=
202509120100 METAR VABB 120100Z 17005KT 3000 HZ FEW020 SCT025 25/24 Q1009 NOSIG=
202509120130 METAR VABB 120130Z 16003KT 3000 HZ FEW020 SCT025 26/24 Q1009 NOSIG=
202509120200 METAR VABB 120200Z 18004KT 3000 HZ FEW020 SCT025 BKN100 26/24 Q1010 NOSIG=
202509120230 METAR VABB 120230Z 18003KT 3000 HZ FEW020 SCT025 BKN100 26/23 Q1010 NOSIG=
202509120300 METAR VABB 120300Z 00000KT 3000 HZ FEW020 SCT025 BKN100 27/24 Q1010 NOSIG=
202509120330 METAR VABB 120330Z 14003KT 3000 HZ FEW020 SCT025 BKN100 28/24 Q1011 NOSIG=
202509120400 METAR VABB 120400Z 19003KT 3000 -SHRA FEW020 SCT025 BKN100 28/24 Q1011 NOSIG=
202509120430 METAR COR VABB 120430Z 29006KT 3000 -RA FEW020 SCT025 BKN100 27/24 Q1011 NOSIG=
202509120500 METAR VABB 120500Z 19005KT 3000 -RA FEW020 SCT025 BKN100 27/25 Q1011 NOSIG=
202509120530 METAR VABB 120530Z 20005KT 3000 BR FEW020 SCT025 BKN100 27/24 Q1011 NOSIG=
202509120600 METAR VABB 120600Z 27006KT 3000 BR FEW020 SCT025 BKN100 28/24 Q1011 NOSIG=
202509120630 METAR VABB 120630Z 29007KT 3000 HZ FEW020 SCT025 BKN100 28/24 Q1010 NOSIG=
202509120700 METAR VABB 120700Z 27008KT 3000 HZ FEW020 SCT025 BKN100 29/25 Q1010 NOSIG=
202509120730 METAR VABB 120730Z 29009KT 4000 HZ FEW020 SCT025 BKN100 29/24 Q1010 BECMG 5000 HZ=
202509120800 METAR VABB 120800Z 27011KT 5000 HZ SCT020 SCT025 BKN100 29/24 Q1009 NOSIG=
202509120830 METAR VABB 120830Z 29010KT 5000 HZ SCT020 SCT025 BKN100 29/24 Q1009 NOSIG=
202509120900 METAR VABB 120900Z 30008KT 4000 HZ SCT020 SCT025 BKN100 29/24 Q1008 NOSIG=
202509120930 METAR VABB 120930Z 30010KT 4000 HZ SCT020 SCT025 BKN100 29/24 Q1008 NOSIG=
202509121000 METAR VABB 121000Z 29010KT 4000 HZ SCT020 SCT025 BKN100 29/24 Q1008 NOSIG=
202509121030 METAR VABB 121030Z 29008KT 4000 HZ SCT020 SCT025 BKN100 29/24 Q1007 BECMG 3000 HZ=
202509121100 METAR VABB 121100Z 31013KT 3000 -RA SCT018 FEW025TCU BKN090 26/24 Q1007 NOSIG=
202509121130 METAR VABB 121130Z 31013KT 3000 -RA SCT018 FEW025TCU BKN090 26/24 Q1007 NOSIG=
202509121134 METAR VABB 121134Z 31013KT 3000 -RA SCT018 FEW025TCU BKN090 26/24 Q1007 NOSIG=
202509121200 METAR VABB 121200Z 31005KT 3000 HZ SCT018 FEW025TCU BKN090 27/24 Q1007 NOSIG=
202509121230 METAR VABB 121230Z 29003KT 3000 BR SCT018 FEW025TCU BKN090 27/25 Q1008 NOSIG=
202509121300 METAR VABB 121300Z 29003KT 3000 BR SCT018 FEW025TCU BKN090 27/25 Q1008 NOSIG=
202509121330 METAR VABB 121330Z 04006KT 3000 BR SCT018 FEW025TCU BKN090 28/24 Q1008 NOSIG=
202509121400 METAR VABB 121400Z 03005KT 3000 BR SCT020 FEW025TCU BKN100 28/24 Q1008 NOSIG=
202509121430 METAR VABB 121430Z 07006KT 3000 BR SCT020 SCT025 BKN100 28/24 Q1009 NOSIG=
202509121500 METAR VABB 121500Z 08004KT 3000 BR SCT020 SCT025 BKN100 27/24 Q1009 NOSIG=
202509121530 METAR VABB 121530Z 04003KT 3000 BR SCT020 SCT025 BKN100 28/24 Q1009 NOSIG=
202509121600 METAR VABB 121600Z 05004KT 3000 BR SCT020 SCT025 BKN100 28/24 Q1010 NOSIG=
202509121630 METAR VABB 121630Z 08004KT 3000 BR SCT020 SCT025 BKN100 28/24 Q1010 NOSIG=
202509121700 METAR VABB 121700Z 06005KT 3000 BR SCT020 SCT025 BKN100 29/24 Q1010 NOSIG=
202509121730 METAR VABB 121730Z 04006KT 3000 BR SCT020 BKN100 28/24 Q1010 NOSIG=
202509121800 METAR VABB 121800Z 02003KT 3000 BR SCT020 BKN100 28/24 Q1009 NOSIG=
202509121830 METAR VABB 121830Z 00000KT 3000 BR FEW020 BKN100 27/24 Q1009 NOSIG=
202509121900 METAR VABB 121900Z 00000KT 3000 BR SCT020 BKN090 27/24 Q1009 NOSIG=
202509010000 METAR VABB NIL=
202509121930 METAR VABB 121930Z 00000KT 3000 BR SCT020 BKN090 27/24 Q1009 NOSIG=
202509122000 METAR VABB 122000Z 04004KT 3000 BR SCT020 BKN090 27/24 Q1009 NOSIG=
202509122030 METAR VABB 122030Z 04004KT 3000 BR SCT020 BKN090 28/24 Q1008 NOSIG=
202509122100 METAR VABB 122100Z 00000KT 3000 BR SCT020 BKN090 27/24 Q1008 NOSIG=
202509122130 METAR VABB 122130Z 00000KT 3000 BR FEW020 SCT090 27/24 Q1008 NOSIG=
202509122200 METAR COR VABB 122200Z 18003KT 3000 BR FEW020 FEW025TCU SCT100 27/25 Q1008 NOSIG=
202509122230 METAR VABB 122230Z 00000KT 3000 BR FEW020 FEW025TCU SCT100 26/25 Q1008 NOSIG=
202509122300 METAR VABB 122300Z 09004KT 3000 BR FEW020 FEW025TCU SCT100 27/25 Q1008 NOSIG=
202509122329 METAR VABB 122329Z 00000KT 3000 BR FEW020 FEW030CB SCT100 27/24 Q1008 NOSIG=
202509122330 METAR COR VABB 122330Z 00000KT 3000 BR FEW020 FEW030CB SCT100 27/24 Q1008 NOSIG=
202509130000 METAR VABB 130000Z 15005KT 2500 BR FEW020 FEW030CB SCT100 27/25 Q1008 TEMPO 1500 SHRA=
202509130030 METAR VABB 130030Z 13003KT 2500 BR FEW020 FEW030CB SCT100 26/25 Q1008 NOSIG=
202509130100 METAR VABB 130100Z 11005KT 2500 BR SCT020 FEW030CB BKN100 27/24 Q1009 NOSIG=
202509130130 METAR VABB 130130Z 12005KT 2500 BR SCT020 FEW030CB BKN100 26/24 Q1009 NOSIG=
202509130200 METAR VABB 130200Z 10005KT 2500 BR SCT020 FEW030CB BKN100 27/24 Q1009 NOSIG=
202509130230 METAR VABB 130230Z 13005KT 2500 BR SCT020 FEW030CB BKN100 27/24 Q1009 NOSIG=
202509130300 METAR VABB 130300Z 13005KT 2500 BR SCT020 FEW030CB BKN100 27/24 Q1009 NOSIG=
202509130330 METAR VABB 130330Z 14005KT 2500 BR SCT020 FEW030CB BKN100 28/25 Q1010 NOSIG=
202509130400 METAR VABB 130400Z 15003KT 2500 BR SCT020 FEW030CB BKN100 28/25 Q1010 NOSIG=
202509130430 METAR VABB 130430Z 14003KT 2500 BR SCT020 FEW030CB BKN100 28/25 Q1010 NOSIG=
202509130500 METAR VABB 130500Z 20003KT 2500 BR SCT020 FEW030CB BKN100 29/25 Q1010 BECMG 3000 BR=
202509130530 METAR VABB 130530Z 26008KT 3000 BR SCT020 FEW030CB BKN100 28/25 Q1010 NOSIG=
202509130600 METAR VABB 130600Z 25008KT 3000 -RA SCT020 FEW030CB BKN100 28/25 Q1010 NOSIG=
202509130630 METAR VABB 130630Z 26009KT 3000 BR SCT020 FEW030CB BKN100 28/25 Q1010 NOSIG=
202509130700 METAR VABB 130700Z 25009KT 3000 BR SCT020 FEW025TCU BKN100 28/25 Q1009 NOSIG=
202509130730 METAR VABB 130730Z 27010KT 3000 BR SCT020 FEW025TCU BKN100 28/25 Q1009 NOSIG=
202509130800 METAR VABB 130800Z 29011KT 3000 -RA SCT018 FEW025TCU BKN090 27/25 Q1008 NOSIG=
202509130830 METAR VABB 130830Z 29009KT 3000 BR SCT018 FEW030CB BKN090 28/25 Q1008 NOSIG=
202509130900 METAR VABB 130900Z 29012KT 3000 BR SCT018 FEW030CB BKN090 28/25 Q1007 NOSIG=
202509130930 METAR VABB 130930Z 28010KT 3000 BR SCT018 FEW030CB BKN090 28/25 Q1007 NOSIG=
202509131000 METAR VABB 131000Z 30010KT 3000 BR SCT018 FEW025TCU BKN090 28/25 Q1007 NOSIG=
202509131030 METAR VABB 131030Z 29012KT 3000 BR SCT018 FEW025TCU BKN090 28/25 Q1007 NOSIG=
202509131100 METAR VABB 131100Z 34009KT 3000 BR SCT018 FEW025TCU BKN090 27/24 Q1007 NOSIG=
202509131130 METAR VABB 131130Z 31008KT 3000 BR SCT018 FEW025TCU BKN090 27/25 Q1007 TEMPO 1500 SHRA=
202509131200 METAR VABB 131200Z 30010KT 3000 BR SCT018 FEW025TCU BKN090 27/25 Q1007 NOSIG=
202509131230 METAR VABB 131230Z 29009KT 3000 BR SCT018 FEW025TCU BKN090 27/24 Q1007 NOSIG=
202509131300 METAR VABB 131300Z 31008KT 3000 BR SCT018 FEW030CB BKN090 27/24 Q1007 NOSIG=
202509131330 METAR VABB 131330Z 32006KT 3000 -RA SCT018 FEW030CB BKN090 27/25 Q1008 TEMPO 1500 SHRA=
202509131400 METAR VABB 131400Z 33007KT 3000 -RA SCT018 FEW030CB BKN090 26/24 Q1008 TEMPO 1500 SHRA=
202509131430 METAR VABB 131430Z 28004KT 3000 -RA FEW012 SCT018 FEW030CB BKN090 26/25 Q1008 TEMPO 1500 SHRA=
202509131500 METAR VABB 131500Z 25007KT 2500 -RA FEW012 SCT018 FEW030CB OVC090 26/24 Q1009 TEMPO 1500 SHRA=
202509131530 METAR VABB 131530Z 27004KT 2500 -RA FEW012 SCT018 FEW030CB OVC090 26/24 Q1009 TEMPO 1500 SHRA=
202509131600 METAR VABB 131600Z 25005KT 2500 -RA FEW012 SCT018 FEW030CB OVC090 27/25 Q1009 TEMPO 1500 SHRA=
202509131630 METAR VABB 131630Z 25005KT 2500 -RA FEW012 SCT020 FEW030CB OVC090 26/25 Q1009 TEMPO 1500 SHRA=
202509131700 METAR VABB 131700Z 25005KT 2500 HZ FEW012 SCT020 FEW030CB OVC090 26/24 Q1009 TEMPO 1500 SHRA=
202509131730 METAR VABB 131730Z 22005KT 2500 HZ FEW012 SCT020 FEW030CB OVC090 26/25 Q1009 TEMPO 1500 SHRA=
202509131800 METAR COR VABB 131800Z 17005KT 2500 HZ FEW012 SCT020 FEW030CB OVC090 26/25 Q1009 TEMPO 1500 SHRA=
202509010000 METAR VABB NIL=
202509131806 METAR VABB 131806Z 17005KT 2500 HZ FEW012 SCT020 FEW030CB OVC090 26/25 Q1009 TEMPO 1500 SHRA=
202509131830 METAR VABB 131830Z 21007KT 2500 VCSH FEW012 SCT020 FEW030CB OVC090 26/25 Q1009 TEMPO 1500 SHRA=
202509131900 METAR COR VABB 131900Z 02010KT 1500 R27/1700 TSRA FEW010 SCT015 FEW030CB OVC090 25/24 Q1009 TEMPO 0800 +SHRA=
202509131930 METAR VABB 131930Z 03003KT 2100 -SHRA FEW010 SCT015 FEW030CB OVC090 25/25 Q1009 TEMPO 1500 SHRA=
202509132000 METAR VABB 132000Z 12006KT 2100 -RA FEW010 SCT018 FEW030CB OVC090 25/25 Q1008 TEMPO 1500 SHRA=
202509132030 METAR VABB 132030Z 17005KT 2500 -RA FEW010 SCT018 FEW030CB OVC090 25/24 Q1008 TEMPO 1500 SHRA=
202509132100 METAR VABB 132100Z 22003KT 2500 HZ FEW010 SCT018 FEW030CB OVC090 25/24 Q1008 TEMPO 1500 SHRA=
202509132130 METAR VABB 132130Z 25006KT 1700 HZ FEW010 SCT018 FEW030CB OVC090 25/24 Q1008 TEMPO 1500 SHRA=
202509132200 METAR VABB 132200Z 30007KT 1500 RA SCT008 SCT018 FEW030CB OVC080 25/24 Q1008 TEMPO 0800 +SHRA=
202509132230 METAR VABB 132230Z 31004KT 2100 -RA SCT008 SCT018 FEW030CB OVC080 24/24 Q1008 TEMPO 1500 SHRA=
202509132300 METAR VABB 132300Z 01004KT 2100 -DZ SCT008 SCT018 FEW030CB OVC080 25/24 Q1008 NOSIG=
202509132330 METAR VABB 132330Z 36004KT 2500 -DZ SCT010 SCT018 FEW030CB OVC080 25/24 Q1008 NOSIG=
202509140000 METAR VABB 140000Z 01005KT 2500 -RA SCT010 SCT018 FEW025TCU OVC080 25/24 Q1008 NOSIG=
202509140030 METAR VABB 140030Z 01005KT 2500 -DZ SCT010 SCT018 FEW025TCU OVC080 25/24 Q1008 NOSIG=
202509140100 METAR VABB 140100Z 02005KT 2200 -DZ FEW012 SCT018 FEW025TCU OVC080 26/24 Q1008 NOSIG=
202509140130 METAR VABB 140130Z 08005KT 2200 BR FEW012 SCT018 FEW025TCU OVC080 25/24 Q1008 NOSIG=
202509140200 METAR VABB 140200Z 06004KT 2200 BR SCT018 SCT025 BKN090 26/24 Q1008 NOSIG=
202509140230 METAR VABB 140230Z 09004KT 2500 BR SCT018 SCT025 BKN090 26/24 Q1009 NOSIG=
202509140300 METAR VABB 140300Z 13005KT 2500 BR SCT018 SCT025 OVC090 26/24 Q1009 NOSIG=
202509140330 METAR VABB 140330Z 13005KT 2500 BR SCT018 SCT025 OVC090 26/24 Q1010 NOSIG=
202509140400 METAR VABB 140400Z 13003KT 2500 BR SCT018 SCT025 OVC090 27/24 Q1010 NOSIG=
202509140430 METAR VABB 140430Z 15003KT 2500 BR SCT020 SCT025 BKN090 27/24 Q1010 NOSIG=
202509140500 METAR VABB 140500Z 21003KT 2500 BR SCT020 SCT025 BKN090 28/24 Q1009 BECMG 3000 BR=
202509140530 METAR VABB 140530Z 30004KT 3000 BR SCT020 SCT025 BKN090 29/25 Q1009 NOSIG=
202509140600 METAR VABB 140600Z 30003KT 3000 HZ SCT020 FEW025TCU BKN090 29/25 Q1009 NOSIG=
202509140630 METAR VABB 140630Z 27007KT 3000 BR SCT018 FEW025TCU BKN090 29/25 Q1009 NOSIG=
202509140700 METAR VABB 140700Z 28009KT 3000 BR SCT018 FEW030CB BKN090 28/24 Q1009 NOSIG=
202509140730 METAR VABB 140730Z 29007KT 3000 -RA SCT018 FEW025TCU BKN090 28/25 Q1009 NOSIG=
202509140800 METAR VABB 140800Z 30005KT 3000 BR SCT018 FEW025TCU BKN090 28/25 Q1008 NOSIG=
202509140830 METAR VABB 140830Z 29007KT 3000 BR SCT018 FEW025TCU BKN090 29/25 Q1008 NOSIG=
202509140900 METAR VABB 140900Z 32006KT 3000 -RA SCT018 FEW025TCU BKN090 28/25 Q1007 NOSIG=
202509140930 METAR VABB 140930Z 29005KT 2500 -RA SCT018 FEW030CB BKN090 27/26 Q1007 TEMPO 1500 SHRA=
202509141000 METAR VABB 141000Z 32005KT 2500 -RA SCT018 FEW030CB BKN090 28/25 Q1007 NOSIG=
202509141030 METAR VABB 141030Z 32007KT 3000 BR SCT018 FEW030CB BKN090 28/25 Q1007 NOSIG=
202509141100 METAR VABB 141100Z 32008KT 3000 BR SCT018 FEW030CB BKN090 28/25 Q1007 NOSIG=
202509141130 METAR VABB 141130Z 31009KT 3000 BR SCT018 FEW030CB BKN090 27/25 Q1007 NOSIG=
202509141200 METAR VABB 141200Z 31010KT 3000 BR SCT018 FEW030CB BKN090 27/26 Q1007 NOSIG=
202509141230 METAR VABB 141230Z 35009KT 3000 BR SCT018 FEW025TCU BKN090 27/24 Q1007 NOSIG=
202509141300 METAR VABB 141300Z 35008KT 3000 BR SCT018 FEW025TCU BKN090 27/24 Q1007 NOSIG=
202509141330 METAR VABB 141330Z 34005KT 2500 BR SCT018 FEW025TCU BKN090 27/24 Q1008 NOSIG=
202509141400 METAR VABB 141400Z 34006KT 2500 BR SCT018 FEW025TCU BKN090 27/25 Q1008 NOSIG=
202509141430 METAR VABB 141430Z 04006KT 2500 BR SCT018 FEW025TCU BKN090 27/24 Q1008 NOSIG=
202509141500 METAR VABB 141500Z 31004KT 2500 BR SCT018 FEW025TCU BKN090 27/24 Q1008 NOSIG=
202509141530 METAR VABB 141530Z 35005KT 2500 BR SCT018 FEW025TCU BKN090 27/25 Q1009 NOSIG=
202509141600 METAR VABB 141600Z 32005KT 2500 BR SCT018 FEW030CB BKN090 27/25 Q1009 NOSIG=
202509141630 METAR VABB 141630Z 33005KT 2500 BR SCT018 FEW030CB BKN090 27/25 Q1009 TEMPO 1500 TSRA=
202509141700 METAR VABB 141700Z 00000KT 2500 -RA SCT018 FEW030CB BKN090 26/25 Q1009 TEMPO 1500 RA=
202509141730 METAR VABB 141730Z 28003KT 2500 -RA SCT018 FEW030CB BKN090 27/25 Q1009 NOSIG=
202509141800 METAR VABB 141800Z 21003KT 2500 -RA SCT018 FEW030CB OVC090 26/25 Q1009 NOSIG=
202509141830 METAR VABB 141830Z 20004KT 2100 RA FEW012 SCT018 FEW030CB OVC090 26/25 Q1008 TEMPO 1500 TSRA=
202509141900 METAR VABB 141900Z 31005KT 2100 TSRA FEW012 SCT018 FEW030CB OVC090 26/25 Q1008 TEMPO 1500 TSRA=
202509141930 METAR VABB 141930Z 30007KT 2100 TSRA FEW012 SCT018 FEW030CB OVC090 25/25 Q1008 NOSIG=
202509142000 METAR VABB 142000Z 20004KT 2100 TSRA FEW010 SCT018 FEW030CB OVC090 25/25 Q1008 TEMPO 1500 TSRA=
202509142030 METAR VABB 142030Z 27006KT 2100 TSRA FEW010 SCT018 FEW030CB OVC090 25/25 Q1008 NOSIG=
202509142100 METAR VABB 142100Z 27008KT 2500 TSRA FEW010 SCT018 FEW030CB OVC090 25/25 Q1007 NOSIG=
202509142130 METAR VABB 142130Z 24008KT 2500 -TSRA FEW010 SCT018 FEW030CB OVC090 25/25 Q1007 NOSIG=
202509142200 METAR VABB 142200Z 24007KT 2500 -TSRA FEW010 SCT018 FEW030CB OVC080 26/25 Q1007 NOSIG=
202509142230 METAR VABB 142230Z 21003KT 1800 TSRA SCT008 SCT015 FEW030CB OVC080 25/25 Q1007 TEMPO 1500 SHRA=
202509142300 METAR VABB 142300Z 27005KT 1800 TSRA SCT008 SCT015 FEW030CB OVC080 25/25 Q1007 TEMPO 1500 SHRA=
202509142330 METAR VABB 142330Z 30006KT 1800 +TSRA SCT008 SCT015 FEW030CB OVC080 25/25 Q1007 TEMPO 1500 SHRA=
202509150000 METAR VABB 150000Z 27004KT 2100 -TSRA SCT008 SCT018 FEW030CB OVC080 25/25 Q1007 TEMPO 1500 SHRA=
202509150030 METAR VABB 150030Z 20006KT 2100 -TSRA SCT008 SCT018 FEW030CB OVC080 26/25 Q1007 TEMPO 1500 SHRA=
202509150100 METAR VABB 150100Z 30008KT 1000 R27/2000 +TSRA SCT008 SCT015 FEW030CB OVC080 25/25 Q1007 TEMPO 0800 +SHRA=
202509150130 METAR VABB 150130Z 28011KT 1500 +TSRA SCT008 SCT015 FEW030CB OVC080 24/24 Q1008 TEMPO 0800 +SHRA=
202509150200 METAR VABB 150200Z 24010KT 2100 -RA SCT008 SCT015 FEW030CB OVC080 25/25 Q1008 TEMPO 1500 SHRA=
202509150230 METAR VABB 150230Z 24006KT 2100 RA SCT008 SCT015 FEW030CB OVC080 25/24 Q1008 TEMPO 1500 SHRA=
202509150300 METAR VABB 150300Z 27011KT 2200 -TSRA SCT008 SCT015 FEW030CB OVC080 25/24 Q1008 NOSIG=
202509150330 METAR VABB 150330Z 29006KT 1000 R27/P2000 -TSRA SCT008 SCT015 FEW030CB OVC080 26/25 Q1009 BECMG 1500 -TSRA=
202509150333 METAR VABB 150333Z 29006KT 1000 R27/P2000 -TSRA SCT008 SCT015 FEW030CB OVC080 26/25 Q1009 BECMG 1500 -TSRA=
202509150400 METAR VABB 150400Z 28008KT 2500 -TSRA SCT008 SCT015 FEW030CB OVC080 25/25 Q1009 TEMPO 1500 TSRA=
202509150430 METAR VABB 150430Z 29005KT 2500 -TSRA SCT008 SCT015 FEW030CB OVC080 26/25 Q1009 BECMG 3000 -TSRA=
202509150500 METAR VABB 150500Z 28006KT 3000 -TSRA SCT008 SCT015 FEW030CB OVC080 26/25 Q1009 NOSIG=
202509150530 METAR VABB 150530Z 30012KT 2500 -TSRA SCT008 SCT015 FEW030CB OVC080 25/25 Q1009 NOSIG=
202509150600 METAR VABB 150600Z 30012KT 2500 -RA SCT008 SCT015 FEW030CB OVC080 26/25 Q1009 NOSIG=
202509150626 METAR VABB 150626Z 32009KT 2100 -RA SCT010 SCT015 FEW025TCU OVC080 25/24 Q1009 NOSIG=
202509150630 METAR VABB 150630Z 32009KT 2100 -RA SCT010 SCT015 FEW025TCU OVC080 25/24 Q1009 NOSIG=
202509150700 METAR VABB 150700Z 31010KT 1800 RA SCT010 SCT015 FEW025TCU OVC080 25/24 Q1008 TEMPO 1500 SHRA=
202509150730 METAR VABB 150730Z 32010KT 2500 -RA SCT010 SCT015 FEW025TCU OVC080 25/24 Q1008 TEMPO 1500 SHRA=
202509150800 METAR VABB 150800Z 32010KT 2500 -RA SCT010 SCT015 FEW025TCU OVC080 25/24 Q1008 TEMPO 1500 SHRA=
202509150830 METAR VABB 150830Z 32010KT 2500 -RA SCT010 SCT015 FEW030CB OVC080 25/24 Q1007 TEMPO 1500 SHRA=
202509150900 METAR VABB 150900Z 31010KT 2500 -DZ SCT010 SCT018 FEW030CB OVC080 25/24 Q1007 NOSIG=
202509150930 METAR VABB 150930Z 30009KT 2500 -RA SCT010 SCT018 FEW025TCU OVC080 25/24 Q1007 NOSIG=
202509151000 METAR VABB 151000Z 32009KT 1800 RA SCT010 SCT018 FEW025TCU OVC080 25/23 Q1007 TEMPO 1500 SHRA=
202509151030 METAR VABB 151030Z 35011KT 2100 -RA SCT010 SCT018 FEW025TCU OVC080 24/23 Q1006 TEMPO 1500 SHRA=
202509151100 METAR VABB 151100Z 33007KT 2100 -RA SCT010 SCT018 FEW025TCU OVC080 25/23 Q1005 TEMPO 1500 SHRA=
202509151130 METAR VABB 151130Z 34005KT 2500 BR SCT010 SCT018 FEW025TCU OVC080 25/23 Q1006 TEMPO 1500 SHRA=
202509151200 METAR VABB 151200Z 35003KT 2500 BR SCT018 SCT025 BKN090 25/23 Q1006=
202509151230 METAR VABB 151230Z 32004KT 2500 BR SCT018 SCT025 BKN090 25/23 Q1007 NOSIG=
202509151300 METAR VABB 151300Z 28004KT 2500 BR SCT018 SCT025 BKN090 25/23 Q1007 NOSIG=
202509151330 METAR VABB 151330Z 00000KT 2500 BR SCT018 SCT025 BKN090 26/23 Q1007 NOSIG=
202509151400 METAR VABB 151400Z 16003KT 2500 BR SCT018 SCT025 BKN090 26/23 Q1008 NOSIG=
202509151430 METAR VABB 151430Z 16005KT 2500 BR SCT018 SCT025 BKN090 25/24 Q1008 NOSIG=
202509151500 METAR VABB 151500Z 18003KT 2500 BR SCT018 SCT025 BKN090 25/24 Q1008 NOSIG=
202509151530 METAR VABB 151530Z 14004KT 2500 BR SCT018 SCT025 BKN090 26/23 Q1009 NOSIG=
202509151600 METAR VABB 151600Z 17003KT 2500 BR SCT018 SCT025 BKN090 26/24 Q1009 NOSIG=
202509151630 METAR VABB 151630Z 17004KT 2500 BR SCT018 SCT025 BKN090 26/24 Q1009 NOSIG=
202509151700 METAR VABB 151700Z 14003KT 2500 BR SCT018 SCT025 BKN090 26/24 Q1009 NOSIG=
202509151730 METAR VABB 151730Z 00000KT 2500 BR SCT018 SCT025 BKN090 26/24 Q1009 NOSIG=
202509151800 METAR VABB 151800Z 00000KT 2500 BR SCT018 SCT025 BKN090 26/24 Q1008 NOSIG=
202509151830 METAR VABB 151830Z 12005KT 2500 BR SCT018 SCT025 BKN090 25/24 Q1008 NOSIG=
202509151900 METAR VABB 151900Z 13006KT 2500 BR SCT018 SCT025 BKN090 25/24 Q1008 NOSIG=
202509151930 METAR VABB 151930Z 15003KT 2500 BR SCT018 SCT025 BKN090 25/24 Q1007 NOSIG=
202509152000 METAR VABB 152000Z 10004KT 2500 BR SCT018 SCT025 BKN090 26/24 Q1007 NOSIG=
202509152030 METAR VABB 152030Z 14004KT 2500 BR SCT018 SCT025 BKN090 25/24 Q1007 NOSIG=
202509152100 METAR VABB 152100Z 17003KT 2500 BR SCT018 SCT025 BKN090 25/24 Q1007 NOSIG=
202509152130 METAR VABB 152130Z 00000KT 2500 BR SCT018 FEW025TCU BKN090 26/24 Q1006 NOSIG=
202509152200 METAR VABB 152200Z 00000KT 2500 BR SCT018 FEW025TCU BKN090 25/24 Q1006 NOSIG=
202509152230 METAR VABB 152230Z 13003KT 2500 BR SCT018 FEW025TCU BKN090 25/24 Q1006 NOSIG=
202509152300 METAR VABB 152300Z 14003KT 2500 BR SCT018 FEW025TCU BKN090 25/24 Q1006 NOSIG=
202509152330 METAR VABB 152330Z 16003KT 2500 BR SCT018 FEW025TCU BKN090 26/24 Q1006 NOSIG=
202509160000 METAR VABB 160000Z 03005KT 2500 -SHRA SCT018 FEW025TCU BKN090 26/24 Q1007 NOSIG=
202509160030 METAR VABB 160030Z 03005KT 2500 DZ SCT018 FEW025TCU BKN090 26/24 Q1007 NOSIG=
202509160100 METAR VABB 160100Z 24006KT 2500 BR SCT018 FEW025TCU BKN090 25/24 Q1007 NOSIG=
202509160130 METAR VABB 160130Z 23004KT 2500 BR SCT018 FEW025TCU BKN090 25/23 Q1008 NOSIG=
202509160200 METAR VABB 160200Z 23006KT 2500 -SHRA SCT018 FEW025TCU BKN090 25/23 Q1008 NOSIG=
202509160230 METAR VABB 160230Z 23004KT 2500 BR SCT018 FEW025TCU BKN090 25/23 Q1008 NOSIG=
202509160300 METAR VABB 160300Z 00000KT 2500 -DZ SCT018 FEW030CB BKN090 25/24 Q1009 TEMPO 1500 SHRA=
202509160330 METAR VABB 160330Z 17003KT 2500 BR SCT018 FEW025TCU BKN090 26/24 Q1009 NOSIG=
202509160400 METAR VABB 160400Z 06004KT 2500 BR SCT018 FEW025TCU BKN090 27/25 Q1009 NOSIG=
202509160430 METAR VABB 160430Z 08004KT 2500 BR SCT018 FEW025TCU BKN090 27/24 Q1009 NOSIG=
202509160500 METAR VABB 160500Z 15005KT 2500 BR SCT018 FEW025TCU BKN090 27/24 Q1009 BECMG 3000 BR=
202509160530 METAR VABB 160530Z 13006KT 3000 BR SCT018 FEW025TCU BKN090 27/25 Q1009 NOSIG=
202509160600 METAR VABB 160600Z 14004KT 3000 BR SCT018 FEW025TCU BKN090 27/25 Q1009 NOSIG=
202509160630 METAR VABB 160630Z 13005KT 3000 BR SCT018 FEW025TCU BKN090 27/24 Q1009 NOSIG=
202509160700 METAR VABB 160700Z 15004KT 3000 BR SCT018 FEW025TCU BKN090 27/25 Q1008 NOSIG=
202509160730 METAR VABB 160730Z 14004KT 3000 BR SCT018 FEW025TCU BKN090 27/24 Q1008 NOSIG=
202509160800 METAR VABB 160800Z 19005KT 2500 BR SCT018 FEW025TCU BKN090 27/26 Q1007 NOSIG=
202509160830 METAR VABB 160830Z 19006KT 2500 BR FEW012 SCT018 FEW025TCU BKN090 27/25 Q1007 TEMPO 1500 SHRA=
202509160900 METAR VABB 160900Z 25008KT 2100 -RA FEW010 SCT018 FEW030CB BKN090 26/25 Q1007 TEMPO 1500 SHRA=
202509160930 METAR VABB 160930Z 00000KT 2100 -RA FEW010 SCT018 FEW030CB BKN090 25/24 Q1006 TEMPO 1500 SHRA=
202509161000 METAR VABB 161000Z VRB03KT 2100 -RA FEW010 SCT018 FEW030CB OVC080 26/24 Q1006 TEMPO 1500 SHRA=
202509161030 METAR VABB 161030Z 23004KT 2500 BR FEW012 SCT018 FEW030CB OVC080 25/24 Q1006 NOSIG=
202509161100 METAR VABB 161100Z 24004KT 2500 -RA FEW012 SCT018 FEW025TCU OVC080 26/24 Q1006 NOSIG=
202509161129 METAR VABB 161129Z 00000KT 2500 BR FEW012 SCT018 FEW025TCU OVC090 26/24 Q1006 NOSIG=
202509161200 METAR VABB 161200Z 22003KT 2500 BR SCT018 FEW025TCU BKN090 26/24 Q1006 NOSIG=
202509161230 METAR VABB 161230Z 00000KT 2500 BR SCT018 FEW025TCU BKN090 26/25 Q1006 NOSIG=
202509161300 METAR VABB 161300Z 00000KT 2500 BR SCT018 SCT025 BKN090 26/25 Q1007 NOSIG=
202509161330 METAR VABB 161330Z VRB03KT 2500 BR SCT018 SCT025 BKN090 26/24 Q1007 NOSIG=
202509161400 METAR VABB 161400Z 15004KT 2500 BR SCT018 SCT025 BKN090 26/25 Q1007 NOSIG=
202509161430 METAR VABB 161430Z 14003KT 2500 BR SCT018 SCT025 BKN090 26/25 Q1008 NOSIG=
202509161500 METAR VABB 161500Z 15003KT 2500 BR SCT018 SCT025 BKN090 26/25 Q1008 NOSIG=
202509161530 METAR VABB 161530Z 13003KT 2500 BR SCT018 SCT025 BKN090 26/24 Q1008 NOSIG=
202509161600 METAR VABB 161600Z 14004KT 2500 BR SCT018 SCT025 BKN090 26/24 Q1009 NOSIG=
202509161630 METAR VABB 161630Z 13003KT 2500 BR SCT018 SCT025 BKN090 26/24 Q1009 NOSIG=
202509161700 METAR VABB 161700Z 13004KT 2500 BR SCT018 SCT025 BKN090 26/24 Q1009 NOSIG=
202509161730 METAR VABB 161730Z 16004KT 2500 BR SCT018 SCT025 BKN090 26/25 Q1009 NOSIG=
202509161800 METAR VABB 161800Z 00000KT 2500 BR SCT018 SCT025 BKN090 26/25 Q1009 NOSIG=
202509161830 METAR VABB 161830Z 16004KT 2500 BR SCT018 SCT025 BKN090 26/25 Q1008 NOSIG=
202509161900 METAR VABB 161900Z 20005KT 2100 -RA FEW012 SCT018 FEW025TCU BKN090 26/25 Q1008 TEMPO 1500 SHRA=
202509161930 METAR VABB 161930Z 19004KT 2500 -RA FEW012 SCT018 FEW025TCU BKN090 26/25 Q1008 NOSIG=
202509162000 METAR VABB 162000Z 21003KT 2500 BR SCT018 SCT025 OVC090 26/25 Q1007 NOSIG=
202509162030 METAR VABB 162030Z 15003KT 2500 BR SCT018 SCT025 OVC090 26/24 Q1007 NOSIG=
202509162100 METAR VABB 162100Z 13004KT 2500 BR SCT018 SCT025 OVC090 26/25 Q1007 NOSIG=
202509162130 METAR VABB 162130Z 00000KT 2500 BR SCT018 SCT025 OVC090 26/25 Q1007 NOSIG=
202509162200 METAR VABB 162200Z 13003KT 2500 BR SCT018 SCT025 BKN090 25/25 Q1007 NOSIG=
202509162230 METAR VABB 162230Z 11004KT 2500 BR SCT018 SCT025 BKN090 25/25 Q1007 NOSIG=
202509162300 METAR VABB 162300Z 15003KT 2500 BR SCT018 FEW025TCU BKN090 25/25 Q1006 NOSIG=
202509162330 METAR VABB 162330Z 19003KT 2500 BR SCT018 FEW025TCU BKN090 25/24 Q1006 NOSIG=
202509170000 METAR VABB 170000Z 00000KT 2500 BR SCT018 FEW025TCU BKN090 26/25 Q1007 NOSIG=
202509170030 METAR VABB 170030Z 00000KT 2500 BR SCT018 FEW025TCU BKN090 26/24 Q1007 NOSIG=
202509170100 METAR VABB 170100Z 00000KT 2500 BR SCT018 FEW025TCU BKN090 26/24 Q1007 NOSIG=
202509170130 METAR VABB 170130Z 13004KT 2500 BR SCT018 FEW025TCU BKN090 26/24 Q1008 BECMG 3000 BR=
202509170200 METAR VABB 170200Z 12004KT 2500 BR SCT018 FEW025TCU BKN090 26/24 Q1008 NOSIG=
202509170230 METAR VABB 170230Z 15003KT 2500 BR SCT018 FEW025TCU BKN090 26/24 Q1008 NOSIG=
202509170300 METAR VABB 170300Z 00000KT 2500 BR SCT018 FEW030CB BKN090 26/25 Q1009 NOSIG=
202509170330 METAR VABB 170330Z 15003KT 2500 BR FEW012 SCT018 FEW030CB OVC090 26/25 Q1009 NOSIG=
202509170400 METAR VABB 170400Z 17005KT 2500 BR FEW012 SCT018 FEW030CB BKN090 26/25 Q1009 NOSIG=
202509170430 METAR VABB 170430Z 16004KT 2500 BR FEW012 SCT018 FEW030CB BKN090 27/25 Q1009 NOSIG=
202509170500 METAR VABB 170500Z 15005KT 2500 BR SCT018 FEW025TCU BKN090 27/25 Q1009 NOSIG=
202509170530 METAR VABB 170530Z 19004KT 2500 BR SCT018 FEW025TCU BKN090 28/25 Q1009 BECMG 3000 BR=
202509170600 METAR VABB 170600Z 15005KT 3000 BR SCT018 FEW025TCU BKN090 28/25 Q1009 NOSIG=
202509170630 METAR VABB 170630Z 18005KT 3000 HZ SCT018 SCT025 BKN090 29/25 Q1009 NOSIG=
202509170700 METAR VABB 170700Z 21003KT 3500 HZ SCT018 SCT025 BKN090 30/25 Q1008 NOSIG=
202509170730 METAR VABB 170730Z 22006KT 3500 HZ SCT018 SCT025 BKN090 30/25 Q1007 NOSIG=
202509170800 METAR VABB 170800Z 24009KT 3500 HZ SCT018 SCT025 BKN090 29/25 Q1007 NOSIG=
202509170830 METAR VABB 170830Z 25003KT 3500 BR SCT018 SCT025 BKN090 29/26 Q1006 NOSIG=
202509170900 METAR VABB 170900Z 27009KT 3500 BR SCT018 SCT025 BKN090 29/26 Q1006 NOSIG=
202509170930 METAR VABB 170930Z 27009KT 3500 BR SCT020 SCT025 FEW025TCU BKN090 29/24 Q1006 NOSIG=
202509171000 METAR VABB 171000Z 27010KT 4000 BR SCT020 FEW025TCU BKN090 29/25 Q1006 NOSIG=
202509010000 METAR VABB NIL=
202509171030 METAR VABB 171030Z 27009KT 4000 BR SCT020 FEW025TCU BKN090 29/25 Q1006 NOSIG=
202509171100 METAR VABB 171100Z 25010KT 4000 BR SCT020 FEW025TCU BKN090 29/24 Q1006 NOSIG=
202509171130 METAR VABB 171130Z 27009KT 4000 BR SCT020 FEW025TCU BKN090 29/25 Q1006 NOSIG=
202509171200 METAR VABB 171200Z 26010KT 4000 BR SCT020 FEW025TCU BKN090 28/25 Q1006 NOSIG=
202509171230 METAR VABB 171230Z 27009KT 4000 BR SCT020 FEW025TCU BKN090 28/25 Q1006 NOSIG=
202509171300 METAR VABB 171300Z 28008KT 4000 BR SCT020 FEW025TCU BKN090 28/25 Q1006 NOSIG=
202509171330 METAR VABB 171330Z 27007KT 4000 BR SCT020 FEW025TCU BKN090 28/25 Q1007 NOSIG=
202509171400 METAR VABB 171400Z 29007KT 4000 BR SCT020 FEW025TCU BKN090 28/25 Q1007 NOSIG=
202509171430 METAR VABB 171430Z 28006KT 4000 BR SCT020 FEW025TCU BKN090 28/25 Q1007 NOSIG=
202509171500 METAR VABB 171500Z 26006KT 4000 BR FEW020 SCT025 BKN100 28/25 Q1008 NOSIG=
202509171530 METAR VABB 171530Z 26006KT 4000 BR FEW020 SCT025 BKN100 28/25 Q1008 NOSIG=
202509171600 METAR VABB 171600Z 24007KT 4000 BR FEW020 SCT025 BKN100 28/25 Q1008 NOSIG=
202509171630 METAR VABB 171630Z 24005KT 4000 BR FEW020 SCT025 BKN100 28/25 Q1008 NOSIG=
202509171700 METAR VABB 171700Z 24007KT 4000 BR FEW020 SCT025 BKN100 28/25 Q1008 NOSIG=
202509171730 METAR VABB 171730Z 23005KT 4000 BR FEW020 SCT025 BKN100 27/25 Q1008 NOSIG=
202509171800 METAR VABB 171800Z 22004KT 4000 BR FEW020 SCT025 BKN100 27/25 Q1008 NOSIG=
202509171830 METAR VABB 171830Z 23005KT 4000 BR FEW020 SCT025 BKN100 27/25 Q1008 NOSIG=
202509171900 METAR VABB 171900Z 24005KT 4000 BR FEW020 SCT025 BKN100 27/25 Q1007 NOSIG=
202509171930 METAR VABB 171930Z 23005KT 4000 BR FEW020 SCT025 BKN100 27/25 Q1007 NOSIG=
202509172000 METAR VABB 172000Z 23004KT 4000 BR FEW020 SCT025 BKN100 27/25 Q1007 NOSIG=
202509172030 METAR VABB 172030Z 23005KT 3000 BR FEW020 FEW025TCU BKN100 27/25 Q1006 NOSIG=
202509172100 METAR VABB 172100Z 24005KT 3000 BR FEW020 FEW025TCU BKN100 27/25 Q1006 NOSIG=
202509172130 METAR VABB 172130Z 25006KT 3000 BR FEW020 FEW025TCU BKN100 27/25 Q1006 NOSIG=
202509172200 METAR VABB 172200Z 23003KT 3000 BR FEW020 FEW025TCU BKN100 27/25 Q1006 NOSIG=
202509172230 METAR VABB 172230Z 00000KT 3000 BR FEW020 FEW025TCU BKN100 27/25 Q1006 NOSIG=
202509172300 METAR VABB 172300Z 24005KT 3000 BR FEW020 FEW025TCU BKN100 27/25 Q1006 NOSIG=
202509172330 METAR VABB 172330Z 30005KT 3000 BR FEW020 SCT025 BKN100 27/25 Q1006 NOSIG=
202509180000 METAR VABB 180000Z 29003KT 3000 BR FEW020 SCT025 BKN100 27/25 Q1007 NOSIG=
202509180030 METAR VABB 180030Z 01003KT 3000 BR FEW020 SCT025 BKN100 27/25 Q1007 NOSIG=
202509180100 METAR VABB 180100Z 03003KT 3000 BR FEW020 SCT025 BKN100 27/25 Q1007 NOSIG=
202509180130 METAR VABB 180130Z 04004KT 3000 -RA FEW018 SCT025 BKN090 26/25 Q1007 NOSIG=
202509180200 METAR VABB 180200Z 06004KT 3000 DZ FEW018 SCT025 BKN090 27/24 Q1008 NOSIG=
202509180230 METAR VABB 180230Z 03004KT 3000 BR FEW020 SCT025 BKN100 27/24 Q1008 NOSIG=
202509180300 METAR VABB 180300Z 03004KT 3000 BR FEW020 SCT025 BKN100 27/24 Q1008 NOSIG=
202509180330 METAR VABB 180330Z 00000KT 3000 BR FEW020 SCT025 BKN100 28/24 Q1009 NOSIG=
202509180400 METAR VABB 180400Z 05004KT 3000 BR FEW020 SCT025 BKN100 28/24 Q1009 NOSIG=
202509180430 METAR VABB 180430Z 15003KT 3000 BR FEW020 SCT025 BKN100 28/25 Q1009 NOSIG=
202509180500 METAR VABB 180500Z 20004KT 3000 BR FEW020 SCT025 BKN100 29/24 Q1009 NOSIG=
202509180530 METAR VABB 180530Z 24003KT 3000 BR FEW020 SCT025 BKN100 29/24 Q1009 NOSIG=
202509180600 METAR VABB 180600Z 26005KT 3000 BR FEW020 SCT025 BKN100 29/24 Q1009 NOSIG=
202509180630 METAR VABB 180630Z 28007KT 3000 HZ FEW020 FEW025TCU BKN100 29/24 Q1008 NOSIG=
202509180700 METAR VABB 180700Z 29008KT 3000 HZ FEW020 FEW025TCU BKN100 29/24 Q1008 NOSIG=
202509180730 METAR VABB 180730Z 29008KT 3500 HZ FEW020 SCT025 BKN100 29/25 Q1007 NOSIG=
202509180800 METAR VABB 180800Z 28008KT 3500 HZ FEW020 SCT025 BKN100 30/26 Q1006 NOSIG=
202509180830 METAR VABB 180830Z 26008KT 3500 HZ FEW020 SCT025 BKN100 29/25 Q1006 NOSIG=
202509180900 METAR VABB 180900Z 26010KT 3500 HZ FEW020 SCT025 BKN100 29/25 Q1005 NOSIG=
202509180930 METAR VABB 180930Z 27010KT 3500 HZ FEW020 SCT025 BKN100 29/25 Q1005 NOSIG=
202509181000 METAR VABB 181000Z 27011KT 4000 HZ FEW020 SCT025 BKN100 29/25 Q1005 NOSIG=
202509181030 METAR VABB 181030Z 29008KT 4000 HZ SCT020 FEW030CB BKN100 29/25 Q1005 NOSIG=
202509181100 METAR VABB 181100Z 31009KT 4000 HZ SCT020 FEW030CB BKN100 29/25 Q1005 NOSIG=
202509181130 METAR VABB 181130Z 27011KT 4000 HZ SCT020 FEW030CB BKN100 29/25 Q1005 TEMPO 1500 SHRA=
202509181200 METAR VABB 181200Z 28013KT 4000 HZ SCT020 FEW030CB BKN100 28/25 Q1006 NOSIG=
202509181230 METAR VABB 181230Z 29012KT 4000 HZ SCT020 FEW030CB BKN100 28/24 Q1006 NOSIG=
202509181300 METAR VABB 181300Z 30009KT 4000 HZ SCT020 FEW030CB BKN100 28/24 Q1006 NOSIG=
202509181330 METAR VABB 181330Z 30008KT 3500 -RA SCT020 FEW030CB BKN100 28/25 Q1006 NOSIG=
202509181400 METAR VABB 181400Z 30005KT 3500 -RA SCT020 FEW030CB BKN100 28/25 Q1006 BECMG 3000 BR=
202509181430 METAR VABB 181430Z 30003KT 3000 -RA SCT020 FEW030CB BKN100 27/25 Q1007 NOSIG=
202509181500 METAR VABB 181500Z 29005KT 3000 BR SCT020 FEW025TCU BKN100 28/25 Q1007 NOSIG=
202509181530 METAR VABB 181530Z 27004KT 3000 BR SCT020 FEW025TCU BKN100 27/25 Q1008 NOSIG=
202509181600 METAR VABB 181600Z 23005KT 3000 BR SCT020 FEW025TCU BKN100 28/25 Q1008 NOSIG=
202509181630 METAR VABB 181630Z 21004KT 3000 BR SCT020 FEW025TCU BKN100 27/25 Q1008 NOSIG=
202509181700 METAR VABB 181700Z 20003KT 3000 BR SCT020 FEW025TCU BKN100 28/25 Q1008 NOSIG=
202509181730 METAR VABB 181730Z 00000KT 3000 BR SCT020 FEW025TCU BKN100 28/25 Q1008 NOSIG=
202509181800 METAR VABB 181800Z 19003KT 3000 BR SCT020 FEW025TCU BKN100 28/25 Q1008 NOSIG=
202509181830 METAR VABB 181830Z 13006KT 3000 -RA SCT018 FEW025TCU BKN100 27/25 Q1008 NOSIG=
202509181900 METAR VABB 181900Z 17003KT 3000 BR SCT018 FEW030CB BKN090 27/25 Q1008 NOSIG=
202509181930 METAR VABB 181930Z 13005KT 3000 TS FEW012 SCT018 FEW030CB BKN090 27/25 Q1008 NOSIG=
202509182000 METAR VABB 182000Z 22007KT 3000 TS FEW012 BKN020 FEW030CB OVC090 26/25 Q1008 TEMPO 1500 TSRA=
202509182030 METAR VABB 182030Z 24006KT 3000 -TSRA FEW012 SCT018 FEW030CB OVC090 26/24 Q1007 TEMPO 1500 TSRA=
202509182100 METAR VABB 182100Z 23004KT 3000 TS FEW012 SCT018 FEW030CB OVC090 26/25 Q1007 NOSIG=
202509182130 METAR VABB 182130Z 00000KT 3000 TS SCT018 FEW030CB OVC090 26/24 Q1007 NOSIG=
202509182200 METAR VABB 182200Z 30005KT 3000 BR SCT018 FEW030CB OVC090 26/25 Q1007 NOSIG=
202509182230 METAR VABB 182230Z 00000KT 3000 BR SCT018 FEW030CB OVC090 26/25 Q1007 NOSIG=
202509182300 METAR VABB 182300Z 27005KT 3000 -TSRA SCT018 FEW030CB OVC090 26/25 Q1007 NOSIG=
202509182330 METAR VABB 182330Z 33003KT 3000 -TSRA SCT018 FEW030CB OVC090 26/25 Q1007 NOSIG=
202509190000 METAR VABB 190000Z 00000KT 3000 TS SCT018 FEW030CB OVC090 26/24 Q1008 NOSIG=
202509190030 METAR VABB 190030Z 21003KT 3000 BR SCT018 FEW030CB OVC090 26/25 Q1008 NOSIG=
202509190100 METAR VABB 190100Z 00000KT 3000 BR SCT018 FEW030CB BKN100 26/25 Q1008 NOSIG=
202509190130 METAR VABB 190130Z 20003KT 3000 BR SCT018 FEW025TCU BKN100 26/25 Q1008 NOSIG=
202509190200 METAR VABB 190200Z 18003KT 3000 BR SCT018 FEW025TCU BKN100 26/25 Q1009 NOSIG=
202509190230 METAR VABB 190230Z 20003KT 3000 BR SCT018 FEW025TCU BKN100 27/25 Q1009 NOSIG=
202509190300 METAR VABB 190300Z 22004KT 3000 -RA SCT018 FEW025TCU BKN100 27/25 Q1009 NOSIG=
202509190330 METAR VABB 190330Z 23004KT 3000 BR SCT018 FEW025TCU BKN100 27/26 Q1009 NOSIG=
202509190400 METAR VABB 190400Z 26005KT 4000 VCSH SCT018 FEW025TCU BKN100 27/25 Q1010 NOSIG=
202509190430 METAR VABB 190430Z 24008KT 4000 -RA SCT018 FEW025TCU BKN100 28/25 Q1010 NOSIG=
202509190500 METAR VABB 190500Z 28007KT 3000 -RA SCT018 FEW025TCU BKN090 27/25 Q1010 NOSIG=
202509190530 METAR VABB 190530Z 25006KT 3000 BR SCT018 FEW025TCU BKN090 28/25 Q1010 NOSIG=
202509190600 METAR VABB 190600Z 26005KT 4000 BR SCT018 FEW025TCU BKN090 28/25 Q1009 NOSIG=
202509190630 METAR VABB 190630Z 26008KT 4000 BR SCT018 FEW025TCU BKN090 28/25 Q1009 NOSIG=
202509190700 METAR VABB 190700Z 26008KT 4000 BR SCT018 FEW025TCU BKN090 29/25 Q1009 NOSIG=
202509190730 METAR VABB 190730Z 27010KT 4000 BR SCT018 FEW025TCU BKN090 29/24 Q1008 NOSIG=
202509190800 METAR VABB 190800Z 25009KT 4000 BR SCT018 FEW030CB BKN090 29/25 Q1008 NOSIG=
202509190830 METAR VABB 190830Z 25009KT 4000 HZ SCT018 FEW030CB BKN090 29/24 Q1007 NOSIG=
202509190900 METAR VABB 190900Z 24011KT 4000 HZ SCT018 FEW030CB BKN090 29/25 Q1007 NOSIG=
202509190930 METAR VABB 190930Z 25008KT 4000 VCSH SCT018 FEW030CB BKN090 29/25 Q1007 TEMPO 1500 SHRA=
202509191000 METAR VABB 191000Z 32009KT 1500 RA FEW012 SCT018 FEW030CB BKN090 27/25 Q1007 TEMPO 0800 +SHRA=
202509191028 METAR VABB 191028Z 32006KT 1200 R27/2000 +RA SCT010 SCT018 FEW030CB OVC080 26/25 Q1007 TEMPO 0800 +SHRA=
202509010000 METAR VABB NIL=
202509191100 METAR VABB 191100Z 01007KT 1200 R27/1700 RA SCT010 SCT015 FEW030CB OVC080 25/25 Q1007 TEMPO 0800 +SHRA=
202509191130 METAR VABB 191130Z 31008KT 1200 R27/2000 RA SCT010 SCT015 FEW030CB OVC080 25/25 Q1007 TEMPO 0800 +SHRA=
202509191200 METAR VABB 191200Z 33003KT 2100 -RA FEW012 SCT018 FEW030CB OVC080 25/25 Q1007 TEMPO 1500 SHRA=
202509191230 METAR VABB 191230Z 29006KT 2500 BR SCT018 FEW025TCU BKN090 26/24 Q1007 NOSIG=
202509191300 METAR VABB 191300Z 24004KT 2500 BR SCT018 FEW025TCU BKN090 26/24 Q1007 NOSIG=
202509191330 METAR VABB 191330Z 25003KT 2500 BR SCT018 FEW025TCU BKN090 27/24 Q1008 BECMG 3000 BR=
202509191400 METAR VABB 191400Z 21004KT 3000 BR SCT018 FEW025TCU BKN090 27/24 Q1008 NOSIG=
202509191430 METAR VABB 191430Z 20003KT 3000 BR SCT018 FEW025TCU BKN090 27/25 Q1008 NOSIG=
202509191500 METAR VABB 191500Z 00000KT 3000 BR SCT018 FEW025TCU BKN090 27/25 Q1009 NOSIG=
202509191530 METAR VABB 191530Z 16003KT 3000 BR SCT018 FEW025TCU BKN090 27/25 Q1009 NOSIG=
202509191600 METAR VABB 191600Z 13005KT 3000 BR SCT018 SCT025 BKN090 27/25 Q1009 NOSIG=
202509191630 METAR VABB 191630Z 12006KT 3000 BR SCT018 SCT025 BKN090 26/25 Q1010 NOSIG=
202509191700 METAR VABB 191700Z 14003KT 3000 BR SCT018 SCT025 BKN090 26/25 Q1010 NOSIG=
202509191730 METAR VABB 191730Z 14004KT 3000 BR SCT018 SCT025 BKN090 27/25 Q1010 NOSIG=
202509191800 METAR VABB 191800Z 00000KT 3000 BR SCT018 SCT025 BKN090 27/25 Q1009 NOSIG=
202509191830 METAR VABB 191830Z 15003KT 3000 BR SCT018 SCT025 BKN090 27/24 Q1009 NOSIG=
202509191900 METAR VABB 191900Z 20004KT 3000 BR SCT018 SCT025 BKN090 27/25 Q1009 NOSIG=
202509191930 METAR VABB 191930Z 16003KT 3000 BR SCT018 SCT025 BKN090 27/25 Q1009 NOSIG=
202509192000 METAR VABB 192000Z 17004KT 3000 BR SCT018 SCT025 BKN090 27/25 Q1009 NOSIG=
202509192030 METAR VABB 192030Z 18004KT 3000 BR SCT018 SCT025 BKN090 27/25 Q1008 NOSIG=
202509192100 METAR VABB 192100Z 16003KT 3000 BR SCT018 FEW025TCU BKN090 27/25 Q1008 NOSIG=
202509192130 METAR VABB 192130Z 15004KT 3000 BR SCT018 FEW025TCU BKN090 27/25 Q1008 NOSIG=
202509192200 METAR VABB 192200Z 13003KT 3000 BR SCT018 FEW025TCU BKN090 26/25 Q1008 NOSIG=
202509192230 METAR VABB 192230Z 12004KT 3000 BR SCT018 FEW025TCU BKN090 26/25 Q1007 NOSIG=
202509192300 METAR VABB 192300Z 12004KT 3000 BR SCT018 FEW025TCU BKN090 26/25 Q1007 NOSIG=
202509192330 METAR VABB 192330Z 14004KT 3000 BR SCT018 FEW025TCU BKN090 26/25 Q1007 NOSIG=
202509200000 METAR VABB 200000Z 19004KT 3000 BR SCT018 FEW025TCU BKN090 26/25 Q1008 NOSIG=
202509200030 METAR VABB 200030Z 16003KT 3000 BR SCT018 FEW025TCU BKN090 26/25 Q1008 NOSIG=
202509200100 METAR VABB 200100Z 19005KT 3000 BR SCT018 FEW025TCU BKN090 26/25 Q1008 NOSIG=
202509200130 METAR VABB 200130Z 19003KT 3000 BR SCT018 FEW025TCU BKN090 26/25 Q1008 NOSIG=
202509200200 METAR VABB 200200Z 17004KT 3000 BR FEW018 SCT025 BKN090 27/25 Q1009 NOSIG=
202509200230 METAR VABB 200230Z 17005KT 3000 BR FEW018 SCT025 BKN090 27/25 Q1009 NOSIG=
202509200300 METAR VABB 200300Z 18007KT 3000 BR SCT018 SCT025 BKN090 28/25 Q1010 BECMG 5000 BR=
202509200330 METAR VABB 200330Z 24005KT 3000 -RA SCT018 SCT025 BKN090 27/25 Q1010 NOSIG=
202509200400 METAR VABB 200400Z 25004KT 4000 BR SCT018 SCT025 BKN090 27/25 Q1010 NOSIG=
202509200430 METAR VABB 200430Z 23005KT 3500 BR SCT018 SCT025 BKN090 28/25 Q1010 NOSIG=
202509200500 METAR VABB 200500Z 23006KT 4000 BR SCT020 SCT025 BKN090 28/26 Q1010 NOSIG=
202509200530 METAR VABB 200530Z 25008KT 4000 BR SCT018 SCT025 BKN090 29/25 Q1010 NOSIG=
202509200600 METAR VABB 200600Z 25009KT 5000 BR SCT018 SCT025 BKN100 30/25 Q1010 NOSIG=
202509200630 METAR VABB 200630Z 24009KT 5000 BR SCT020 SCT025 BKN100 30/25 Q1009 NOSIG=
202509200700 METAR VABB 200700Z 25009KT 5000 HZ SCT020 SCT025 BKN100 29/25 Q1009 NOSIG=
202509200730 METAR VABB 200730Z 25009KT 5000 HZ SCT018 SCT025 BKN100 29/25 Q1009 NOSIG=
202509200800 METAR VABB 200800Z 26009KT 4000 VCSH SCT018 FEW025TCU BKN100 30/25 Q1008 NOSIG=
202509200830 METAR VABB 200830Z 27008KT 4000 HZ SCT018 FEW025TCU BKN100 30/25 Q1008 NOSIG=
202509200900 METAR VABB 200900Z 27011KT 4000 HZ SCT018 FEW025TCU BKN100 29/25 Q1007 NOSIG=
202509200930 METAR VABB 200930Z 27010KT 4000 BR SCT018 FEW030CB BKN100 29/26 Q1007 NOSIG=
202509201000 METAR VABB 201000Z 26011KT 5000 BR SCT018 FEW025TCU BKN100 29/25 Q1006 NOSIG=
202509201030 METAR VABB 201030Z 28011KT 5000 HZ SCT018 FEW025TCU BKN100 30/25 Q1006 TEMPO 3000 FBL SHRA=
202509201100 METAR VABB 201100Z 28011KT 3000 -SHRA SCT018 FEW025TCU BKN100 29/26 Q1006 NOSIG=
202509201130 METAR VABB 201130Z 28008KT 3000 BR SCT018 FEW030CB BKN100 28/26 Q1006 NOSIG=
202509201200 METAR VABB 201200Z 28009KT 3000 BR SCT018 FEW030CB BKN100 28/26 Q1006 NOSIG=
202509201230 METAR VABB 201230Z 28008KT 3000 BR SCT018 FEW030CB BKN100 29/26 Q1007 NOSIG=
202509201300 METAR VABB 201300Z 28008KT 3000 BR SCT018 FEW030CB BKN100 28/25 Q1007 NOSIG=
202509201330 METAR VABB 201330Z 29006KT 3000 BR SCT018 FEW030CB BKN100 28/25 Q1007 NOSIG=
202509201400 METAR VABB 201400Z 30006KT 3000 BR SCT018 FEW025TCU BKN100 29/25 Q1008 NOSIG=
202509201430 METAR VABB 201430Z 35006KT 3000 BR SCT018 FEW025TCU BKN100 29/25 Q1008 NOSIG=
202509201500 METAR VABB 201500Z 28005KT 3000 BR SCT018 FEW025TCU BKN100 28/25 Q1008 NOSIG=
202509201530 METAR VABB 201530Z 23005KT 3500 BR SCT018 FEW025TCU BKN100 28/25 Q1009 NOSIG=
202509201600 METAR VABB 201600Z 26006KT 3500 BR SCT018 FEW025TCU BKN100 28/25 Q1009 NOSIG=
202509201630 METAR VABB 201630Z 26008KT 3000 -TSRA SCT018 FEW030CB BKN090 27/25 Q1009 NOSIG=
202509201700 METAR VABB 201700Z 25006KT 3000 TS SCT018 FEW030CB BKN090 27/25 Q1010 NOSIG=
202509201730 METAR VABB 201730Z 25006KT 3000 TS SCT018 FEW030CB BKN090 27/25 Q1009 NOSIG=
202509201800 METAR VABB 201800Z 23004KT 3000 BR SCT018 FEW030CB BKN090 27/24 Q1009 NOSIG=
202509201830 METAR VABB 201830Z 22003KT 3000 BR SCT018 FEW030CB BKN090 27/24 Q1009 NOSIG=
202509201900 METAR VABB 201900Z 16003KT 3000 BR SCT018 FEW030CB BKN090 27/24 Q1009 NOSIG=
202509201930 METAR VABB 201930Z 19003KT 3000 BR SCT018 FEW030CB BKN090 27/24 Q1009 NOSIG=
202509202000 METAR VABB 202000Z 17003KT 3000 BR SCT018 FEW030CB BKN090 27/25 Q1008 NOSIG=
202509202030 METAR VABB 202030Z 18003KT 3000 BR SCT018 FEW030CB BKN090 27/25 Q1008 NOSIG=
202509202100 METAR VABB 202100Z 16003KT 2500 RA FEW012 SCT018 FEW030CB BKN090 27/25 Q1007 TEMPO 1500 SHRA=
202509202130 METAR VABB 202130Z 00000KT 2500 -RA FEW012 SCT018 FEW025TCU BKN090 26/25 Q1007 NOSIG=
202509202200 METAR VABB 202200Z 00000KT 2100 RA FEW012 SCT018 FEW030CB BKN090 26/25 Q1007 TEMPO 1500 SHRA=
202509202230 METAR VABB 202230Z 09004KT 2100 RA FEW010 SCT018 FEW030CB BKN090 26/25 Q1007 TEMPO 1500 SHRA=
202509202300 METAR VABB 202300Z 14004KT 2100 -RA FEW010 SCT018 FEW030CB BKN090 26/25 Q1007 TEMPO 1500 SHRA=
202509202330 METAR VABB 202330Z 15004KT 2100 -RA FEW010 SCT018 FEW030CB BKN090 26/25 Q1007 NOSIG=
202509210000 METAR VABB 210000Z 00000KT 2500 BR FEW012 SCT018 FEW030CB BKN090 26/25 Q1007 NOSIG=
202509210030 METAR VABB 210030Z 14003KT 2500 BR FEW012 SCT018 FEW030CB BKN090 26/25 Q1007 NOSIG=
202509210100 METAR VABB 210100Z 12005KT 2500 BR FEW012 SCT018 FEW030CB BKN090 26/25 Q1008 NOSIG=
202509210130 METAR VABB 210130Z 18004KT 2500 BR FEW012 SCT018 FEW030CB BKN090 26/25 Q1008 NOSIG=
202509210200 METAR VABB 210200Z 12004KT 2500 BR FEW012 SCT018 FEW030CB BKN090 26/25 Q1008 NOSIG=
202509210230 METAR VABB 210230Z 00000KT 2500 BR FEW012 SCT018 FEW030CB BKN090 27/26 Q1009 NOSIG=
202509210300 METAR VABB 210300Z 20003KT 2500 BR FEW012 SCT018 FEW030CB BKN090 27/26 Q1009 TEMPO 1500 SHRA=
202509210330 METAR VABB 210330Z 28007KT 2500 BR FEW012 SCT018 FEW030CB BKN090 27/25 Q1009 TEMPO 1500 SHRA=
202509210400 METAR VABB 210400Z 26007KT 2500 BR FEW012 SCT018 FEW030CB BKN090 27/25 Q1009 NOSIG=
202509210430 METAR VABB 210430Z 23006KT 2500 BR SCT018 FEW025TCU BKN090 27/25 Q1009 BECMG 3000 BR=
202509210500 METAR VABB 210500Z 23006KT 3000 BR SCT018 FEW025TCU BKN100 29/26 Q1009 NOSIG=
202509210530 METAR VABB 210530Z 27010KT 3000 BR SCT018 FEW025TCU BKN100 29/26 Q1009 NOSIG=
202509210600 METAR VABB 210600Z 27008KT 3000 BR SCT018 FEW025TCU BKN100 29/26 Q1009 NOSIG=
202509210630 METAR VABB 210630Z 28009KT 3500 BR SCT018 FEW025TCU BKN100 29/25 Q1008 NOSIG=
202509210700 METAR VABB 210700Z 27009KT 3500 BR SCT018 FEW025TCU BKN100 29/25 Q1008 NOSIG=
202509210730 METAR VABB 210730Z 28010KT 4000 BR SCT018 FEW025TCU BKN100 29/25 Q1007 NOSIG=
202509210800 METAR VABB 210800Z 28012KT 4000 VCSH SCT018 FEW025TCU BKN100 29/25 Q1007 NOSIG=
202509210830 METAR VABB 210830Z 28013KT 4000 HZ SCT018 FEW030CB BKN100 29/25 Q1007 TEMPO 1500 SHRA=
202509210900 METAR VABB 210900Z 28014KT 4000 HZ SCT018 FEW030CB BKN100 29/25 Q1006 NOSIG=
202509210930 METAR VABB 210930Z 29014KT 4000 HZ SCT018 FEW030CB BKN100 28/24 Q1006 NOSIG=
202509211000 METAR VABB 211000Z 28013KT 4000 VCSH SCT018 FEW030CB BKN090 28/25 Q1006 TEMPO 3000 SHRA=
202509211030 METAR VABB 211030Z 28012KT 3000 BR SCT018 FEW030CB BKN090 27/25 Q1006 TEMPO 1500 SHRA=
202509211100 METAR VABB 211100Z 29013KT 3000 BR SCT018 FEW030CB BKN090 28/25 Q1006 NOSIG=
202509211130 METAR VABB 211130Z 29013KT 3000 BR SCT018 FEW030CB BKN090 27/24 Q1006 NOSIG=
202509211200 METAR VABB 211200Z 28011KT 3000 BR FEW012 SCT018 FEW030CB BKN090 27/25 Q1006 NOSIG=
202509211230 METAR VABB 211230Z 30007KT 3000 BR FEW012 SCT018 FEW030CB BKN090 27/24 Q1007 NOSIG=
202509211300 METAR VABB 211300Z 28008KT 3000 BR FEW012 SCT018 FEW030CB BKN090 27/24 Q1007 NOSIG=
202509211330 METAR VABB 211330Z 26008KT 3000 BR FEW012 SCT018 FEW030CB BKN090 27/25 Q1007 TEMPO 1500 SHRA=
202509211400 METAR VABB 211400Z 28007KT 3000 BR FEW012 SCT018 FEW030CB BKN090 27/25 Q1008 TEMPO 1500 SHRA=
202509211430 METAR VABB 211430Z 35009KT 3000 -RA FEW012 SCT018 FEW030CB BKN090 27/25 Q1008 TEMPO 1500 SHRA=
202509211500 METAR VABB 211500Z 34007KT 3000 -RA FEW012 SCT018 FEW030CB BKN090 26/24 Q1008 TEMPO 1500 SHRA=
202509211530 METAR VABB 211530Z 34006KT 2200 RA FEW012 SCT018 FEW030CB BKN090 26/24 Q1009 TEMPO 1500 SHRA=
202509211600 METAR VABB 211600Z 27004KT 2200 -RA FEW012 SCT018 FEW030CB BKN090 26/24 Q1009 TEMPO 1500 SHRA=
202509211630 METAR VABB 211630Z 27004KT 2500 BR SCT018 FEW030CB BKN090 26/24 Q1009 NOSIG=
202509211700 METAR VABB 211700Z 00000KT 2500 BR SCT018 FEW030CB BKN090 26/23 Q1009 NOSIG=
202509211730 METAR VABB 211730Z 28003KT 2500 BR SCT018 FEW030CB BKN090 26/24 Q1009 NOSIG=
202509211800 METAR VABB 211800Z 00000KT 2500 BR SCT018 FEW030CB BKN090 26/24 Q1009 NOSIG=
202509211830 METAR VABB 211830Z 15004KT 2500 BR SCT018 FEW030CB BKN090 26/24 Q1009 NOSIG=
202509211900 METAR VABB 211900Z 13005KT 2500 BR SCT018 FEW030CB BKN090 26/24 Q1009 NOSIG=
202509211930 METAR VABB 211930Z 15004KT 2500 BR SCT018 FEW025TCU BKN090 26/24 Q1008 NOSIG=
202509212000 METAR VABB 212000Z 13005KT 2500 BR SCT018 FEW025TCU BKN090 26/25 Q1008 NOSIG=
202509212030 METAR VABB 212030Z 13004KT 2500 BR SCT018 FEW025TCU BKN090 26/24 Q1008 NOSIG=
202509212100 METAR VABB 212100Z 13005KT 2500 BR SCT018 FEW025TCU BKN090 26/24 Q1008 NOSIG=
202509212130 METAR VABB 212130Z 13003KT 2500 BR SCT018 FEW030CB BKN090 26/24 Q1008 NOSIG=
202509212200 METAR VABB 212200Z 11003KT 2500 BR SCT018 FEW030CB BKN090 25/24 Q1007 NOSIG=
202509212230 METAR VABB 212230Z 11003KT 2500 BR SCT018 FEW030CB BKN090 25/24 Q1007 NOSIG=
202509212300 METAR VABB 212300Z 20003KT 2500 VCSH SCT012 SCT018 FEW030CB BKN090 26/24 Q1007 TEMPO 1500 SHRA=
202509212330 METAR VABB 212330Z 26007KT 2500 VCSH FEW012 SCT018 FEW030CB BKN090 26/24 Q1007 TEMPO 1500 SHRA=
202509220000 METAR VABB 220000Z 25003KT 2500 BR SCT018 FEW025TCU BKN090 26/24 Q1008 NOSIG=
202509220030 METAR VABB 220030Z 22003KT 2500 BR SCT018 FEW025TCU BKN090 26/24 Q1008 TEMPO 1500 SHRA=
202509220100 METAR VABB 220100Z 22003KT 2500 BR FEW012 SCT018 FEW030CB BKN090 26/24 Q1008 TEMPO 1500 SHRA=
202509220130 METAR VABB 220130Z 14003KT 2100 BR FEW012 SCT018 FEW030CB OVC090 26/25 Q1009 TEMPO 1500 SHRA=
202509220200 METAR VABB 220200Z 15003KT 2100 -RA SCT012 SCT018 FEW030CB OVC080 26/24 Q1009 TEMPO 1500 SHRA=
202509220230 METAR VABB 220230Z 20004KT 2100 -RA SCT012 SCT018 FEW030CB OVC080 26/24 Q1009 TEMPO 1500 SHRA=
202509220300 METAR VABB 220300Z 16005KT 2100 -RA SCT012 SCT018 FEW030CB OVC080 26/24 Q1009 TEMPO 1500 SHRA=
202509220330 METAR VABB 220330Z 18003KT 2100 -DZ SCT012 SCT018 FEW030CB OVC080 26/25 Q1010 TEMPO 1500 SHRA=
202509220400 METAR VABB 220400Z 19006G18KT 1600 -RA SCT012 SCT018 FEW030CB OVC080 26/25 Q1010 TEMPO 1500 SHRA=
202509220430 METAR VABB 220430Z 17005KT 1300 R27/2000 RA SCT012 SCT018 FEW030CB OVC080 26/25 Q1010 TEMPO 0800 +SHRA=
202509220500 METAR VABB 220500Z 19006KT 1500 R27/P2000 -RA SCT012 SCT018 FEW030CB OVC080 25/24 Q1010 TEMPO 0800 +SHRA=
202509220530 METAR VABB 220530Z 18005KT 2100 -RA SCT012 SCT018 FEW030CB OVC080 26/25 Q1010 TEMPO 1500 SHRA=
202509220600 METAR VABB 220600Z 20005KT 2100 -RA SCT012 SCT018 FEW030CB OVC080 26/25 Q1010 TEMPO 1500 SHRA=
202509220630 METAR VABB 220630Z 20005KT 2100 SHRA SCT012 SCT018 FEW030CB OVC080 26/25 Q1009 TEMPO 1500 SHRA=
202509220700 METAR VABB 220700Z 28006KT 2100 SHRA SCT012 SCT018 FEW030CB OVC080 26/25 Q1009 TEMPO 1500 SHRA=
202509220730 METAR VABB 220730Z 32004KT 2500 -RA SCT012 SCT018 FEW030CB OVC080 25/25 Q1009 TEMPO 1500 SHRA=
202509220800 METAR VABB 220800Z 28005KT 2500 -TSRA SCT012 SCT018 FEW030CB OVC080 25/25 Q1009 TEMPO 1500 TSRA=
202509220830 METAR VABB 220830Z 26006KT 2500 -TSRA SCT012 SCT018 FEW030CB OVC080 26/25 Q1008 TEMPO 1500 TSRA=
202509220900 METAR VABB 220900Z 28005KT 2500 -RA SCT012 SCT018 FEW030CB OVC080 26/25 Q1008 NOSIG=
202509220930 METAR VABB 220930Z 29007KT 3000 BR SCT012 SCT018 FEW030CB BKN090 27/25 Q1007 NOSIG=
202509221000 METAR VABB 221000Z 30008KT 3000 BR SCT012 SCT018 FEW030CB BKN090 27/25 Q1007 NOSIG=
202509221030 METAR VABB 221030Z 31009KT 3000 BR SCT012 SCT018 FEW030CB BKN090 27/25 Q1007 NOSIG=
202509221100 METAR VABB 221100Z 29010KT 3000 BR SCT012 SCT018 FEW030CB BKN090 27/25 Q1007 NOSIG=
202509221130 METAR VABB 221130Z 28009KT 3000 BR FEW012 SCT018 FEW025TCU BKN090 28/24 Q1007 NOSIG=
202509221200 METAR VABB 221200Z 29007KT 3000 BR SCT018 FEW025TCU BKN090 28/24 Q1007 NOSIG=
202509221230 METAR VABB 221230Z 28009KT 3000 BR SCT018 FEW025TCU BKN090 28/25 Q1007 NOSIG=
202509221300 METAR VABB 221300Z 32008KT 3000 BR SCT018 FEW025TCU BKN090 27/24 Q1008 NOSIG=
202509221330 METAR VABB 221330Z 27006KT 3000 BR SCT018 FEW025TCU BKN090 26/25 Q1008 NOSIG=
202509221400 METAR VABB 221400Z 26006KT 3000 BR SCT018 FEW025TCU BKN090 27/25 Q1009 NOSIG=
202509221430 METAR VABB 221430Z 29007KT 3000 BR SCT018 FEW030CB BKN090 27/25 Q1009 NOSIG=
202509221500 METAR VABB 221500Z 28007KT 3000 BR SCT018 FEW030CB BKN090 27/25 Q1009 NOSIG=
202509221530 METAR VABB 221530Z 29006KT 3000 BR SCT018 FEW025TCUB BKN090 27/25 Q1010 NOSIG=
202509221600 METAR VABB 221600Z 29004KT 3000 -RA SCT018 FEW030CB BKN090 27/25 Q1010 NOSIG=
202509221630 METAR VABB 221630Z 04006KT 3000 BR SCT018 FEW030CB BKN090 28/25 Q1010 NOSIG=
202509221700 METAR VABB 221700Z 05007KT 3000 -RA SCT018 FEW030CB BKN090 27/25 Q1010 NOSIG=
202509221730 METAR VABB 221730Z 01004KT 3000 -RA SCT018 FEW030CB BKN090 26/25 Q1010 NOSIG=
202509221800 METAR VABB 221800Z 00000KT 3000 -RA SCT018 FEW030CB BKN090 26/24 Q1010 NOSIG=
202509221830 METAR VABB 221830Z 14005KT 3000 -RA SCT018 FEW030CB BKN090 26/25 Q1010 NOSIG=
202509221900 METAR VABB 221900Z 14005KT 3000 -RA SCT018 FEW025TCU BKN090 25/25 Q1010 NOSIG=
202509221901 METAR VABB 221901Z 14005KT 3000 -RA SCT018 FEW025TCU BKN090 25/25 Q1010 NOSIG=
202509221930 METAR VABB 221930Z 15004KT 3000 BR SCT018 FEW025TCU BKN090 25/25 Q1010 NOSIG=
202509222000 METAR VABB 222000Z 12005KT 3000 BR SCT018 FEW025TCU BKN090 25/24 Q1009 NOSIG=
202509222030 METAR VABB 222030Z 13005KT 3000 BR SCT018 FEW025TCU BKN090 25/24 Q1009 NOSIG=
202509222100 METAR VABB 222100Z 12004KT 3000 BR SCT018 FEW025TCU BKN090 25/24 Q1008 NOSIG=
202509222130 METAR VABB 222130Z 00000KT 3000 BR SCT018 FEW025TCU BKN090 25/24 Q1008 NOSIG=
202509222200 METAR VABB 222200Z 10003KT 2500 BR SCT018 FEW025TCU BKN090 25/24 Q1008 NOSIG=
202509222230 METAR VABB 222230Z 08004KT 2500 BR SCT018 FEW025TCU BKN090 25/24 Q1008 NOSIG=
202509222300 METAR VABB 222300Z 12005KT 2500 BR SCT018 FEW025TCU BKN090 25/24 Q1008 NOSIG=
202509222330 METAR VABB 222330Z 12003KT 2500 BR SCT018 FEW025TCU BKN090 25/24 Q1008 NOSIG=
202509230000 METAR VABB 230000Z 12004KT 2500 -RA SCT018 FEW025TCU BKN090 25/24 Q1009 NOSIG=
202509230030 METAR VABB 230030Z 12003KT 2500 BR SCT018 FEW025TCU BKN090 25/24 Q1009 NOSIG=
202509230100 METAR VABB 230100Z 12006KT 2500 -RA SCT018 FEW025TCU BKN090 25/24 Q1009 NOSIG=
202509230130 METAR VABB 230130Z 12005KT 2500 -RA SCT018 FEW025TCU BKN090 25/24 Q1010 NOSIG=
202509230200 METAR VABB 230200Z 11004KT 2500 -RA SCT018 FEW025TCU OVC090 25/24 Q1010 NOSIG=
202509230230 METAR VABB 230230Z 10004KT 2500 -RA SCT018 FEW025TCU OVC090 25/24 Q1011 NOSIG=
202509230300 METAR VABB 230300Z 14005KT 2500 BR SCT018 FEW025TCU OVC080 26/24 Q1011 NOSIG=
202509230330 METAR VABB 230330Z 14005KT 2500 -DZ SCT018 FEW025TCU OVC080 26/24 Q1011 NOSIG=
202509230400 METAR VABB 230400Z 13004KT 2500 BR SCT018 FEW025TCU OVC080 26/24 Q1011 NOSIG=
202509230430 METAR VABB 230430Z 11006KT 2500 -RA FEW012 SCT018 FEW025TCU OVC080 26/24 Q1011 TEMPO 1500 SHRA=
202509230500 METAR VABB 230500Z 12005KT 2500 -RA FEW012 SCT018 FEW025TCU OVC080 26/24 Q1011 NOSIG=
202509230530 METAR VABB 230530Z 12006KT 2500 BR FEW012 SCT018 FEW025TCU OVC080 26/25 Q1011 NOSIG=
202509230600 METAR VABB 230600Z 12004KT 2500 BR FEW012 SCT018 FEW025TCU OVC080 27/25 Q1011 NOSIG=
202509230630 METAR VABB 230630Z 13003KT 2500 BR FEW012 SCT018 FEW025TCU BKN090 28/25 Q1010 NOSIG=
202509230700 METAR VABB 230700Z 00000KT 2500 BR FEW012 SCT018 FEW025TCU BKN090 28/25 Q1010 NOSIG=
202509230730 METAR VABB 230730Z 25005KT 2500 BR FEW012 SCT018 FEW025TCU BKN090 29/24 Q1010 NOSIG=
202509230800 METAR VABB 230800Z 29007KT 2500 HZ SCT018 FEW025TCU BKN090 29/25 Q1009 BECMG 3000 HZ=
202509230830 METAR VABB 230830Z 29007KT 3000 HZ SCT018 FEW025TCU BKN090 29/24 Q1009 NOSIG=
202509230900 METAR VABB 230900Z 29007KT 3000 HZ SCT018 FEW025TCU BKN090 28/25 Q1009 NOSIG=
202509230930 METAR VABB 230930Z 29007KT 3000 HZ SCT018 FEW025TCU BKN090 29/25 Q1008 NOSIG=
202509231000 METAR VABB 231000Z 26008KT 3000 HZ SCT018 FEW025TCU BKN090 29/25 Q1008 NOSIG=
202509231030 METAR VABB 231030Z 26008KT 3000 HZ SCT018 FEW025TCU BKN090 29/25 Q1008 NOSIG=
202509231100 METAR VABB 231100Z 26009KT 3500 HZ SCT018 FEW025TCU BKN090 29/25 Q1008 NOSIG=
202509231130 METAR VABB 231130Z 26008KT 3500 HZ SCT018 FEW025TCU BKN090 29/25 Q1008 NOSIG=
202509231200 METAR VABB 231200Z 27009KT 3500 HZ SCT018 SCT025 BKN090 29/24 Q1008 NOSIG=
202509231230 METAR VABB 231230Z 27009KT 3500 HZ SCT018 SCT025 BKN100 28/24 Q1008 NOSIG=
202509231300 METAR VABB 231300Z 28008KT 3500 HZ SCT018 SCT025 BKN100 28/24 Q1008 NOSIG=
202509231330 METAR VABB 231330Z 29006KT 3500 HZ FEW020 SCT025 BKN100 29/25 Q1008 NOSIG=
202509231400 METAR VABB 231400Z 29007KT 3500 HZ FEW020 SCT025 BKN100 28/25 Q1008 NOSIG=
202509231430 METAR VABB 231430Z 29007KT 3500 HZ FEW020 SCT025 BKN100 28/24 Q1009 NOSIG=
202509231500 METAR VABB 231500Z 28007KT 3500 HZ FEW020 SCT025 BKN100 28/24 Q1010 NOSIG=
202509231530 METAR VABB 231530Z 26008KT 3500 HZ FEW020 SCT025 BKN100 28/24 Q1010 NOSIG=
202509231600 METAR VABB 231600Z 30005KT 3500 DZ FEW020 SCT025 BKN100 27/25 Q1010 NOSIG=
202509231630 METAR VABB 231630Z 21006KT 3500 BR FEW020 SCT025 BKN100 26/24 Q1010 NOSIG=
202509231700 METAR VABB 231700Z 23003KT 3500 BR FEW020 SCT025 BKN100 26/23 Q1010 NOSIG=
202509231730 METAR VABB 231730Z 19003KT 3500 BR FEW020 SCT025 BKN100 27/25 Q1010 NOSIG=
202509231800 METAR VABB 231800Z 24006KT 3500 BR FEW020 SCT025 BKN100 27/25 Q1010 NOSIG=
202509231830 METAR VABB 231830Z 23006KT 3500 BR FEW020 SCT025 BKN100 27/25 Q1010 NOSIG=
202509231900 METAR VABB 231900Z 29003KT 3500 BR FEW020 SCT025 BKN100 27/25 Q1010 NOSIG=
202509231930 METAR VABB 231930Z 23005KT 3500 BR FEW020 SCT025 BKN100 27/24 Q1009 NOSIG=
202509232000 METAR VABB 232000Z 23004KT 3500 BR FEW020 SCT025 BKN100 27/24 Q1009 NOSIG=
202509232030 METAR VABB 232030Z 24006KT 3500 BR FEW020 SCT025 BKN100 27/24 Q1009 NOSIG=
202509232100 METAR VABB 232100Z 25006KT 3500 BR FEW020 SCT025 BKN100 27/24 Q1008 NOSIG=
202509232130 METAR VABB 232130Z 33004KT 3500 BR FEW020 SCT025 BKN100 27/24 Q1008 NOSIG=
202509232200 METAR VABB 232200Z 00000KT 3500 BR FEW020 SCT025 BKN100 26/24 Q1008 NOSIG=
202509232230 METAR VABB 232230Z 30003KT 3500 BR FEW020 SCT025 BKN100 27/24 Q1008 NOSIG=
202509232300 METAR VABB 232300Z 28003KT 3500 BR FEW020 SCT025 BKN100 27/24 Q1008 NOSIG=
202509232330 METAR VABB 232330Z 17004KT 3500 BR FEW020 SCT025 BKN100 26/24 Q1008 NOSIG=
202509240000 METAR VABB 240000Z 16003KT 3500 BR FEW020 SCT025 26/24 Q1008 NOSIG=
202509240030 METAR VABB 240030Z 00000KT 3500 BR FEW020 SCT025 26/24 Q1008 NOSIG=
202509240100 METAR VABB 240100Z 15003KT 3500 BR FEW020 SCT025 26/24 Q1008 NOSIG=
202509240130 METAR VABB 240130Z 13005KT 3500 BR FEW020 SCT025 26/25 Q1008 NOSIG=
202509240200 METAR VABB 240200Z 21004KT 3000 -SHRA FEW020 FEW025TCU 26/25 Q1009 NOSIG=
202509240230 METAR VABB 240230Z 00000KT 3500 BR FEW020 FEW025TCU 26/24 Q1009 NOSIG=
202509240300 METAR VABB 240300Z 03004KT 3500 BR SCT018 SCT025 BKN090 27/24 Q1009 NOSIG=
202509240330 METAR VABB 240330Z 00000KT 4000 BR SCT018 SCT025 BKN100 28/23 Q1009 NOSIG=
202509240400 METAR VABB 240400Z 23004KT 4000 BR FEW018 SCT025 BKN100 28/24 Q1010 NOSIG=
202509240430 METAR VABB 240430Z 24005KT 4000 HZ FEW020 SCT025 BKN100 28/24 Q1010 NOSIG=
202509240500 METAR VABB 240500Z 26006KT 4000 HZ FEW020 SCT025 BKN100 29/24 Q1010 BECMG 5000 HZ=
202509240530 METAR VABB 240530Z 27008KT 5000 HZ FEW020 SCT025 BKN100 29/24 Q1009 NOSIG=
202509240600 METAR VABB 240600Z 26008KT 5000 HZ FEW020 SCT025 BKN100 30/24 Q1009 NOSIG=
202509240630 METAR VABB 240630Z 26007KT 5000 HZ FEW020 SCT025 BKN100 30/23 Q1009 NOSIG=
202509240700 METAR VABB 240700Z 28009KT 5000 HZ FEW020 SCT025 30/23 Q1009 NOSIG=
202509240730 METAR VABB 240730Z 25009KT 5000 HZ FEW020 SCT025 30/23 Q1008 NOSIG=
202509240800 METAR VABB 240800Z 26010KT 5000 HZ FEW020 SCT025 30/23 Q1008 NOSIG=
202509240830 METAR VABB 240830Z 26011KT 5000 HZ FEW020 SCT025 30/23 Q1007 NOSIG=
202509240900 METAR VABB 240900Z 26009KT 5000 HZ FEW020 SCT025 30/23 Q1007 NOSIG=
202509240930 METAR COR VABB 240930Z 26011KT 5000 HZ SCT020 SCT025 30/24 Q1007 NOSIG=
202509240931 METAR VABB 240931Z 26011KT 5000 HZ SCT020 SCT025 30/24 Q1007 NOSIG=
202509241000 METAR VABB 241000Z 28014KT 2500 VCSH SCT018 FEW025TCU BKN090 29/24 Q1007 TEMPO 1500 SHRA=
202509241030 METAR VABB 241030Z 25013KT 2500 -RA SCT018 FEW025TCU BKN090 27/23 Q1007 TEMPO 1500 SHRA=
202509241100 METAR VABB 241100Z 32006KT 2500 HZ SCT018 FEW025TCU BKN090 27/24 Q1006 BECMG 5000 HZ=
202509241130 METAR VABB 241130Z 29007KT 5000 HZ SCT018 SCT025 BKN090 28/24 Q1006 NOSIG=
202509241200 METAR VABB 241200Z 28007KT 5000 HZ SCT018 SCT025 BKN090 28/24 Q1006 NOSIG=
202509241230 METAR VABB 241230Z 28007KT 5000 HZ SCT018 SCT025 BKN100 28/24 Q1006 NOSIG=
202509241300 METAR VABB 241300Z 27007KT 4000 HZ FEW018 SCT025 BKN100 28/24 Q1007 BECMG 3000 HZ=
202509241330 METAR VABB 241330Z 27006KT 3000 HZ FEW020 SCT025 28/24 Q1007 NOSIG=
202509241400 METAR VABB 241400Z 25007KT 3000 HZ FEW020 SCT025 28/24 Q1007 NOSIG=
202509241430 METAR VABB 241430Z 24005KT 3000 HZ FEW020 SCT025 28/24 Q1007 NOSIG=
202509241500 METAR VABB 241500Z 23004KT 3500 HZ FEW020 SCT025 27/24 Q1007 NOSIG=
202509241530 METAR VABB 241530Z 23004KT 3500 HZ FEW020 SCT025 27/24 Q1008 NOSIG=
202509241600 METAR VABB 241600Z 22003KT 3500 HZ FEW020 SCT025 27/24 Q1008 NOSIG=
202509241630 METAR VABB 241630Z 00000KT 3500 HZ FEW020 SCT025 27/24 Q1008 NOSIG=
202509241700 METAR VABB 241700Z 19003KT 3500 HZ FEW020 SCT025 27/24 Q1008 NOSIG=
202509241730 METAR VABB 241730Z 21004KT 3500 HZ FEW020 SCT025 27/24 Q1008 NOSIG=
202509241800 METAR VABB 241800Z 23004KT 3500 -RA FEW020 SCT025 27/24 Q1008 NOSIG=
202509241830 METAR VABB 241830Z 23005KT 3500 BR FEW020 SCT025 27/24 Q1007 NOSIG=
202509241900 METAR VABB 241900Z 00000KT 3500 BR FEW020 SCT025 27/24 Q1007 NOSIG=
202509241930 METAR VABB 241930Z 00000KT 3500 BR FEW020 SCT025 27/24 Q1007 NOSIG=
202509242000 METAR VABB 242000Z 00000KT 3500 BR FEW020 SCT025 27/24 Q1007 NOSIG=
202509242030 METAR VABB 242030Z 00000KT 3500 BR FEW020 SCT025 27/24 Q1007 NOSIG=
202509242100 METAR VABB 242100Z 13005KT 3500 BR FEW020 SCT025 26/25 Q1006 NOSIG=
202509242130 METAR VABB 242130Z 00000KT 3500 BR FEW020 SCT025 26/25 Q1006 NOSIG=
202509242200 METAR VABB 242200Z 23003KT 3500 BR FEW020 SCT025 26/24 Q1006 NOSIG=
202509242230 METAR VABB 242230Z 00000KT 3500 BR FEW020 SCT025 BKN100 26/24 Q1006 NOSIG=
202509242300 METAR VABB 242300Z 14003KT 3500 BR FEW020 SCT025 BKN100 26/24 Q1006 NOSIG=
202509242330 METAR VABB 242330Z 13003KT 3500 BR FEW020 SCT025 BKN100 26/24 Q1006 NOSIG=
202509250000 METAR VABB 250000Z 13004KT 3500 BR FEW020 SCT025 BKN100 25/24 Q1006 NOSIG=
202509250030 METAR VABB 250030Z 12003KT 3500 BR FEW020 FEW025TCU BKN100 26/24 Q1006 NOSIG=
202509250100 METAR VABB 250100Z 09005KT 3500 BR FEW020 FEW025TCU BKN100 25/24 Q1007 TEMPO 3000 BR=
202509250130 METAR VABB 250130Z 13004KT 3000 -RA FEW012 SCT018 FEW025TCU BKN090 26/24 Q1007 TEMPO 1500 SHRA=
202509250200 METAR VABB 250200Z 16003KT 2500 -RA FEW012 SCT018 FEW025TCU BKN090 25/24 Q1007 NOSIG=
202509250230 METAR VABB 250230Z 12004KT 2500 BR SCT018 FEW025TCU BKN100 25/24 Q1008 BECMG 3000 BR=
202509250300 METAR VABB 250300Z 12005KT 2500 BR SCT018 FEW025TCU BKN100 27/25 Q1008 NOSIG=
202509250330 METAR VABB 250330Z 11005KT 2500 BR SCT018 FEW025TCU BKN100 27/25 Q1008 NOSIG=
202509250400 METAR VABB 250400Z 00000KT 2500 BR SCT018 FEW025TCU BKN100 28/25 Q1009 NOSIG=
202509250430 METAR VABB 250430Z 10004KT 2500 BR SCT018 FEW025TCU BKN090 28/25 Q1009 TEMPO 1500 SHRA=
202509250500 METAR VABB 250500Z 20007KT 2500 BR SCT018 FEW025TCU BKN090 27/24 Q1009 NOSIG=
202509250530 METAR VABB 250530Z 17005KT 3000 HZ SCT018 BKN090 29/24 Q1009 NOSIG=
202509250600 METAR VABB 250600Z 19006KT 3000 HZ SCT018 BKN090 29/24 Q1009 NOSIG=
202509250630 METAR VABB 250630Z 23006KT 4000 HZ SCT018 BKN090 30/23 Q1008 NOSIG=
202509250700 METAR VABB 250700Z 25009KT 4000 HZ SCT018 BKN090 30/24 Q1008 BECMG 5000 HZ=
202509250730 METAR VABB 250730Z 27010KT 5000 HZ FEW020 SCT025 30/24 Q1008 NOSIG=
202509250800 METAR VABB 250800Z 27009KT 5000 HZ FEW020 SCT025 30/24 Q1007 NOSIG=
202509250830 METAR VABB 250830Z 26009KT 5000 HZ FEW020 SCT025 30/24 Q1007 NOSIG=
202509250900 METAR VABB 250900Z 27008KT 5000 HZ FEW020 SCT025 30/24 Q1006 NOSIG=
202509250930 METAR VABB 250930Z 27010KT 5000 HZ FEW020 SCT025 30/24 Q1006 NOSIG=
202509251000 METAR VABB 251000Z 26009KT 5000 HZ FEW020 SCT025 30/24 Q1006 NOSIG=
202509251030 METAR VABB 251030Z 27009KT 5000 HZ FEW020 SCT025 30/23 Q1005 NOSIG=
202509251100 METAR VABB 251100Z 27010KT 5000 HZ FEW020 SCT025 30/23 Q1005 NOSIG=
202509251130 METAR VABB 251130Z 26009KT 5000 HZ FEW020 SCT025 29/24 Q1005 NOSIG=
202509251200 METAR VABB 251200Z 27008KT 5000 HZ FEW020 SCT025 29/24 Q1006 NOSIG=
202509251230 METAR VABB 251230Z 26008KT 5000 HZ FEW020 SCT025 29/24 Q1006 NOSIG=
202509251300 METAR VABB 251300Z 25008KT 4500 HZ FEW020 SCT025 28/24 Q1006 NOSIG=
202509251330 METAR VABB 251330Z 25007KT 4000 HZ FEW020 SCT025 28/24 Q1007 NOSIG=
202509251400 METAR VABB 251400Z 25007KT 4000 HZ FEW020 SCT025 28/24 Q1007 NOSIG=
202509251430 METAR VABB 251430Z 25006KT 4000 HZ FEW020 FEW025TCU 28/24 Q1007 NOSIG=
202509251500 METAR VABB 251500Z 25006KT 4000 HZ FEW020 FEW025TCU 28/24 Q1008 NOSIG=
202509251530 METAR VABB 251530Z 23005KT 4000 HZ FEW020 28/24 Q1008 NOSIG=
202509251600 METAR VABB 251600Z 23005KT 4000 HZ FEW020 28/24 Q1008 NOSIG=
202509251630 METAR VABB 251630Z 23005KT 4000 HZ FEW020 SCT025 28/24 Q1008 NOSIG=
202509251700 METAR VABB 251700Z 22004KT 4000 HZ FEW020 SCT025 28/24 Q1009 NOSIG=
202509251730 METAR VABB 251730Z 00000KT 4000 HZ FEW020 SCT025 28/24 Q1009 NOSIG=
202509251800 METAR VABB 251800Z 21003KT 3500 BR FEW020 SCT025 28/24 Q1008 NOSIG=
202509251830 METAR VABB 251830Z 19003KT 3500 BR FEW020 SCT025 28/24 Q1008 NOSIG=
202509251900 METAR VABB 251900Z 19003KT 3500 BR FEW020 SCT025 27/24 Q1008 NOSIG=
202509251930 METAR VABB 251930Z 13005KT 3500 BR FEW020 SCT025 27/25 Q1008 BECMG 3000 BR=
202509252000 METAR VABB 252000Z 00000KT 3000 BR FEW020 SCT025 27/25 Q1007 NOSIG=
202509252030 METAR VABB 252030Z 14004KT 3000 BR FEW020 SCT025 27/25 Q1007 NOSIG=
202509252100 METAR VABB 252100Z 13003KT 3000 BR FEW020 SCT025 27/25 Q1007 NOSIG=
202509252130 METAR VABB 252130Z 16004KT 2500 BR FEW020 SCT025 27/25 Q1007 NOSIG=
202509252200 METAR VABB 252200Z 10003KT 2500 BR FEW018 SCT025 26/25 Q1007 NOSIG=
202509252230 METAR VABB 252230Z 10004KT 2500 BR FEW018 SCT025 26/25 Q1007 NOSIG=
202509252300 METAR VABB 252300Z 14004KT 2500 BR FEW018 SCT025 26/25 Q1007 NOSIG=
202509252330 METAR VABB 252330Z 13006KT 2500 BR FEW018 SCT025 26/25 Q1007 NOSIG=
202509260000 METAR VABB 260000Z 12005KT 2500 BR FEW018 SCT025 26/25 Q1007 NOSIG=
202509260030 METAR VABB 260030Z 12004KT 2500 BR FEW018 SCT025 26/25 Q1007 NOSIG=
202509260100 METAR VABB 260100Z 09004KT 2500 BR SCT018 SCT100 26/25 Q1007 NOSIG=
202509260130 METAR VABB 260130Z 10003KT 2500 BR FEW020 SCT025 26/25 Q1007 BECMG 3000 BR=
202509260200 METAR VABB 260200Z 14004KT 3000 BR FEW020 SCT025 27/25 Q1008 NOSIG=
202509260230 METAR VABB 260230Z 10004KT 3000 BR FEW020 SCT025 BKN100 27/25 Q1008 NOSIG=
202509260300 METAR VABB 260300Z 13006KT 3000 BR FEW020 SCT025 BKN100 27/25 Q1009 NOSIG=
202509260330 METAR VABB 260330Z 10006KT 3000 BR FEW020 SCT025 BKN100 27/25 Q1009 NOSIG=
202509260400 METAR VABB 260400Z 15003KT 3000 BR FEW020 SCT025 BKN100 28/25 Q1009 NOSIG=
202509260430 METAR VABB 260430Z 00000KT 3500 BR FEW020 SCT025 BKN100 29/24 Q1009 NOSIG=
202509260500 METAR VABB 260500Z 04005KT 3500 HZ FEW020 SCT025 BKN100 29/24 Q1009 NOSIG=
202509260530 METAR VABB 260530Z 04005KT 3500 HZ FEW020 SCT025 BKN100 29/24 Q1009 NOSIG=
202509260600 METAR VABB 260600Z 04008KT 3500 HZ FEW020 SCT025 BKN100 29/23 Q1009 NOSIG=
202509260630 METAR VABB 260630Z 02006KT 3500 HZ FEW020 SCT025 BKN100 29/24 Q1008 NOSIG=
202509260700 METAR VABB 260700Z 35005KT 3500 HZ FEW020 FEW025TCU BKN100 30/24 Q1008 NOSIG=
202509260730 METAR VABB 260730Z 02004KT 3500 HZ FEW020 FEW025TCU BKN100 30/24 Q1007 NOSIG=
202509260800 METAR VABB 260800Z 01006KT 3500 HZ FEW020 FEW025TCU BKN100 30/24 Q1007 NOSIG=
202509260830 METAR VABB 260830Z 01005KT 3500 HZ FEW020 BKN100 30/24 Q1006 NOSIG=
202509260900 METAR VABB 260900Z 31006KT 4000 HZ FEW020 BKN100 30/24 Q1006 NOSIG=
202509260930 METAR VABB 260930Z 28010KT 4000 HZ SCT020 FEW030CB BKN100 29/25 Q1006 NOSIG=
202509261000 METAR VABB 261000Z 28010KT 4000 HZ SCT020 FEW030CB BKN100 29/24 Q1006 NOSIG=
202509261030 METAR VABB 261030Z 30008KT 3000 VCSH SCT020 FEW030CB BKN100 29/25 Q1006 TEMPO 1500 RA=
202509261100 METAR VABB 261100Z 36006KT 2500 -RA SCT018 FEW030CB BKN100 29/25 Q1006 TEMPO 1500 SHRA=
202509261130 METAR VABB 261130Z 35005KT 2500 -RA SCT018 FEW030CB BKN090 29/24 Q1006 TEMPO 1500 SHRA=
202509261200 METAR VABB 261200Z 32004KT 2500 -RA SCT018 FEW030CB BKN090 29/24 Q1006 TEMPO 1500 SHRA=
202509261230 METAR VABB 261230Z 33005KT 2500 -RA SCT018 FEW030CB BKN090 28/24 Q1006 TEMPO 1500 SHRA=
202509261300 METAR VABB 261300Z 29004KT 3000 HZ SCT018 FEW030CB BKN090 28/24 Q1007 NOSIG=
202509261330 METAR VABB 261330Z 35004KT 3000 -RA SCT018 FEW030CB BKN090 28/24 Q1007 NOSIG=
202509261400 METAR VABB 261400Z 03004KT 3000 BR SCT018 FEW030CB BKN090 28/25 Q1007 NOSIG=
202509261430 METAR VABB 261430Z 06005KT 3000 BR SCT018 FEW025TCU BKN090 28/25 Q1008 NOSIG=
202509261500 METAR VABB 261500Z 02005KT 3000 BR SCT018 FEW025TCU BKN090 28/24 Q1008 NOSIG=
202509261530 METAR VABB 261530Z 02004KT 3000 BR SCT018 FEW025TCU BKN090 28/24 Q1008 NOSIG=
202509261600 METAR VABB 261600Z 04004KT 3000 BR SCT018 FEW025TCU BKN090 28/24 Q1009 NOSIG=
202509261630 METAR VABB 261630Z 17003KT 3000 BR SCT018 FEW025TCU BKN090 28/24 Q1009 NOSIG=
202509261700 METAR VABB 261700Z 17004KT 3000 BR SCT018 FEW025TCU BKN090 27/25 Q1009 NOSIG=
202509261730 METAR VABB 261730Z 23004KT 3000 BR SCT018 FEW025TCU BKN090 28/24 Q1009 NOSIG=
202509261800 METAR VABB 261800Z 23004KT 3000 BR SCT018 FEW025TCU BKN090 28/24 Q1008 NOSIG=
202509261830 METAR VABB 261830Z 22005KT 3000 BR SCT018 FEW025TCU BKN090 27/24 Q1008 NOSIG=
202509261900 METAR VABB 261900Z 23004KT 3000 BR SCT018 FEW025TCU BKN090 27/24 Q1008 NOSIG=
202509261930 METAR VABB 261930Z 21003KT 3000 BR SCT018 SCT025 BKN090 27/25 Q1008 NOSIG=
202509262000 METAR VABB 262000Z 00000KT 3000 BR SCT018 SCT025 BKN090 27/25 Q1007 NOSIG=
202509262030 METAR VABB 262030Z 17003KT 3000 BR SCT018 FEW025TCU BKN090 27/25 Q1007 NOSIG=
202509262100 METAR VABB 262100Z 20003KT 3000 BR SCT018 FEW025TCU BKN090 27/25 Q1007 NOSIG=
202509262130 METAR VABB 262130Z 00000KT 3000 BR SCT018 FEW025TCU BKN090 27/25 Q1007 NOSIG=
202509262200 METAR VABB 262200Z 14005KT 3000 BR SCT018 FEW025TCU BKN090 27/25 Q1006 NOSIG=
202509262230 METAR VABB 262230Z 18003KT 2500 -RA SCT018 FEW030CB OVC090 26/25 Q1006 NOSIG=
202509262300 METAR VABB 262300Z 22004KT 2500 BR SCT018 FEW030CB OVC090 27/23 Q1006 NOSIG=
202509262330 METAR VABB 262330Z 22004KT 2500 BR SCT018 FEW030CB OVC090 27/24 Q1006 NOSIG=
202509270000 METAR VABB 270000Z 31006KT 2500 -RA SCT018 FEW030CB OVC090 27/24 Q1007 NOSIG=
202509270030 METAR VABB 270030Z 34003KT 2500 -RA SCT018 FEW030CB OVC090 27/25 Q1007 NOSIG=
202509270100 METAR VABB 270100Z 27004KT 2500 -RA FEW012 SCT018 FEW030CB OVC090 27/25 Q1007 NOSIG=
202509270130 METAR VABB 270130Z 33007KT 1500 TSRA FEW012 SCT018 FEW030CB OVC090 28/25 Q1008 TEMPO 0800 +TSRA=
202509270200 METAR VABB 270200Z 01005KT 0800 R27/2000 +TSRA FEW012 SCT018 FEW030CB OVC090 27/25 Q1008 TEMPO 0600 +TSRA=
202509270230 METAR VABB 270230Z 04005KT 2100 -TSRA FEW010 SCT018 FEW030CB OVC090 27/25 Q1009 TEMPO 1500 TSRA=
202509270300 METAR VABB 270300Z 25006KT 2100 -RA FEW010 SCT018 FEW030CB OVC090 26/23 Q1009 NOSIG=
202509270330 METAR VABB 270330Z 24005KT 2500 BR FEW010 SCT018 FEW030CB OVC090 26/23 Q1009 NOSIG=
202509270400 METAR VABB 270400Z 13005KT 0800 R27/1500 +RA FEW008 SCT018 FEW030CB OVC080 25/24 Q1009 TEMPO 0600 +SHRA=
202509270412 METAR VABB 270412Z 24003KT 2500 R27/1500 -RA FEW008 SCT018 FEW030CB OVC080 24/24 Q1009 TEMPO 1500 SHRA=
202509270430 METAR VABB 270430Z 19004KT 2500 BR FEW010 SCT018 FEW030CB OVC080 25/24 Q1009 TEMPO 1500 SHRA=
202509270500 METAR VABB 270500Z 35003KT 2500 DZ FEW010 SCT018 FEW030CB OVC080 26/25 Q1010 TEMPO 1500 SHRA=
202509270530 METAR VABB 270530Z 02005KT 1800 -RA FEW010 SCT018 FEW030CB OVC080 26/25 Q1010 TEMPO 1500 SHRA=
202509270600 METAR VABB 270600Z 32003KT 2500 BR FEW010 SCT018 FEW030CB OVC080 27/26 Q1009 TEMPO 1500 SHRA=
202509270630 METAR VABB 270630Z 27003KT 2500 BR FEW010 SCT018 FEW030CB OVC080 27/25 Q1009 NOSIG=
202509270700 METAR VABB 270700Z 28004KT 2500 BR FEW010 SCT018 FEW030CB OVC080 28/25 Q1008 NOSIG=
202509270730 METAR VABB 270730Z 27006KT 2500 BR FEW010 SCT018 FEW025TCU OVC080 28/24 Q1008 NOSIG=
202509270800 METAR VABB 270800Z 25007KT 2500 BR FEW010 SCT018 FEW025TCU BKN090 27/25 Q1007 NOSIG=
202509270830 METAR VABB 270830Z 22008KT 2500 BR FEW010 SCT018 FEW025TCU BKN090 27/25 Q1007 NOSIG=
202509270900 METAR VABB 270900Z 22006KT 2500 BR FEW012 SCT018 FEW025TCU OVC090 27/25 Q1007 NOSIG=
202509270930 METAR VABB 270930Z 23007KT 2500 -RA FEW012 SCT018 FEW025TCU OVC090 27/25 Q1006 BECMG 3000 BR=
202509271000 METAR VABB 271000Z 23009KT 3000 BR FEW012 SCT018 FEW025TCU OVC090 27/25 Q1006 TEMPO 1500 SHRA=
202509271030 METAR VABB 271030Z 21008KT 2500 -RA FEW010 SCT015 FEW025TCU OVC090 27/25 Q1006 TEMPO 1500 SHRA=
202509271100 METAR VABB 271100Z 24007KT 2500 -RA FEW010 SCT015 FEW030CB OVC090 27/25 Q1006 TEMPO 1500 SHRA=
202509271130 METAR VABB 271130Z 21008KT 2100 RA FEW010 SCT015 FEW030CB OVC090 27/25 Q1006 TEMPO 1500 SHRA=
202509271200 METAR VABB 271200Z 22008G20KT 2100 -TSRA FEW010 SCT015 FEW030CB OVC080 26/25 Q1006 TEMPO 1500 TSRA=
202509271230 METAR VABB 271230Z 23008KT 2100 -TSRA FEW010 SCT015 FEW030CB OVC080 26/25 Q1006 TEMPO 1500 TSRA=
202509271300 METAR VABB 271300Z 23007KT 2500 BR FEW010 SCT015 FEW025TCU OVC080 26/25 Q1006 TEMPO 1500 SHRA=
202509271330 METAR VABB 271330Z 23009KT 2500 -RA FEW010 SCT018 FEW025TCU OVC080 27/25 Q1006 NOSIG=
202509271400 METAR VABB 271400Z 21007KT 2500 BR FEW012 SCT018 FEW025TCU OVC080 27/25 Q1007 NOSIG=
202509271402 METAR VABB 271402Z 21007KT 2500 BR FEW012 SCT018 FEW025TCU OVC080 27/25 Q1007 NOSIG=
202509271430 METAR VABB 271430Z 25010KT 2500 BR FEW012 SCT018 FEW025TCU OVC080 27/25 Q1007 NOSIG=
202509271500 METAR VABB 271500Z 25003KT 2500 BR FEW012 SCT018 FEW025TCU OVC090 27/25 Q1007 NOSIG=
202509271530 METAR VABB 271530Z 24007KT 2500 BR FEW012 SCT018 FEW025TCU OVC090 27/26 Q1008 NOSIG=
202509271600 METAR VABB 271600Z 24009KT 2500 -RA FEW012 SCT018 FEW025TCU OVC090 27/26 Q1007 NOSIG=
202509271630 METAR VABB 271630Z 24010KT 2500 -TSRA FEW012 SCT018 FEW030CB OVC090 27/26 Q1007 TEMPO 1500 TSRA=
202509271700 METAR VABB 271700Z 25008KT 2500 -TSRA FEW010 SCT015 FEW030CB OVC080 27/26 Q1007 TEMPO 1500 TSRA=
202509271730 METAR VABB 271730Z 24011KT 2100 -TSRA FEW010 SCT015 FEW030CB OVC080 27/26 Q1007 TEMPO 1500 TSRA=
202509271800 METAR VABB 271800Z 24011KT 2100 -TSRA FEW010 SCT015 FEW030CB OVC080 27/26 Q1007 TEMPO 1500 TSRA=
202509271830 METAR VABB 271830Z 25018KT 1500 TSRA FEW010 SCT015 FEW030CB OVC080 26/25 Q1006 TEMPO 0800 +TSRA=
202509271900 METAR VABB 271900Z 32010KT 2500 -TSRA FEW010 SCT015 FEW030CB OVC080 25/24 Q1006 TEMPO 1500 TSRA=
202509271930 METAR VABB 271930Z 30010KT 2500 -RA FEW010 SCT015 FEW030CB OVC080 25/24 Q1006 TEMPO 1500 TSRA=
202509272000 METAR VABB 272000Z 31009KT 2500 -RA FEW010 SCT015 FEW030CB OVC080 25/24 Q1006 TEMPO 1500 TSRA=
202509272030 METAR VABB 272030Z 31003KT 2500 -RA FEW010 SCT015 FEW030CB OVC080 25/24 Q1005 TEMPO 1500 TSRA=
202509272100 METAR VABB 272100Z 36007KT 1800 RA FEW010 SCT015 FEW030CB OVC080 25/24 Q1005 TEMPO 0800 +RA=
202509272130 METAR VABB 272130Z 19005KT 2500 -RA FEW010 SCT015 FEW030CB OVC080 24/24 Q1005 TEMPO 1500 RA=
202509272200 METAR VABB 272200Z 31004KT 2500 RA FEW010 SCT015 FEW030CB OVC080 25/24 Q1005 TEMPO 1500 RA=
202509272230 METAR VABB 272230Z 35004KT 2500 -RA FEW010 SCT015 FEW030CB OVC080 25/24 Q1005 TEMPO 1500 RA=
202509272300 METAR VABB 272300Z 33005KT 2500 -RA FEW010 SCT015 FEW030CB OVC080 25/24 Q1005 TEMPO 1500 RA=
202509272330 METAR VABB 272330Z 28006KT 2500 -RA FEW010 SCT015 FEW030CB OVC080 25/24 Q1005 TEMPO 1500 RA=
202509280000 METAR VABB 280000Z 29007KT 2500 BR FEW010 SCT015 FEW030CB OVC080 25/24 Q1005 NOSIG=
202509280030 METAR VABB 280030Z 28008KT 2500 BR FEW010 SCT015 FEW030CB OVC080 25/24 Q1005 NOSIG=
202509280100 METAR VABB 280100Z 29011KT 2500 BR FEW010 SCT015 FEW030CB OVC080 26/24 Q1006 NOSIG=
202509280130 METAR VABB 280130Z 27010KT 2500 RA FEW010 SCT015 FEW030CB OVC080 25/24 Q1006 TEMPO 1500 SHRA=
202509280200 METAR VABB 280200Z 29006KT 2500 -RA FEW010 SCT015 FEW030CB OVC080 25/24 Q1005 TEMPO 1500 SHRA=
202509280230 METAR VABB 280230Z 28008KT 2500 RA FEW010 SCT015 FEW030CB OVC080 25/23 Q1006 TEMPO 1500 RA=
202509280300 METAR VABB 280300Z 29012KT 1500 +RA FEW010 SCT015 FEW030CB OVC080 24/23 Q1006 TEMPO 0800 +RA=
202509280330 METAR VABB 280330Z 28009KT 1500 +RA FEW010 SCT015 FEW030CB OVC080 24/24 Q1006 TEMPO 0800 +RA=
202509280402 METAR VABB 280402Z 28010G20KT 1200 R27/1500 +RA FEW008 SCT015 FEW030CB OVC080 24/24 Q1006 TEMPO 0800 +RA=
202509280430 METAR VABB 280430Z 26015KT 1000 R27/1300 +RA FEW008 SCT015 FEW030CB OVC080 25/24 Q1006 TEMPO 0800 +RA=
202509280500 METAR VABB 280500Z 27015KT 1000 R27/1300 RA FEW008 SCT015 FEW030CB OVC080 25/24 Q1006 TEMPO 0800 +RA=
202509280530 METAR VABB 280530Z 27016KT 1000 R27/1200 RA FEW008 SCT015 FEW030CB OVC080 25/24 Q1006 TEMPO 0800 +RA=
202509280600 METAR VABB 280600Z 26013KT 1000 R27/1200 RA FEW008 SCT015 FEW030CB OVC080 25/25 Q1006 TEMPO 0800 +RA=
202509280630 METAR VABB 280630Z 24015G25KT 1000 R27/1100 +RA FEW008 SCT015 FEW030CB OVC080 25/24 Q1005 TEMPO 0800 +RA=
202509280700 METAR VABB 280700Z 25015KT 1000 R27/1100 RA FEW010 SCT015 FEW030CB OVC080 25/24 Q1004 NOSIG=
202509280730 METAR VABB 280730Z 24014KT 1000 R27/1000 RA FEW010 SCT015 FEW030CB OVC080 25/25 Q1004 TEMPO 0800 +RA=
202509280800 METAR VABB 280800Z 25014KT 0800 R27/0900 RA FEW010 SCT015 FEW030CB OVC080 26/25 Q1003 TEMPO 0600 +RA=
202509280830 METAR VABB 280830Z 24015KT 0700 R27/0800 +RA FEW008 SCT015 FEW030CB OVC080 25/25 Q1003 NOSIG=
202509280900 METAR VABB 280900Z 29011KT 0900 R27/1100 +RA FEW008 SCT015 FEW030CB OVC080 25/24 Q1003 TEMPO 0600 +RA=
202509280930 METAR VABB 280930Z 29011G21KT 0900 R27/1100 RA FEW010 SCT015 FEW030CB OVC080 25/24 Q1002 NOSIG=
202509281000 METAR VABB 281000Z 29011G21KT 0900 R27/1100 -RA FEW010 SCT015 FEW030CB OVC080 25/24 Q1002 NOSIG=
202509281030 METAR VABB 281030Z 27015KT 0900 R27/1100 -RA FEW012 SCT018 FEW030CB OVC080 25/24 Q1002 NOSIG=
202509281100 METAR VABB 281100Z 28013KT 1200 R27/1400 -RA FEW012 SCT018 FEW030CB OVC080 26/23 Q1002 NOSIG=
202509281130 METAR VABB 281130Z 27017G27KT 1100 R27/1400 BR FEW012 SCT018 FEW025TCU OVC080 26/24 Q1002 NOSIG=
202509281200 METAR VABB 281200Z 27015G25KT 2100 BR FEW012 SCT018 FEW030CB OVC080 26/23 Q1002 NOSIG=
202509281230 METAR VABB 281230Z 27016G26KT 2500 BR FEW012 SCT018 FEW030CB OVC080 26/24 Q1002 NOSIG=
202509281300 METAR VABB 281300Z 28015G25KT 2500 BR FEW012 SCT018 FEW030CB OVC080 25/24 Q1003 NOSIG=
202509281330 METAR VABB 281330Z 26014G24KT 2500 -RA FEW012 SCT018 FEW030CB OVC080 25/24 Q1003 TEMPO 1500 SHRA=
202509281400 METAR VABB 281400Z 26017G27KT 2500 BR FEW012 SCT018 FEW025TCU OVC080 25/23 Q1003 NOSIG=
202509281430 METAR VABB 281430Z 27017G27KT 2500 BR FEW012 SCT018 FEW025TCU OVC080 26/23 Q1003 NOSIG=
202509281500 METAR VABB 281500Z 25010G20KT 2500 BR FEW012 SCT018 FEW025TCU OVC080 26/23 Q1004 NOSIG=
202509281530 METAR VABB 281530Z 25014G24KT 2500 -RA FEW012 SCT018 FEW030CB OVC080 25/23 Q1004 TEMPO 1500 SHRA=
202509281600 METAR VABB 281600Z 22015KT 2500 DZ FEW012 SCT018 FEW025TCU OVC080 25/23 Q1004 NOSIG=
202509281630 METAR VABB 281630Z 25016KT 2500 -RA FEW012 SCT018 FEW025TCU OVC080 25/24 Q1004 NOSIG=
202509281700 METAR VABB 281700Z 25015KT 2500 -DZ FEW012 SCT018 FEW025TCU OVC080 26/24 Q1004 NOSIG=
202509281730 METAR VABB 281730Z 25015KT 2500 BR FEW012 SCT018 FEW025TCU OVC080 26/23 Q1004 NOSIG=
202509281800 METAR VABB 281800Z 25013KT 2500 BR FEW012 SCT018 FEW025TCU OVC080 25/24 Q1004 NOSIG=
202509281830 METAR VABB 281830Z 25013KT 2500 -RA FEW012 SCT018 FEW025TCU OVC080 25/24 Q1004 NOSIG=
202509281900 METAR VABB 281900Z 25014KT 2500 -DZ FEW012 SCT018 FEW025TCU OVC080 25/23 Q1003 NOSIG=
202509281930 METAR VABB 281930Z 25011KT 2500 -RA FEW012 SCT018 FEW025TCU OVC080 25/24 Q1003 NOSIG=
202509282000 METAR VABB 282000Z 25011KT 2500 BR FEW012 SCT018 FEW025TCU OVC080 25/24 Q1003 NOSIG=
202509282030 METAR VABB 282030Z 23015KT 2500 -RA FEW012 SCT018 FEW025TCU OVC080 25/24 Q1003 NOSIG=
202509282100 METAR VABB 282100Z 25019G29KT 1400 R27/1700 RA SCT012 SCT018 FEW025TCU OVC080 25/24 Q1003 TEMPO 0800 +SHRA=
202509282105 METAR VABB 282105Z 25019G29KT 1400 R27/1700 RA SCT012 SCT018 FEW025TCU OVC080 25/24 Q1003 TEMPO 0800 +SHRA=
202509282130 METAR VABB 282130Z 23013KT 1600 RA SCT012 SCT018 FEW025TCU OVC080 24/23 Q1003 TEMPO 0800 +SHRA=
202509282200 METAR VABB 282200Z 23008KT 2100 -RA SCT010 SCT018 FEW025TCU OVC080 24/23 Q1003 TEMPO 1500 SHRA=
202509282230 METAR VABB 282230Z 23011KT 2100 -RA SCT010 SCT018 FEW025TCU OVC080 25/23 Q1003 TEMPO 1500 SHRA=
202509282300 METAR VABB 282300Z 24010KT 2500 -RA SCT010 SCT018 FEW025TCU OVC080 25/23 Q1002 TEMPO 1500 SHRA=
202509282330 METAR VABB 282330Z 24008KT 2500 -RA SCT010 SCT018 FEW025TCU OVC080 26/23 Q1003 NOSIG=
202509290000 METAR VABB 290000Z 21007KT 2500 BR SCT018 FEW025TCU BKN090 26/23 Q1003 NOSIG=
202509290030 METAR VABB 290030Z 26017KT 2100 RA SCT018 FEW025TCU BKN090 26/23 Q1004 TEMPO 1500 SHRA=
202509290056 METAR VABB 290056Z 22014G24KT 1500 RA FEW010 SCT018 FEW025TCU OVC080 25/23 Q1004 TEMPO 0800 +SHRA=
202509010000 METAR VABB NIL=
202509290130 METAR VABB 290130Z 23009KT 2100 -RA FEW010 SCT018 FEW025TCU OVC080 25/24 Q1004 TEMPO 1500 SHRA=
202509290200 METAR VABB 290200Z 24008KT 2500 -RA FEW010 SCT018 FEW025TCU OVC080 26/24 Q1004 NOSIG=
202509290230 METAR VABB 290230Z 23008KT 2500 BR FEW010 SCT018 FEW025TCU OVC080 26/24 Q1005 NOSIG=
202509290300 METAR VABB 290300Z 24011G21KT 2500 BR FEW010 SCT018 FEW025TCU OVC080 27/23 Q1005 NOSIG=
202509290330 METAR VABB 290330Z 24010KT 2500 BR FEW012 SCT018 FEW025TCU OVC080 27/24 Q1006 NOSIG=
202509290400 METAR VABB 290400Z 24011KT 2500 BR FEW012 SCT018 FEW025TCU OVC080 27/24 Q1006 NOSIG=
202509290430 METAR VABB 290430Z 23010KT 2500 BR FEW012 SCT018 FEW025TCU OVC090 27/24 Q1006 TEMPO 1500 SHRA=
202509290500 METAR VABB 290500Z 24010KT 2500 BR FEW012 SCT018 FEW025TCU OVC090 27/24 Q1006 BECMG 3000 BR=
202509290530 METAR VABB 290530Z 24013KT 3000 BR FEW012 SCT018 FEW025TCU OVC090 28/24 Q1006 NOSIG=
202509290600 METAR VABB 290600Z 25013KT 3000 BR FEW012 SCT018 FEW025TCU OVC090 28/24 Q1006 NOSIG=
202509290630 METAR VABB 290630Z 27014KT 3000 BR SCT018 FEW025TCU BKN090 28/24 Q1006 NOSIG=
202509290700 METAR VABB 290700Z 25011KT 3000 BR SCT018 FEW025TCU BKN090 28/24 Q1006 NOSIG=
202509290730 METAR VABB 290730Z 23010KT 3000 BR SCT018 FEW025TCU BKN090 28/23 Q1005 NOSIG=
202509290800 METAR VABB 290800Z 24010KT 3000 HZ SCT018 FEW025TCU BKN090 28/23 Q1005 NOSIG=
202509290830 METAR VABB 290830Z 23008KT 3000 HZ SCT018 FEW025TCU BKN090 28/23 Q1005 NOSIG=
202509290900 METAR VABB 290900Z 25007KT 3000 HZ SCT018 FEW025TCU BKN090 29/23 Q1004 NOSIG=
202509290930 METAR VABB 290930Z 24007KT 3000 HZ SCT018 FEW025TCU BKN090 29/23 Q1004 NOSIG=
202509291000 METAR VABB 291000Z 22008KT 3000 HZ SCT018 FEW025TCU BKN090 29/23 Q1004 NOSIG=
202509291030 METAR VABB 291030Z 22012KT 3000 HZ SCT018 FEW025TCU BKN090 27/23 Q1004 NOSIG=
202509291100 METAR VABB 291100Z 21007KT 3000 DZ FEW012 SCT018 FEW025TCU OVC090 27/23 Q1004 NOSIG=
202509291130 METAR VABB 291130Z 25008KT 3000 BR FEW012 SCT018 FEW025TCU BKN090 27/23 Q1004 NOSIG=
202509291200 METAR VABB 291200Z 25011G21KT 2500 -RA FEW012 SCT018 FEW025TCU OVC080 26/24 Q1004 TEMPO 1500 SHRA=
202509291230 METAR VABB 291230Z 22006KT 2500 BR SCT018 FEW025TCU BKN090 26/24 Q1004 TEMPO 1500 SHRA=
202509291300 METAR VABB 291300Z 22005KT 2500 BR SCT018 FEW025TCU BKN090 26/24 Q1004 NOSIG=
202509291330 METAR VABB 291330Z 20005KT 2500 BR SCT018 SCT025 BKN090 27/24 Q1005 NOSIG=
202509291400 METAR VABB 291400Z 20005KT 2500 BR SCT018 SCT025 BKN090 27/24 Q1005 NOSIG=
202509291430 METAR VABB 291430Z 19006KT 2500 BR SCT018 FEW025TCU BKN090 27/24 Q1005 NOSIG=
202509291500 METAR VABB 291500Z 18009KT 2500 BR SCT018 FEW025TCU BKN090 26/24 Q1005 NOSIG=
202509291530 METAR VABB 291530Z 17008KT 2500 BR SCT018 FEW025TCU BKN090 26/24 Q1006 NOSIG=
202509291600 METAR VABB 291600Z 18010KT 2500 BR SCT018 FEW025TCU BKN090 26/23 Q1006 NOSIG=
202509291630 METAR COR VABB 291630Z 20010G20KT 1000 +RA FEW010 SCT018 FEW025TCU BKN090 24/23 Q1006 NOSIG=
202509291634 METAR VABB 291634Z 20010G20KT 1000 +RA FEW010 SCT018 FEW025TCU BKN090 24/23 Q1006 NOSIG=
202509291700 METAR VABB 291700Z 22006KT 2500 BR FEW010 SCT018 FEW025TCU BKN090 24/23 Q1006 NOSIG=
202509010000 METAR VABB NIL=
202509291730 METAR VABB 291730Z 20005KT 2500 -RA FEW010 SCT018 FEW025TCU OVC080 25/23 Q1006 TEMPO 1500 SHRA=
202509291800 METAR VABB 291800Z 24008KT 1700 RA FEW010 SCT018 FEW025TCU OVC080 24/23 Q1007 TEMPO 1500 SHRA=
202509291830 METAR VABB 291830Z 22008G18KT 2100 -RA FEW010 SCT018 FEW025TCU OVC080 24/24 Q1006 NOSIG=
202509291900 METAR VABB 291900Z 17006KT 2500 BR FEW012 SCT018 FEW025TCU OVC080 25/23 Q1006 NOSIG=
202509291930 METAR VABB 291930Z 17005KT 2500 BR FEW012 SCT018 FEW025TCU OVC080 25/23 Q1006 NOSIG=
202509292000 METAR VABB 292000Z 16006KT 2500 BR FEW012 SCT018 FEW025TCU OVC080 25/23 Q1005 NOSIG=
202509292030 METAR VABB 292030Z 19007G17KT 2500 -RA FEW012 SCT018 FEW025TCU OVC080 25/24 Q1005 NOSIG=
202509292100 METAR VABB 292100Z 16004KT 2500 BR SCT018 FEW025TCU OVC090 25/24 Q1005 NOSIG=
202509292130 METAR VABB 292130Z 14004KT 2500 BR SCT018 FEW025TCU OVC090 25/24 Q1005 NOSIG=
202509292200 METAR VABB 292200Z 14003KT 2500 BR SCT018 FEW025TCU OVC090 25/24 Q1005 NOSIG=
202509292230 METAR VABB 292230Z 12004KT 2500 BR SCT018 FEW025TCU BKN090 24/24 Q1004 NOSIG=
202509292300 METAR VABB 292300Z 14004KT 2500 BR SCT018 SCT025 BKN090 25/23 Q1004 NOSIG=
202509292330 METAR VABB 292330Z 13005KT 2500 BR SCT018 SCT025 BKN090 24/23 Q1004 NOSIG=
202509300000 METAR VABB 300000Z 14004KT 2500 BR SCT018 SCT025 BKN090 25/23 Q1004 NOSIG=
202509300030 METAR VABB 300030Z 14004KT 2500 BR SCT018 SCT025 BKN090 25/23 Q1005 NOSIG=
202509300100 METAR VABB 300100Z 13004KT 2500 BR SCT018 SCT025 BKN090 25/23 Q1005 NOSIG=
202509300130 METAR VABB 300130Z 12004KT 2500 BR SCT020 SCT025 BKN100 25/23 Q1005 NOSIG=
202509300200 METAR VABB 300200Z 12004KT 2500 BR SCT020 SCT025 BKN100 25/23 Q1005 NOSIG=
202509300230 METAR VABB 300230Z 13005KT 2500 BR SCT020 SCT025 BKN100 26/24 Q1005 NOSIG=
202509300300 METAR VABB 300300Z 15005KT 3000 BR FEW020 FEW025TCU 27/24 Q1006 NOSIG=
202509300330 METAR VABB 300330Z 17006KT 3000 BR FEW020 SCT025 27/24 Q1006 NOSIG=
202509300400 METAR VABB 300400Z 16009KT 3000 BR FEW020 SCT025 28/24 Q1006 NOSIG=
202509300430 METAR VABB 300430Z 17012G24KT 3000 BR FEW020 SCT025 28/24 Q1006 NOSIG=
202509300500 METAR VABB 300500Z 17011KT 3000 BR FEW020 SCT025 28/24 Q1006 NOSIG=
202509300530 METAR VABB 300530Z 17013KT 3000 BR FEW020 SCT025 29/24 Q1006 NOSIG=
202509300600 METAR VABB 300600Z 16012KT 3000 BR SCT020 SCT025 29/24 Q1006 NOSIG=
202509300630 METAR VABB 300630Z 17009KT 3000 BR SCT020 SCT025 29/24 Q1005 NOSIG=
202509300703 METAR VABB 300703Z 18008KT 3000 BR FEW020 SCT025 30/24 Q1005 NOSIG=
202509300714 METAR VABB 300714Z 18008KT 3000 HZ FEW020 SCT025 30/24 Q1005 NOSIG=
202509300730 METAR VABB 300730Z 18010KT 3000 HZ FEW020 SCT025 29/24 Q1005 NOSIG=
202509300800 METAR VABB 300800Z 19012KT 3500 HZ FEW020 SCT025 30/24 Q1005 NOSIG=
202509300830 METAR VABB 300830Z 17009KT 3000 HZ FEW020 FEW025TCU 29/24 Q1004 NOSIG=
202509300900 METAR VABB 300900Z 18007KT 2500 BR SCT018 FEW025TCU BKN090 26/24 Q1005 NOSIG=
202509300930 METAR VABB 300930Z 18009KT 3000 BR SCT018 FEW025TCU BKN100 28/25 Q1004 NOSIG=
202509301000 METAR VABB 301000Z 17009KT 3000 BR SCT018 FEW025TCU BKN100 28/25 Q1004 NOSIG=
202509301030 METAR VABB 301030Z 17011KT 3000 BR SCT018 FEW025TCU BKN100 28/24 Q1003 NOSIG=
202509301100 METAR VABB 301100Z 21010KT 2500 -RA SCT018 FEW025TCU BKN090 27/24 Q1003 NOSIG=
202509301130 METAR VABB 301130Z 18010KT 2500 BR SCT018 FEW025TCU BKN090 27/24 Q1003 NOSIG=
202509301200 METAR VABB 301200Z 19008KT 2500 BR SCT018 FEW025TCU BKN090 27/24 Q1003 BECMG 3000 BR=
202509301230 METAR VABB 301230Z 18006KT 3000 BR SCT018 FEW025TCU BKN090 27/24 Q1004 NOSIG=
202509301300 METAR VABB 301300Z 17007KT 1500 SHRA SCT018 FEW025TCU BKN090 27/25 Q1004 NOSIG=
202509301330 METAR VABB 301330Z 18004KT 2500 BR SCT018 FEW025TCU BKN090 26/23 Q1004 BECMG 3000 BR=
202509301400 METAR VABB 301400Z 17007KT 3000 BR SCT018 FEW025TCU BKN090 27/23 Q1005 NOSIG=
202509301430 METAR VABB 301430Z 17005KT 3000 BR SCT018 FEW025TCU BKN090 27/25 Q1005 NOSIG=
202509301500 METAR VABB 301500Z 18008KT 3000 -RA SCT018 FEW025TCU BKN090 26/24 Q1005 NOSIG=
202509301530 METAR VABB 301530Z 17007KT 2500 -RA SCT018 FEW025TCU BKN090 26/24 Q1005 NOSIG=
202509301558 METAR VABB 301558Z 14005KT 2100 RA SCT018 FEW025TCU BKN090 26/24 Q1006 NOSIG=
202509301600 METAR VABB 301600Z 16005KT 3000 BR SCT018 FEW025TCU BKN090 26/24 Q1006 NOSIG=
202509301628 METAR COR VABB 301628Z 14005KT 2100 RA SCT018 FEW025TCU BKN090 26/24 Q1006 NOSIG=
202509010000 METAR VABB NIL=
202509301700 METAR VABB 301700Z 17007G18KT 3000 BR SCT018 FEW025TCU BKN090 26/24 Q1006 NOSIG=
202509301730 METAR VABB 301730Z 17008G19KT 3000 BR SCT018 FEW025TCU BKN090 25/23 Q1006 NOSIG=
202509301800 METAR VABB 301800Z 15005G17KT 3000 BR SCT018 FEW025TCU BKN090 25/23 Q1006 NOSIG=
202509301830 METAR VABB 301830Z 15004KT 3000 BR SCT018 FEW025TCU BKN090 25/24 Q1006 NOSIG=
202509301900 METAR VABB 301900Z 17005KT 3000 BR SCT018 FEW025TCU BKN090 25/24 Q1005 NOSIG=
202509301930 METAR VABB 301930Z 15005KT 3000 BR FEW020 SCT025 BKN090 25/23 Q1005 NOSIG=
202509302000 METAR VABB 302000Z 13004KT 3000 BR FEW020 SCT025 BKN090 25/24 Q1004 NOSIG=
202509302030 METAR VABB 302030Z 14005KT 3000 BR FEW020 SCT025 BKN100 25/24 Q1004 NOSIG=
202509302100 METAR VABB 302100Z 15005KT 3000 BR FEW020 SCT025 BKN100 25/24 Q1003 NOSIG=
202509302130 METAR VABB 302130Z 12007KT 3000 BR SCT018 FEW025TCU BKN100 25/24 Q1003 NOSIG=
202509302200 METAR VABB 302200Z 14004KT 3000 -RA SCT018 FEW025TCU BKN100 25/24 Q1003 NOSIG=
202509302230 METAR VABB 302230Z 11005KT 3000 BR SCT018 FEW025TCU BKN100 25/24 Q1003 NOSIG=
202509302300 METAR VABB 302300Z 14006KT 2100 RA FEW012 SCT018 FEW025TCU BKN090 25/24 Q1003 TEMPO 1500 SHRA=
202509302330 METAR VABB 302330Z 14006KT 2100 BR FEW012 SCT018 FEW025TCU BKN090 25/24 Q1003 NOSIG=
