202601010003 METAR VABB 010003Z 06007KT 1800 RA FEW020 SCT025 BKN100 23/19 Q1011 BECMG 1500 RA=
202601010030 METAR VABB 010030Z 30005KT 1800 -RA SCT020 BKN090 22/20 Q1012 NOSIG=
202601010100 METAR VABB 010100Z 36010KT 2500 BR SCT020 BKN090 21/19 Q1012 NOSIG=
202601010130 METAR VABB 010130Z 06008KT 2500 -RA SCT020 BKN090 22/19 Q1012 NOSIG=
202601010200 METAR VABB 010200Z 07011KT 2500 -RA SCT018 SCT025 BKN090 21/18 Q1013 NOSIG=
202601010230 METAR VABB 010230Z 09009KT 2500 DZ SCT020 SCT025 BKN090 21/18 Q1013 NOSIG=
202601010300 METAR VABB 010300Z 10008KT 2500 BR SCT020 SCT025 BKN090 21/17 Q1013 NOSIG=
202601010330 METAR VABB 010330Z 12007KT 2500 BR SCT020 SCT025 BKN090 22/18 Q1014 NOSIG=
202601010400 METAR VABB 010400Z 12006KT 2500 BR SCT020 SCT025 BKN090 22/18 Q1014 NOSIG=
202601010430 METAR VABB 010430Z 12003KT 2500 BR SCT020 SCT025 BKN090 24/19 Q1014 BECMG 3000 HZ=
202601010500 METAR VABB 010500Z 13003KT 3000 HZ FEW020 SCT025 BKN090 25/19 Q1014 NOSIG=
202601010530 METAR VABB 010530Z 00000KT 3000 HZ FEW020 SCT100 27/18 Q1013 NOSIG=
202601010600 METAR VABB 010600Z 00000KT 3000 FU FEW020 SCT100 28/16 Q1013 NOSIG=
202601010630 METAR VABB 010630Z 02005KT 4000 FU FEW020 SCT100 29/15 Q1013 NOSIG=
202601010700 METAR VABB 010700Z 28006KT 4000 FU FEW020 SCT100 29/16 Q1012 NOSIG=
202601010730 METAR VABB 010730Z 27007KT 4000 FU FEW020 SCT100 29/17 Q1011 NOSIG=
202601010800 METAR VABB 010800Z 27009KT 4000 FU FEW020 29/17 Q1011 NOSIG=
202601010830 METAR VABB 010830Z 27007KT 4000 FU FEW020 29/17 Q1010 NOSIG=
202601010900 METAR VABB 010900Z 27010KT 4000 FU FEW020 28/18 Q1010 NOSIG=
202601010930 METAR VABB 010930Z 29011KT 4000 FU FEW020 29/17 Q1010 NOSIG=
202601011000 METAR VABB 011000Z 28011KT 4000 FU FEW020 28/18 Q1009 NOSIG=
202601011030 METAR VABB 011030Z 29011KT 4500 FU FEW020 28/18 Q1009 NOSIG=
202601011100 METAR VABB 011100Z 31010KT 4500 FU FEW020 28/18 Q1009 NOSIG=
202601011130 METAR VABB 011130Z 32011KT 4500 FU NSC 27/18 Q1009 NOSIG=
202601011200 METAR VABB 011200Z 31011KT 4500 HZ NSC 27/19 Q1010 NOSIG=
202601011230 METAR VABB 011230Z 33011KT 4500 HZ NSC 26/20 Q1010 NOSIG=
202601011300 METAR VABB 011300Z 33008KT 4000 HZ NSC 25/20 Q1010 NOSIG=
202601011330 METAR VABB 011330Z 33006KT 3500 HZ NSC 25/20 Q1011 NOSIG=
202601011400 METAR VABB 011400Z 32005KT 3500 HZ NSC 26/20 Q1011 NOSIG=
202601011430 METAR VABB 011430Z 32006KT 3500 HZ NSC 25/20 Q1012 BECMG 3000 HZ=
202601011500 METAR VABB 011500Z 32005KT 3000 HZ NSC 25/20 Q1013 NOSIG=
202601011530 METAR VABB 011530Z 01005KT 3000 HZ NSC 25/20 Q1013 NOSIG=
202601011600 METAR VABB 011600Z 01004KT 3000 HZ NSC 25/20 Q1013 NOSIG=
202601011630 METAR VABB 011630Z 04004KT 3000 HZ NSC 25/20 Q1013 NOSIG=
202601011700 METAR VABB 011700Z 04004KT 3000 HZ NSC 25/20 Q1014 NOSIG=
202601011730 METAR VABB 011730Z 33003KT 2500 BR NSC 24/20 Q1013 NOSIG=
202601011800 METAR VABB 011800Z 06003KT 2500 BR NSC 24/20 Q1013 NOSIG=
202601011830 METAR VABB 011830Z 01004KT 2500 BR NSC 24/20 Q1013 NOSIG=
202601011900 METAR VABB 011900Z 01004KT 2500 BR NSC 24/20 Q1013 NOSIG=
202601011930 METAR VABB 011930Z 02003KT 2500 BR NSC 24/20 Q1012 NOSIG=
202601012000 METAR VABB 012000Z 36004KT 2500 BR NSC 23/20 Q1012 NOSIG=
202601012030 METAR VABB 012030Z 06003KT 2500 BR NSC 23/20 Q1012 NOSIG=
202601012100 METAR VABB 012100Z 12003KT 2500 BR NSC 23/20 Q1012 NOSIG=
202601012130 METAR VABB 012130Z 04004KT 2500 BR NSC 23/20 Q1012 NOSIG=
202601012200 METAR VABB 012200Z 01003KT 2500 BR NSC 23/20 Q1012 NOSIG=
202601012230 METAR VABB 012230Z 00000KT 2200 BR NSC 22/20 Q1012 NOSIG=
202601012300 METAR VABB 012300Z 16003KT 2200 BR NSC 23/20 Q1012 NOSIG=
202601012330 METAR VABB 012330Z 09003KT 2500 BR NSC 23/19 Q1012 NOSIG=
202601020000 METAR VABB 020000Z 00000KT 2500 BR NSC 23/19 Q1012 NOSIG=
202601020030 METAR VABB 020030Z 05004KT 2500 BR NSC 23/19 Q1012 NOSIG=
202601020100 METAR VABB 020100Z 12003KT 2500 BR NSC 23/19 Q1013 NOSIG=
202601020130 METAR VABB 020130Z 00000KT 1500 BR NSC 23/19 Q1013 NOSIG=
202601020200 METAR VABB 020200Z 15003KT 1200 R27/2000 BR NSC 23/19 Q1014 NOSIG=
202601020230 METAR VABB 020230Z 15004KT 1200 R27/2000 BR NSC 23/19 Q1014 NOSIG=
202601020300 METAR VABB 020300Z 13003KT 1200 R27/2000 BR NSC 23/19 Q1015 NOSIG=
202601020330 METAR VABB 020330Z 12003KT 1800 BR NSC 23/19 Q1015 NOSIG=
202601020400 METAR VABB 020400Z 08004KT 1800 BR NSC 25/19 Q1015 NOSIG=
202601020430 METAR COR VABB 020430Z 05006KT 1800 HZ NSC 26/18 Q1015 NOSIG=
202601020500 METAR VABB 020500Z 06007KT 2200 HZ NSC 26/18 Q1015 NOSIG=
202601020530 METAR VABB 020530Z 06005KT 2500 HZ NSC 27/18 Q1015 NOSIG=
202601020600 METAR VABB 020600Z 00000KT 2500 HZ NSC 28/18 Q1015 NOSIG=
202601020630 METAR VABB 020630Z 02004KT 2500 FU NSC 28/17 Q1014 NOSIG=
202601020700 METAR VABB 020700Z 00000KT 2500 FU NSC 29/17 Q1014 NOSIG=
202601020730 METAR VABB 020730Z 35006KT 2500 FU NSC 30/17 Q1013 NOSIG=
202601020800 METAR VABB 020800Z 25008KT 2500 FU NSC 29/20 Q1013 NOSIG=
202601020830 METAR VABB 020830Z 27009KT 2500 FU SCT100 29/20 Q1012 NOSIG=
202601020900 METAR VABB 020900Z 27009KT 2500 FU SCT100 29/20 Q1012 NOSIG=
202601020930 METAR VABB 020930Z 28008KT 2500 FU SCT100 29/20 Q1012 NOSIG=
202601021000 METAR VABB 021000Z 29009KT 2500 HZ SCT100 28/20 Q1012 NOSIG=
202601021030 METAR VABB 021030Z 30008KT 2500 FU FEW020 SCT100 29/19 Q1012 NOSIG=
202601021100 METAR VABB 021100Z 32007KT 2200 FU FEW020 SCT100 28/20 Q1012 NOSIG=
202601021130 METAR VABB 021130Z 31009KT 2200 FU FEW020 SCT100 27/20 Q1012 NOSIG=
202601021200 METAR VABB 021200Z 32008KT 2200 FU FEW020 SCT100 27/20 Q1012 NOSIG=
202601021230 METAR VABB 021230Z 33007KT 2100 HZ FEW100 27/20 Q1013 NOSIG=
202601021300 METAR VABB 021300Z 32006KT 2100 HZ FEW100 26/20 Q1013 NOSIG=
202601021330 METAR VABB 021330Z 32005KT 2100 HZ FEW100 26/20 Q1013 NOSIG=
202601021400 METAR VABB 021400Z 34006KT 2100 HZ FEW100 26/21 Q1013 NOSIG=
202601021430 METAR VABB 021430Z 33005KT 2100 HZ FEW100 25/21 Q1014 NOSIG=
202601021500 METAR VABB 021500Z 32005KT 2100 HZ FEW100 25/20 Q1014 NOSIG=
202601021530 METAR VABB 021530Z 01006KT 2100 HZ FEW100 25/20 Q1014 NOSIG=
202601021600 METAR VABB 021600Z 02005KT 2100 HZ FEW100 25/20 Q1014 NOSIG=
202601021630 METAR VABB 021630Z 36005KT 2100 HZ FEW100 24/20 Q1015 NOSIG=
202601021700 METAR VABB 021700Z 34004KT 2100 HZ FEW100 24/20 Q1015 NOSIG=
202601021730 METAR VABB 021730Z 31003KT 2100 HZ FEW100 24/19 Q1014 NOSIG=
202601021800 METAR VABB 021800Z 02005KT 2100 HZ FEW100 24/19 Q1014 NOSIG=
202601021830 METAR VABB 021830Z 01006KT 2100 HZ FEW100 24/19 Q1014 NOSIG=
202601021900 METAR VABB 021900Z 03003KT 2100 HZ FEW100 24/19 Q1014 NOSIG=
202601021930 METAR VABB 021930Z 02003KT 2100 HZ FEW100 24/19 Q1013 NOSIG=
202601022000 METAR VABB 022000Z 00000KT 2100 HZ FEW100 23/19 Q1013 NOSIG=
202601022030 METAR VABB 022030Z 00000KT 2100 HZ FEW100 24/19 Q1013 NOSIG=
202601022100 METAR VABB 022100Z 22005KT 2100 BR FEW100 24/19 Q1013 NOSIG=
202601022130 METAR VABB 022130Z 00000KT 2100 BR FEW100 24/18 Q1013 NOSIG=
202601022200 METAR VABB 022200Z 02003KT 2100 HZ FEW100 23/18 Q1013 NOSIG=
202601022230 METAR VABB 022230Z 34005KT 2100 HZ FEW100 23/18 Q1013 NOSIG=
202601022300 METAR VABB 022300Z 04004KT 2100 HZ FEW100 23/18 Q1013 NOSIG=
202601022330 METAR VABB 022330Z 06004KT 2100 HZ FEW100 23/18 Q1013 NOSIG=
202601030000 METAR VABB 030000Z 06004KT 2100 HZ FEW100 22/18 Q1013 NOSIG=
202601030030 METAR VABB 030030Z 11003KT 2100 HZ FEW100 23/18 Q1013 NOSIG=
202601030100 METAR VABB 030100Z 11004KT 2100 HZ FEW100 22/17 Q1013 NOSIG=
202601030130 METAR VABB 030130Z 10004KT 2100 HZ FEW100 22/17 Q1013 NOSIG=
202601030200 METAR VABB 030200Z 16003KT 2100 HZ FEW100 23/17 Q1014 NOSIG=
202601030230 METAR VABB 030230Z 09003KT 2100 HZ FEW100 23/17 Q1014 NOSIG=
202601030300 METAR VABB 030300Z 19003KT 2100 HZ FEW100 24/16 Q1014 NOSIG=
202601030330 METAR VABB 030330Z 06005KT 2100 HZ FEW100 25/16 Q1015 NOSIG=
202601030400 METAR VABB 030400Z 05006KT 2100 FU NSC 25/16 Q1015 NOSIG=
202601030430 METAR VABB 030430Z 04006KT 2100 FU NSC 26/16 Q1015 NOSIG=
202601030500 METAR VABB 030500Z 06006KT 2100 FU NSC 27/16 Q1015 NOSIG=
202601030530 METAR VABB 030530Z 04007KT 2100 FU NSC 28/16 Q1015 NOSIG=
202601030600 METAR VABB 030600Z 06006KT 2100 FU NSC 28/16 Q1015 NOSIG=
202601030630 METAR VABB 030630Z 02004KT 2100 FU NSC 29/16 Q1014 NOSIG=
202601030700 METAR VABB 030700Z 12006KT 2100 FU NSC 30/16 Q1014 NOSIG=
202601030730 METAR VABB 030730Z 27007KT 2100 FU NSC 29/19 Q1013 NOSIG=
202601030800 METAR VABB 030800Z 26008KT 2100 FU NSC 29/19 Q1013 NOSIG=
202601030830 METAR VABB 030830Z 25007KT 2100 FU FEW100 30/20 Q1012 NOSIG=
202601030900 METAR VABB 030900Z 27007KT 2500 FU SCT100 30/19 Q1012 NOSIG=
202601030930 METAR VABB 030930Z 29007KT 2500 FU SCT100 29/19 Q1011 NOSIG=
202601031000 METAR VABB 031000Z 29007KT 2500 FU FEW100 29/20 Q1011 NOSIG=
202601031030 METAR VABB 031030Z 32007KT 2500 FU FEW100 29/19 Q1011 NOSIG=
202601031100 METAR VABB 031100Z 33007KT 2500 FU FEW100 28/19 Q1011 NOSIG=
202601010000 METAR VABB NIL=
202601031130 METAR VABB 031130Z 32007KT 2500 FU FEW100 28/19 Q1011 NOSIG=
202601031200 METAR VABB 031200Z 32006KT 2500 FU FEW100 28/18 Q1012 NOSIG=
202601031230 METAR VABB 031230Z 31005KT 2200 FU FEW100 27/18 Q1012 NOSIG=
202601031300 METAR VABB 031300Z 32004KT 2200 FU NSC 27/18 Q1012 NOSIG=
202601031330 METAR VABB 031330Z 31005KT 2200 HZ NSC 27/19 Q1013 NOSIG=
202601031400 METAR VABB 031400Z 01005KT 2200 HZ NSC 26/19 Q1013 NOSIG=
202601031430 METAR VABB 031430Z 01003KT 2200 HZ NSC 26/20 Q1013 NOSIG=
202601031500 METAR VABB 031500Z 34003KT 2200 HZ NSC 26/20 Q1014 NOSIG=
202601031530 METAR VABB 031530Z 36004KT 2200 HZ NSC 26/20 Q1014 NOSIG=
202601031600 METAR VABB 031600Z 01005KT 2200 HZ NSC 26/20 Q1014 NOSIG=
202601031630 METAR VABB 031630Z 02004KT 1800 HZ NSC 26/20 Q1015 NOSIG=
202601031700 METAR VABB 031700Z 00000KT 1800 HZ NSC 26/20 Q1015 NOSIG=
202601031730 METAR VABB 031730Z 00000KT 1800 HZ NSC 26/20 Q1015 NOSIG=
202601031800 METAR VABB 031800Z 04003KT 1800 HZ NSC 26/20 Q1014 NOSIG=
202601031830 METAR VABB 031830Z 00000KT 1800 HZ NSC 25/20 Q1014 NOSIG=
202601031900 METAR VABB 031900Z 00000KT 1600 HZ NSC 25/20 Q1014 NOSIG=
202601031930 METAR VABB 031930Z 06003KT 1600 HZ NSC 25/20 Q1014 NOSIG=
202601032000 METAR VABB 032000Z 35003KT 1600 HZ NSC 25/20 Q1013 NOSIG=
202601032030 METAR VABB 032030Z 32003KT 1600 HZ NSC 24/20 Q1013 NOSIG=
202601032100 METAR VABB 032100Z 00000KT 1600 HZ NSC 24/20 Q1013 NOSIG=
202601032130 METAR VABB 032130Z 00000KT 1600 HZ NSC 24/20 Q1013 NOSIG=
202601032200 METAR VABB 032200Z 00000KT 1600 HZ NSC 24/20 Q1013 NOSIG=
202601032230 METAR VABB 032230Z 00000KT 1600 HZ NSC 24/20 Q1013 NOSIG=
202601032300 METAR VABB 032300Z 04003KT 1600 HZ NSC 24/20 Q1013 NOSIG=
202601032330 METAR VABB 032330Z 04004KT 1600 HZ NSC 23/20 Q1013 NOSIG=
202601040000 METAR VABB 040000Z 00000KT 1600 BR NSC 23/19 Q1013 NOSIG=
202601040030 METAR VABB 040030Z 00000KT 1600 BR NSC 23/19 Q1013 NOSIG=
202601040100 METAR VABB 040100Z 00000KT 1600 BR NSC 24/19 Q1014 NOSIG=
202601040130 METAR VABB 040130Z 00000KT 1400 R27/P2000 HZ NSC 24/19 Q1014 TEMPO 0800 HZ=
202601040200 METAR VABB 040200Z 00000KT 1400 R27/2000 HZ NSC 23/19 Q1014 NOSIG=
202601040230 METAR VABB 040230Z 02003KT 1200 R27/2000 HZ NSC 24/19 Q1015 NOSIG=
202601040300 METAR VABB 040300Z 36003KT 1200 R27/2000 HZ NSC 24/19 Q1015 NOSIG=
202601040330 METAR VABB 040330Z 07004KT 1200 R27/2000 HZ NSC 25/19 Q1016 BECMG 1500 HZ=
202601040400 METAR VABB 040400Z 05006KT 1500 HZ NSC 26/18 Q1016 NOSIG=
202601040430 METAR VABB 040430Z 04007KT 1800 HZ NSC 26/18 Q1016 NOSIG=
202601040500 METAR VABB 040500Z 05006KT 2100 HZ NSC 27/18 Q1016 NOSIG=
202601040530 METAR VABB 040530Z 04006KT 2100 HZ NSC 28/18 Q1016 NOSIG=
202601040600 METAR VABB 040600Z 12007KT 2200 HZ NSC 29/18 Q1016 NOSIG=
202601040630 METAR VABB 040630Z 06004KT 2200 FU NSC 29/18 Q1015 NOSIG=
202601040700 METAR VABB 040700Z 01004KT 2500 FU NSC 30/18 Q1015 NOSIG=
202601040730 METAR VABB 040730Z 01004KT 2100 FU NSC 30/18 Q1014 NOSIG=
202601040800 METAR VABB 040800Z 01004KT 2100 FU NSC 31/18 Q1013 NOSIG=
202601040830 METAR VABB 040830Z 33003KT 2100 FU NSC 31/21 Q1013 NOSIG=
202601040900 METAR VABB 040900Z 29008KT 2100 FU NSC 31/20 Q1013 NOSIG=
202601040930 METAR VABB 040930Z 33007KT 2100 FU NSC 31/21 Q1012 NOSIG=
202601041000 METAR VABB 041000Z 31009KT 1800 FU NSC 30/21 Q1012 NOSIG=
202601041030 METAR VABB 041030Z 32009KT 2000 FU NSC 30/19 Q1012 NOSIG=
202601041100 METAR VABB 041100Z 31006KT 1800 FU NSC 30/20 Q1012 NOSIG=
202601041130 METAR VABB 041130Z 33007KT 1800 FU NSC 30/20 Q1012 NOSIG=
202601041200 METAR VABB 041200Z 33007KT 1800 FU NSC 30/18 Q1012 NOSIG=
202601041230 METAR VABB 041230Z 35006KT 2100 FU NSC 29/18 Q1013 NOSIG=
202601041300 METAR VABB 041300Z 36006KT 2100 FU NSC 28/18 Q1013 NOSIG=
202601041330 METAR VABB 041330Z 01005KT 2500 FU NSC 28/18 Q1013 NOSIG=
202601041400 METAR VABB 041400Z 36006KT 2500 FU NSC 28/19 Q1014 NOSIG=
202601041430 METAR VABB 041430Z 01007KT 2500 FU NSC 28/19 Q1014 NOSIG=
202601041500 METAR VABB 041500Z 01008KT 2500 FU NSC 28/18 Q1014 NOSIG=
202601041530 METAR VABB 041530Z 01005KT 2500 FU NSC 27/18 Q1015 NOSIG=
202601041600 METAR VABB 041600Z 05004KT 2500 FU NSC 28/17 Q1015 NOSIG=
202601041630 METAR VABB 041630Z 05003KT 2500 FU NSC 27/17 Q1015 NOSIG=
202601041700 METAR VABB 041700Z 01004KT 2500 FU NSC 28/15 Q1015 NOSIG=
202601041730 METAR VABB 041730Z 36005KT 2500 FU NSC 27/15 Q1015 NOSIG=
202601041800 METAR VABB 041800Z 36005KT 2500 FU NSC 27/17 Q1015 NOSIG=
202601041830 METAR VABB 041830Z 36004KT 2500 FU NSC 26/17 Q1015 NOSIG=
202601041900 METAR VABB 041900Z 36006KT 2500 FU NSC 26/17 Q1015 NOSIG=
202601041930 METAR VABB 041930Z 01006KT 2500 FU NSC 25/17 Q1014 NOSIG=
202601042000 METAR VABB 042000Z 06004KT 2500 FU NSC 25/17 Q1015 NOSIG=
202601042030 METAR VABB 042030Z 14004KT 2500 FU NSC 25/17 Q1014 NOSIG=
202601042100 METAR VABB 042100Z 22004KT 2500 FU NSC 26/17 Q1014 NOSIG=
202601042130 METAR VABB 042130Z 07004KT 2500 FU NSC 25/16 Q1014 NOSIG=
202601042200 METAR VABB 042200Z 31003KT 2500 FU NSC 24/17 Q1014 NOSIG=
202601042230 METAR VABB 042230Z 00000KT 2500 FU NSC 24/17 Q1014 NOSIG=
202601042300 METAR VABB 042300Z 00000KT 2500 FU NSC 24/17 Q1014 NOSIG=
202601010000 METAR VABB NIL=
202601042330 METAR VABB 042330Z 02003KT 2500 FU NSC 24/17 Q1014 NOSIG=
202601050000 METAR VABB 050000Z 16004KT 2500 FU NSC 24/17 Q1014 NOSIG=
202601010000 METAR VABB NIL=
202601050030 METAR VABB 050030Z 00000KT 2500 FU NSC 24/17 Q1014 NOSIG=
202601050100 METAR VABB 050100Z 00000KT 2500 FU NSC 24/17 Q1015 NOSIG=
202601050130 METAR VABB 050130Z 06004KT 2100 HZ NSC 24/17 Q1015 NOSIG=
202601050200 METAR VABB 050200Z 00000KT 2100 HZ NSC 24/17 Q1015 NOSIG=
202601050225 METAR VABB 050225Z 15005KT 1200 R27/2000 HZ NSC 24/17 Q1016 NOSIG=
202601050300 METAR VABB 050300Z 15005KT 1200 R27/2000 HZ NSC 25/18 Q1016 NOSIG=
202601050330 METAR VABB 050330Z 13003KT 1200 R27/2000 FU NSC 26/17 Q1017 BECMG 1500 FU=
202601050400 METAR VABB 050400Z 09007KT 1500 FU NSC 27/17 Q1017 NOSIG=
202601050430 METAR VABB 050430Z 08007KT 1500 FU NSC 27/17 Q1017 NOSIG=
202601050500 METAR VABB 050500Z 08007KT 1500 FU NSC 28/17 Q1017 NOSIG=
202601010000 METAR VABB NIL=
202601050530 METAR VABB 050530Z 09008KT 1500 FU NSC 28/17 Q1017 NOSIG=
202601050600 METAR VABB 050600Z 11009KT 1500 FU NSC 29/17 Q1016 NOSIG=
202601050630 METAR VABB 050630Z 11007KT 1500 FU NSC 30/17 Q1016 NOSIG=
202601050700 METAR VABB 050700Z 11005KT 2100 FU NSC 30/16 Q1015 NOSIG=
202601050730 METAR VABB 050730Z 14005KT 2100 FU NSC 31/16 Q1015 NOSIG=
202601050800 METAR VABB 050800Z 14007KT 2100 FU NSC 32/15 Q1014 NOSIG=
202601050830 METAR VABB 050830Z 15007KT 2500 FU NSC 32/15 Q1014 NOSIG=
202601050900 METAR VABB 050900Z 13004KT 2500 FU NSC 32/15 Q1014 NOSIG=
202601050930 METAR VABB 050930Z 22005KT 2100 FU NSC 32/20 Q1013 NOSIG=
202601051000 METAR VABB 051000Z 23008KT 2100 FU NSC 31/18 Q1013 NOSIG=
202601051030 METAR VABB 051030Z 25008KT 1800 FU NSC 31/18 Q1013 NOSIG=
202601051100 METAR VABB 051100Z 26009KT 1800 FU NSC 30/17 Q1013 NOSIG=
202601051130 METAR VABB 051130Z 27008KT 1800 FU NSC 29/17 Q1013 NOSIG=
202601051200 METAR VABB 051200Z 27007KT 1800 FU NSC 29/18 Q1013 NOSIG=
202601051230 METAR VABB 051230Z 27006KT 2100 FU NSC 28/19 Q1013 NOSIG=
202601051300 METAR VABB 051300Z 29005KT 2100 FU NSC 27/19 Q1014 NOSIG=
202601051330 METAR VABB 051330Z 31005KT 2100 FU NSC 27/19 Q1014 NOSIG=
202601051400 METAR VABB 051400Z 33007KT 2500 FU NSC 27/20 Q1014 NOSIG=
202601051430 METAR COR VABB 051430Z 34006KT 2500 HZ NSC 27/20 Q1015 NOSIG=
202601051500 METAR VABB 051500Z 33006KT 2500 HZ NSC 27/21 Q1015 NOSIG=
202601051530 METAR VABB 051530Z 01004KT 2500 HZ NSC 26/21 Q1015 NOSIG=
202601051600 METAR VABB 051600Z 36003KT 2500 HZ NSC 26/21 Q1015 NOSIG=
202601051630 METAR VABB 051630Z 04003KT 2500 HZ NSC 26/20 Q1016 NOSIG=
202601051700 METAR VABB 051700Z 03004KT 2500 HZ NSC 26/20 Q1016 NOSIG=
202601051730 METAR VABB 051730Z 07005KT 2500 HZ NSC 26/19 Q1016 NOSIG=
202601051800 METAR VABB 051800Z 10004KT 2500 HZ NSC 26/20 Q1016 NOSIG=
202601051830 METAR VABB 051830Z 03004KT 2100 HZ NSC 26/19 Q1015 NOSIG=
202601051900 METAR VABB 051900Z 10003KT 2100 HZ NSC 26/19 Q1015 NOSIG=
202601051930 METAR VABB 051930Z 16004KT 2100 HZ NSC 26/19 Q1015 NOSIG=
202601052000 METAR VABB 052000Z 16004KT 2100 HZ NSC 25/19 Q1015 NOSIG=
202601052030 METAR VABB 052030Z 14004KT 2100 HZ NSC 25/19 Q1015 NOSIG=
202601052100 METAR VABB 052100Z 14005KT 2100 HZ NSC 25/20 Q1014 NOSIG=
202601052130 METAR VABB 052130Z 14003KT 2100 HZ NSC 25/20 Q1014 NOSIG=
202601052200 METAR VABB 052200Z 10003KT 2100 HZ NSC 25/20 Q1014 NOSIG=
202601052230 METAR VABB 052230Z 07004KT 2100 HZ NSC 24/19 Q1014 NOSIG=
202601052300 METAR VABB 052300Z 11006KT 2100 HZ NSC 24/19 Q1014 NOSIG=
202601052330 METAR VABB 052330Z 14006KT 2100 BR NSC 24/20 Q1014 NOSIG=
202601060000 METAR VABB 060000Z 14004KT 2100 BR NSC 24/20 Q1014 NOSIG=
202601060030 METAR VABB 060030Z 11003KT 1800 BR NSC 24/19 Q1014 NOSIG=
202601060100 METAR VABB 060100Z 13004KT 1800 BR NSC 23/19 Q1015 NOSIG=
202601060130 METAR VABB 060130Z 10005KT 1600 BR NSC 24/19 Q1015 NOSIG=
202601060200 METAR VABB 060200Z 12006KT 1600 HZ NSC 24/18 Q1015 NOSIG=
202601060230 METAR VABB 060230Z 10004KT 1200 R27/2000 HZ NSC 24/18 Q1016 NOSIG=
202601060300 METAR VABB 060300Z 11005KT 1200 R27/2000 HZ NSC 25/17 Q1016 NOSIG=
202601060330 METAR VABB 060330Z 12006KT 1200 R27/2000 FU NSC 26/17 Q1017 NOSIG=
202601060400 METAR VABB 060400Z 12006KT 1200 R27/2000 FU NSC 27/17 Q1017 BECMG 1500 FU=
202601060430 METAR VABB 060430Z 13005KT 1500 FU NSC 27/16 Q1018 NOSIG=
202601060500 METAR VABB 060500Z 12006KT 1500 FU NSC 28/16 Q1018 NOSIG=
202601060530 METAR VABB 060530Z 13007KT 1800 FU NSC 28/16 Q1017 NOSIG=
202601060600 METAR VABB 060600Z 14006KT 2100 FU NSC 29/14 Q1017 NOSIG=
202601060630 METAR VABB 060630Z 12009KT 2500 FU NSC 29/14 Q1017 NOSIG=
202601060700 METAR VABB 060700Z 12007KT 2500 FU NSC 30/14 Q1016 BECMG 3000 FU=
202601060730 METAR VABB 060730Z 09007KT 3000 FU NSC 31/14 Q1015 NOSIG=
202601060800 METAR VABB 060800Z 10006KT 3000 FU NSC 31/14 Q1015 NOSIG=
202601060830 METAR VABB 060830Z 13005KT 3000 FU NSC 31/13 Q1014 NOSIG=
202601060900 METAR VABB 060900Z 36004KT 3000 FU NSC 31/13 Q1014 NOSIG=
202601060930 METAR VABB 060930Z 26009KT 3000 FU NSC 31/14 Q1014 NOSIG=
202601061000 METAR VABB 061000Z 26010KT 3000 FU NSC 31/13 Q1013 NOSIG=
202601061030 METAR VABB 061030Z 26008KT 3000 FU NSC 31/13 Q1013 NOSIG=
202601061100 METAR VABB 061100Z 27007KT 3000 FU NSC 30/13 Q1014 NOSIG=
202601061130 METAR VABB 061130Z 28007KT 3000 FU NSC 30/15 Q1014 NOSIG=
202601061200 METAR VABB 061200Z 28008KT 2500 FU NSC 29/15 Q1014 NOSIG=
202601061230 METAR VABB 061230Z 31007KT 2500 FU NSC 28/17 Q1014 NOSIG=
202601061300 METAR VABB 061300Z 32007KT 2500 FU NSC 28/16 Q1015 NOSIG=
202601061330 METAR VABB 061330Z 34006KT 2500 FU NSC 27/18 Q1015 NOSIG=
202601061400 METAR VABB 061400Z 34005KT 2500 FU NSC 27/18 Q1015 NOSIG=
202601061430 METAR VABB 061430Z 34006KT 2500 FU NSC 27/18 Q1016 NOSIG=
202601061500 METAR VABB 061500Z 35004KT 2500 FU NSC 27/18 Q1016 NOSIG=
202601061530 METAR VABB 061530Z 36004KT 2500 HZ NSC 27/19 Q1016 NOSIG=
202601061600 METAR VABB 061600Z 01006KT 2500 HZ NSC 26/20 Q1017 NOSIG=
202601061630 METAR VABB 061630Z 05004KT 2500 HZ NSC 26/20 Q1017 NOSIG=
202601061700 METAR VABB 061700Z 13006KT 2500 HZ NSC 26/18 Q1017 NOSIG=
202601061730 METAR VABB 061730Z 10005KT 2500 HZ NSC 25/18 Q1017 NOSIG=
202601061800 METAR VABB 061800Z 10006KT 2500 HZ NSC 25/19 Q1017 NOSIG=
202601061830 METAR VABB 061830Z 10006KT 2500 HZ NSC 25/18 Q1016 NOSIG=
202601061900 METAR VABB 061900Z 06006KT 2200 HZ NSC 25/18 Q1016 NOSIG=
202601061930 METAR VABB 061930Z 05004KT 2200 HZ NSC 25/18 Q1016 NOSIG=
202601062000 METAR VABB 062000Z 00000KT 2200 HZ NSC 25/18 Q1016 NOSIG=
202601062030 METAR VABB 062030Z 00000KT 2200 HZ NSC 25/17 Q1016 NOSIG=
202601062100 METAR VABB 062100Z 08003KT 2200 HZ NSC 25/17 Q1015 NOSIG=
202601062130 METAR VABB 062130Z 14004KT 2200 HZ NSC 25/17 Q1015 NOSIG=
202601062200 METAR VABB 062200Z 08004KT 2200 HZ NSC 24/18 Q1015 NOSIG=
202601062230 METAR VABB 062230Z 00000KT 2200 HZ NSC 23/18 Q1015 NOSIG=
202601062300 METAR VABB 062300Z 00000KT 2200 HZ NSC 24/18 Q1015 NOSIG=
202601062330 METAR VABB 062330Z 11007KT 2200 HZ NSC 24/18 Q1015 NOSIG=
202601070000 METAR VABB 070000Z 10006KT 2200 HZ NSC 23/18 Q1015 NOSIG=
202601070030 METAR VABB 070030Z 13003KT 2200 HZ NSC 23/18 Q1015 NOSIG=
202601070100 METAR VABB 070100Z 00000KT 2200 HZ NSC 23/18 Q1016 NOSIG=
202601070130 METAR VABB 070130Z 00000KT 1800 HZ NSC 23/18 Q1016 NOSIG=
202601070200 METAR VABB 070200Z 00000KT 1500 HZ NSC 23/18 Q1016 NOSIG=
202601070230 METAR VABB 070230Z 00000KT 1200 R27/P2000 HZ NSC 23/18 Q1017 NOSIG=
202601070300 METAR VABB 070300Z 08003KT 1200 R27/P2000 HZ NSC 24/18 Q1017 NOSIG=
202601070330 METAR VABB 070330Z 09003KT 1500 R27/P2000 HZ NSC 25/17 Q1017 NOSIG=
202601070400 METAR VABB 070400Z 11007KT 1500 R27/P2000 FU NSC 26/15 Q1018 NOSIG=
202601070430 METAR VABB 070430Z 11006KT 1800 FU NSC 27/15 Q1018 NOSIG=
202601070500 METAR VABB 070500Z 11006KT 1800 FU NSC 28/14 Q1018 NOSIG=
202601070530 METAR VABB 070530Z 14005KT 2100 FU NSC 29/14 Q1018 NOSIG=
202601070600 METAR VABB 070600Z 15006KT 2500 FU NSC 29/13 Q1017 NOSIG=
202601070630 METAR VABB 070630Z 12007KT 2500 FU NSC 30/12 Q1017 BECMG 3000 FU=
202601070700 METAR VABB 070700Z 11007KT 3000 FU NSC 30/12 Q1016 NOSIG=
202601070730 METAR VABB 070730Z 13006KT 3000 FU NSC 31/10 Q1016 NOSIG=
202601070800 METAR VABB 070800Z 10007KT 3000 FU NSC 31/11 Q1015 NOSIG=
202601070830 METAR VABB 070830Z 09003KT 2200 FU NSC 31/09 Q1014 NOSIG=
202601070900 METAR VABB 070900Z 26010KT 2200 FU NSC 31/15 Q1014 NOSIG=
202601070930 METAR VABB 070930Z 28009KT 2200 FU NSC 30/14 Q1014 NOSIG=
202601071000 METAR VABB 071000Z 30009KT 2200 FU NSC 30/15 Q1014 NOSIG=
202601071030 METAR VABB 071030Z 30008KT 2200 FU NSC 30/13 Q1014 NOSIG=
202601071100 METAR VABB 071100Z 29008KT 2200 FU NSC 30/12 Q1013 NOSIG=
202601071130 METAR VABB 071130Z 29009KT 2200 FU NSC 29/14 Q1013 NOSIG=
202601071200 METAR VABB 071200Z 32007KT 2200 FU NSC 28/15 Q1014 NOSIG=
202601071230 METAR VABB 071230Z 31009KT 2200 FU NSC 28/15 Q1014 NOSIG=
202601071300 METAR VABB 071300Z 32006KT 2200 FU NSC 27/17 Q1014 NOSIG=
202601071330 METAR VABB 071330Z 33005KT 2200 FU NSC 27/18 Q1014 NOSIG=
202601071400 METAR VABB 071400Z 34005KT 2200 FU NSC 27/17 Q1015 NOSIG=
202601071430 METAR VABB 071430Z 33005KT 2200 FU NSC 27/16 Q1015 NOSIG=
202601071500 METAR VABB 071500Z 34003KT 2200 FU NSC 27/15 Q1015 NOSIG=
202601071530 METAR VABB 071530Z 05005KT 2200 FU NSC 26/16 Q1016 NOSIG=
202601071600 METAR VABB 071600Z 06004KT 2200 FU NSC 26/14 Q1016 NOSIG=
202601071630 METAR VABB 071630Z 14005KT 2200 FU NSC 26/14 Q1016 NOSIG=
202601071700 METAR VABB 071700Z 10005KT 2200 FU NSC 25/15 Q1016 NOSIG=
202601071730 METAR VABB 071730Z 10004KT 2200 FU NSC 26/15 Q1016 NOSIG=
202601071800 METAR VABB 071800Z 10005KT 2200 FU NSC 25/16 Q1016 NOSIG=
202601071830 METAR VABB 071830Z 00000KT 2200 FU NSC 25/16 Q1016 NOSIG=
202601071900 METAR VABB 071900Z 35003KT 2200 FU NSC 25/16 Q1016 NOSIG=
202601071930 METAR VABB 071930Z 00000KT 2200 FU NSC 24/16 Q1015 NOSIG=
202601072000 METAR VABB 072000Z 10003KT 2200 FU NSC 25/15 Q1015 NOSIG=
202601072030 METAR VABB 072030Z 15005KT 2200 FU NSC 25/16 Q1015 NOSIG=
202601072100 METAR VABB 072100Z 17005KT 2200 FU NSC 24/16 Q1015 NOSIG=
202601072130 METAR VABB 072130Z 00000KT 2200 HZ NSC 24/16 Q1015 NOSIG=
202601072200 METAR VABB 072200Z 00000KT 2500 HZ NSC 23/16 Q1015 NOSIG=
202601072230 METAR VABB 072230Z 00000KT 2500 HZ NSC 21/16 Q1015 NOSIG=
202601072300 METAR VABB 072300Z 00000KT 2500 HZ NSC 23/16 Q1015 NOSIG=
202601072330 METAR VABB 072330Z 00000KT 2500 HZ NSC 22/16 Q1015 NOSIG=
202601080000 METAR VABB 080000Z 00000KT 2500 HZ NSC 22/16 Q1015 NOSIG=
202601080030 METAR VABB 080030Z 00000KT 2500 HZ NSC 23/15 Q1015 NOSIG=
202601080100 METAR VABB 080100Z 22003KT 2500 HZ NSC 23/14 Q1016 NOSIG=
202601080130 METAR VABB 080130Z 19003KT 2100 FU NSC 23/13 Q1016 TEMPO 1500 FU=
202601080200 METAR VABB 080200Z 15006KT 2100 FU NSC 23/12 Q1016 NOSIG=
202601080230 METAR VABB 080230Z 13003KT 2100 FU NSC 23/12 Q1017 NOSIG=
202601080300 METAR VABB 080300Z 10005KT 2100 FU NSC 24/12 Q1017 NOSIG=
202601080330 METAR VABB 080330Z 11004KT 2100 FU NSC 25/12 Q1017 NOSIG=
202601080400 METAR VABB 080400Z 09006KT 2100 FU NSC 26/10 Q1018 NOSIG=
202601080430 METAR VABB 080430Z 12007KT 2500 FU NSC 27/10 Q1018 NOSIG=
202601080500 METAR VABB 080500Z 12008KT 2500 FU NSC 28/09 Q1018 BECMG 3000 FU=
202601080530 METAR VABB 080530Z 11008KT 2500 FU NSC 29/10 Q1018 NOSIG=
202601080600 METAR VABB 080600Z 12007KT 3000 FU NSC 29/10 Q1018 NOSIG=
202601080630 METAR VABB 080630Z 15005KT 3000 FU NSC 30/09 Q1017 NOSIG=
202601080700 METAR VABB 080700Z 12005KT 3000 FU NSC 30/08 Q1017 NOSIG=
202601080730 METAR VABB 080730Z 10006KT 3500 FU NSC 31/08 Q1016 NOSIG=
202601080800 METAR VABB 080800Z 10003KT 3500 FU NSC 31/07 Q1016 NOSIG=
202601080830 METAR VABB 080830Z 32003KT 3500 FU NSC 31/07 Q1015 NOSIG=
202601080900 METAR VABB 080900Z 25008KT 3500 FU NSC 31/09 Q1015 NOSIG=
202601080930 METAR VABB 080930Z 27009KT 3500 FU NSC 30/08 Q1014 NOSIG=
202601081000 METAR VABB 081000Z 27009KT 3500 FU NSC 30/09 Q1014 NOSIG=
202601081030 METAR VABB 081030Z 29009KT 3500 FU NSC 30/10 Q1014 NOSIG=
202601081100 METAR VABB 081100Z 28009KT 3500 FU NSC 29/12 Q1014 NOSIG=
202601081130 METAR VABB 081130Z 29009KT 3500 FU NSC 28/12 Q1014 NOSIG=
202601081200 METAR VABB 081200Z 29008KT 3500 FU NSC 28/12 Q1014 NOSIG=
202601081230 METAR VABB 081230Z 33008KT 3500 FU NSC 28/13 Q1014 BECMG 3000 FU=
202601081300 METAR VABB 081300Z 33006KT 3000 FU NSC 27/14 Q1015 NOSIG=
202601081330 METAR VABB 081330Z 32005KT 3000 FU NSC 27/14 Q1015 NOSIG=
202601081400 METAR VABB 081400Z 31005KT 3000 FU NSC 27/14 Q1015 NOSIG=
202601081430 METAR VABB 081430Z 34004KT 3000 FU NSC 27/14 Q1016 NOSIG=
202601081500 METAR VABB 081500Z 36005KT 3000 FU NSC 26/15 Q1016 NOSIG=
202601081530 METAR VABB 081530Z 36003KT 3000 FU NSC 26/15 Q1016 NOSIG=
202601081600 METAR VABB 081600Z 03005KT 3000 FU NSC 25/15 Q1017 NOSIG=
202601081630 METAR VABB 081630Z 10004KT 3000 FU NSC 25/14 Q1017 NOSIG=
202601081700 METAR VABB 081700Z 12003KT 3000 FU NSC 25/14 Q1017 NOSIG=
202601081730 METAR VABB 081730Z 00000KT 3000 FU NSC 25/14 Q1016 NOSIG=
202601081800 METAR VABB 081800Z 19003KT 3000 FU NSC 25/13 Q1016 NOSIG=
202601081830 METAR VABB 081830Z 21003KT 3000 FU NSC 25/14 Q1016 NOSIG=
202601081900 METAR VABB 081900Z 20004KT 3000 FU NSC 24/14 Q1016 NOSIG=
202601081930 METAR VABB 081930Z 17003KT 3000 FU NSC 24/14 Q1016 NOSIG=
202601082000 METAR VABB 082000Z 00000KT 3000 FU NSC 24/13 Q1016 NOSIG=
202601082030 METAR VABB 082030Z 14003KT 3000 FU NSC 24/13 Q1015 NOSIG=
202601082100 METAR VABB 082100Z 15005KT 3000 FU NSC 24/12 Q1015 NOSIG=
202601082130 METAR VABB 082130Z 09004KT 3000 FU NSC 23/12 Q1015 NOSIG=
202601082200 METAR VABB 082200Z 09003KT 3000 FU NSC 22/12 Q1014 NOSIG=
202601082230 METAR VABB 082230Z 13003KT 3000 FU NSC 22/13 Q1014 NOSIG=
202601082300 METAR VABB 082300Z 04005KT 3000 FU NSC 23/12 Q1014 NOSIG=
202601082330 METAR VABB 082330Z 05004KT 3000 FU NSC 22/12 Q1014 NOSIG=
202601090000 METAR VABB 090000Z 09005KT 3000 FU NSC 23/11 Q1015 NOSIG=
202601090030 METAR VABB 090030Z 00000KT 3000 FU NSC 22/12 Q1015 NOSIG=
202601090100 METAR VABB 090100Z 09006KT 2500 FU NSC 22/12 Q1015 NOSIG=
202601090130 METAR VABB 090130Z 11003KT 2100 FU NSC 22/12 Q1016 NOSIG=
202601090200 METAR VABB 090200Z 11004KT 2100 FU FEW100 22/12 Q1016 NOSIG=
202601090230 METAR VABB 090230Z 00000KT 2100 FU FEW100 22/11 Q1016 NOSIG=
202601090300 METAR VABB 090300Z 00000KT 2100 FU NSC 23/12 Q1017 NOSIG=
202601090330 METAR VABB 090330Z 12003KT 2100 FU NSC 25/10 Q1017 NOSIG=
202601090400 METAR VABB 090400Z 09004KT 2500 FU NSC 25/10 Q1017 NOSIG=
202601090430 METAR VABB 090430Z 03005KT 2500 FU NSC 26/10 Q1018 NOSIG=
202601090500 METAR VABB 090500Z 10007KT 2500 FU NSC 27/09 Q1018 NOSIG=
202601090530 METAR VABB 090530Z 10006KT 2500 FU NSC 28/08 Q1017 NOSIG=
202601090600 METAR VABB 090600Z 07007KT 2500 FU NSC 28/10 Q1017 BECMG 3000 FU=
202601090630 METAR VABB 090630Z 11006KT 2500 FU NSC 29/10 Q1017 NOSIG=
202601090700 METAR VABB 090700Z 13007KT 3000 FU NSC 29/10 Q1016 NOSIG=
202601090730 METAR VABB 090730Z 12006KT 3000 FU NSC 30/10 Q1016 NOSIG=
202601090800 METAR VABB 090800Z 14006KT 3000 FU NSC 31/09 Q1015 NOSIG=
202601090830 METAR VABB 090830Z 11006KT 3000 FU NSC 31/07 Q1014 NOSIG=
202601090900 METAR VABB 090900Z 25008KT 3000 FU NSC 30/13 Q1014 NOSIG=
202601090930 METAR VABB 090930Z 27012KT 3000 FU NSC 29/14 Q1013 NOSIG=
202601091000 METAR VABB 091000Z 27012KT 3000 FU NSC 29/16 Q1013 NOSIG=
202601091030 METAR VABB 091030Z 27011KT 3000 FU NSC 29/17 Q1013 NOSIG=
202601091100 METAR VABB 091100Z 31009KT 3000 FU NSC 28/16 Q1013 NOSIG=
202601091130 METAR VABB 091130Z 30010KT 3000 FU NSC 28/15 Q1013 NOSIG=
202601091200 METAR VABB 091200Z 30008KT 2500 FU NSC 27/16 Q1013 NOSIG=
202601091230 METAR VABB 091230Z 31008KT 2500 FU NSC 27/15 Q1013 NOSIG=
202601091300 METAR VABB 091300Z 33006KT 2500 FU NSC 26/16 Q1014 NOSIG=
202601091330 METAR VABB 091330Z 02007KT 2200 FU NSC 26/17 Q1014 NOSIG=
202601091400 METAR VABB 091400Z 33005KT 2500 FU NSC 26/16 Q1014 NOSIG=
202601091430 METAR VABB 091430Z 36006KT 2500 FU NSC 26/16 Q1015 NOSIG=
202601091500 METAR VABB 091500Z 01005KT 2500 FU NSC 26/16 Q1015 NOSIG=
202601091530 METAR VABB 091530Z 01007KT 2500 FU NSC 26/17 Q1015 NOSIG=
202601091600 METAR VABB 091600Z 02005KT 2500 FU NSC 25/15 Q1016 NOSIG=
202601091630 METAR VABB 091630Z 00000KT 2500 FU NSC 25/15 Q1016 NOSIG=
202601091700 METAR VABB 091700Z 15005KT 2500 FU NSC 25/15 Q1016 NOSIG=
202601091730 METAR VABB 091730Z 22003KT 2500 FU NSC 25/15 Q1016 NOSIG=
202601091800 METAR VABB 091800Z 21004KT 2500 FU NSC 24/15 Q1016 NOSIG=
202601091830 METAR VABB 091830Z 00000KT 2500 FU NSC 24/14 Q1015 NOSIG=
202601091900 METAR COR VABB 091900Z 09004KT 2500 FU NSC 24/13 Q1015 NOSIG=
202601091930 METAR COR VABB 091930Z 00000KT 2500 FU NSC 24/13 Q1015 NOSIG=
202601092000 METAR VABB 092000Z 05004KT 2500 FU NSC 24/13 Q1015 NOSIG=
202601092030 METAR VABB 092030Z 06003KT 2500 FU NSC 24/13 Q1014 NOSIG=
202601092100 METAR VABB 092100Z 00000KT 2500 FU NSC 24/12 Q1014 NOSIG=
202601092130 METAR VABB 092130Z 05004KT 2500 FU NSC 24/13 Q1014 NOSIG=
202601092200 METAR VABB 092200Z 06003KT 2500 FU NSC 23/13 Q1014 NOSIG=
202601092230 METAR VABB 092230Z 00000KT 2500 FU NSC 21/13 Q1014 NOSIG=
202601092300 METAR VABB 092300Z 00000KT 2500 FU NSC 23/13 Q1014 NOSIG=
202601092330 METAR VABB 092330Z 08003KT 2500 FU NSC 23/12 Q1014 NOSIG=
202601100000 METAR VABB 100000Z 09003KT 2500 FU NSC 22/14 Q1014 NOSIG=
202601100030 METAR VABB 100030Z 21004KT 2500 FU NSC 22/13 Q1014 NOSIG=
202601100100 METAR VABB 100100Z 22003KT 2500 FU NSC 22/12 Q1014 NOSIG=
202601100130 METAR VABB 100130Z 00000KT 2100 FU NSC 23/11 Q1015 NOSIG=
202601100200 METAR VABB 100200Z 07003KT 2100 FU NSC 23/10 Q1015 NOSIG=
202601100230 METAR VABB 100230Z 07003KT 2100 FU NSC 23/10 Q1016 NOSIG=
202601100300 METAR VABB 100300Z 17003KT 2100 FU NSC 24/10 Q1016 NOSIG=
202601100330 METAR VABB 100330Z VRB03KT 2500 FU NSC 25/10 Q1017 NOSIG=
202601100400 METAR VABB 100400Z 10007KT 2500 FU NSC 26/10 Q1017 NOSIG=
202601100430 METAR VABB 100430Z 10008KT 2500 FU NSC 26/09 Q1017 NOSIG=
202601100500 METAR VABB 100500Z 11006KT 2500 FU NSC 27/09 Q1017 NOSIG=
202601100530 METAR VABB 100530Z 12005KT 2500 FU NSC 28/09 Q1017 NOSIG=
202601100600 METAR VABB 100600Z 09005KT 2500 FU NSC 28/09 Q1016 NOSIG=
202601100630 METAR VABB 100630Z 12005KT 2500 FU NSC 29/09 Q1016 BECMG 3000 FU=
202601100700 METAR COR VABB 100700Z 09005KT 3000 FU NSC 29/09 Q1015 NOSIG=
202601100730 METAR VABB 100730Z 13003KT 3000 FU NSC 30/08 Q1015 NOSIG=
202601100800 METAR VABB 100800Z 23003KT 3000 FU NSC 31/08 Q1014 NOSIG=
202601100830 METAR VABB 100830Z 29008KT 3000 FU NSC 31/13 Q1014 NOSIG=
202601100900 METAR VABB 100900Z 31010KT 3000 FU NSC 29/14 Q1013 NOSIG=
202601100930 METAR VABB 100930Z 30008KT 3500 FU NSC 29/14 Q1013 NOSIG=
202601101000 METAR VABB 101000Z 30009KT 3500 FU NSC 29/14 Q1013 NOSIG=
202601101030 METAR VABB 101030Z 33010KT 3500 FU NSC 28/14 Q1013 NOSIG=
202601101100 METAR VABB 101100Z 32009KT 3500 FU NSC 28/14 Q1013 NOSIG=
202601101130 METAR VABB 101130Z 31011KT 3500 FU NSC 27/16 Q1013 NOSIG=
202601101200 METAR VABB 101200Z 33008KT 3500 FU NSC 27/15 Q1013 NOSIG=
202601101230 METAR VABB 101230Z 34006KT 3000 FU NSC 27/15 Q1013 NOSIG=
202601101300 METAR VABB 101300Z 34006KT 3000 FU NSC 26/15 Q1014 NOSIG=
202601101330 METAR VABB 101330Z 35006KT 3000 FU NSC 26/16 Q1014 NOSIG=
202601101400 METAR VABB 101400Z 35005KT 3000 FU NSC 25/16 Q1015 NOSIG=
202601101430 METAR VABB 101430Z 36006KT 3000 FU NSC 25/16 Q1015 NOSIG=
202601101500 METAR VABB 101500Z 35007KT 3000 FU NSC 25/15 Q1015 NOSIG=
202601101530 METAR VABB 101530Z 03007KT 3000 FU NSC 25/15 Q1016 NOSIG=
202601101600 METAR VABB 101600Z 01007KT 3000 FU NSC 24/14 Q1016 NOSIG=
202601101630 METAR VABB 101630Z 36007KT 3000 FU NSC 24/14 Q1016 NOSIG=
202601101700 METAR VABB 101700Z 02004KT 3000 FU NSC 24/14 Q1016 NOSIG=
202601101730 METAR VABB 101730Z 01006KT 3000 FU NSC 24/14 Q1016 NOSIG=
202601101800 METAR VABB 101800Z 04003KT 3000 FU NSC 24/14 Q1016 NOSIG=
202601101830 METAR VABB 101830Z 00000KT 3000 FU NSC 24/13 Q1016 NOSIG=
202601101900 METAR VABB 101900Z 00000KT 3000 FU NSC 24/13 Q1015 NOSIG=
202601101930 METAR VABB 101930Z 12004KT 3000 FU NSC 24/13 Q1015 NOSIG=
202601102000 METAR VABB 102000Z 15005KT 3000 FU NSC 23/13 Q1015 NOSIG=
202601102030 METAR VABB 102030Z 09004KT 3000 FU NSC 23/13 Q1015 NOSIG=
202601102100 METAR VABB 102100Z 10005KT 3000 FU NSC 23/13 Q1015 NOSIG=
202601102130 METAR VABB 102130Z 06004KT 3000 FU NSC 23/13 Q1015 NOSIG=
202601102200 METAR VABB 102200Z 06005KT 3000 FU NSC 23/13 Q1014 NOSIG=
202601102230 METAR VABB 102230Z 05003KT 3000 FU NSC 22/13 Q1014 NOSIG=
202601102300 METAR VABB 102300Z 08003KT 3000 FU NSC 22/13 Q1014 NOSIG=
202601102330 METAR VABB 102330Z 00000KT 3000 FU NSC 22/13 Q1014 NOSIG=
202601110000 METAR VABB 110000Z 34003KT 3000 FU NSC 22/13 Q1015 NOSIG=
202601110030 METAR VABB 110030Z 00000KT 3000 FU NSC 22/13 Q1015 NOSIG=
202601110100 METAR VABB 110100Z VRB03KT 3000 FU NSC 22/13 Q1015 TEMPO 1500 FU=
202601110130 METAR VABB 110130Z VRB03KT 2100 FU NSC 22/13 Q1016 NOSIG=
202601110200 METAR VABB 110200Z 05003KT 1600 FU NSC 22/13 Q1016 NOSIG=
202601110230 METAR VABB 110230Z 05004KT 1600 FU NSC 22/12 Q1016 NOSIG=
202601110300 METAR VABB 110300Z 06006KT 1800 FU NSC 23/11 Q1017 NOSIG=
202601110330 METAR VABB 110330Z 11003KT 1800 FU NSC 24/13 Q1017 NOSIG=
202601110400 METAR VABB 110400Z 08004KT 2100 FU NSC 25/10 Q1017 NOSIG=
202601110430 METAR VABB 110430Z 06006KT 2100 FU NSC 26/10 Q1018 NOSIG=
202601110500 METAR VABB 110500Z 07006KT 2500 FU NSC 27/10 Q1018 NOSIG=
202601110530 METAR VABB 110530Z 10007KT 2500 FU NSC 28/09 Q1017 NOSIG=
202601110600 METAR VABB 110600Z 11007KT 2500 FU NSC 28/10 Q1017 NOSIG=
202601110630 METAR VABB 110630Z 10006KT 2500 FU NSC 29/10 Q1017 NOSIG=
202601110700 METAR VABB 110700Z 11007KT 2500 FU NSC 29/10 Q1016 BECMG 3000 FU=
202601110730 METAR VABB 110730Z 11006KT 3000 FU NSC 30/10 Q1015 NOSIG=
202601110800 METAR VABB 110800Z 11006KT 3000 FU NSC 31/08 Q1015 NOSIG=
202601110830 METAR VABB 110830Z 11004KT 3500 FU NSC 32/08 Q1014 NOSIG=
202601110900 METAR VABB 110900Z 27006KT 3500 FU NSC 31/13 Q1014 NOSIG=
202601110930 METAR VABB 110930Z 27011KT 3500 FU NSC 30/13 Q1013 NOSIG=
202601111000 METAR VABB 111000Z 26011KT 3000 FU NSC 30/16 Q1013 NOSIG=
202601111030 METAR VABB 111030Z 28008KT 2500 FU NSC 30/17 Q1013 NOSIG=
202601111100 METAR VABB 111100Z 29008KT 2500 FU NSC 30/16 Q1013 NOSIG=
202601111130 METAR VABB 111130Z 30008KT 2500 FU NSC 29/17 Q1013 NOSIG=
202601111200 METAR VABB 111200Z 31007KT 2500 FU NSC 28/17 Q1013 NOSIG=
202601111230 METAR VABB 111230Z 31006KT 2500 FU NSC 27/17 Q1014 NOSIG=
202601111300 METAR VABB 111300Z 33005KT 2500 FU NSC 27/17 Q1014 NOSIG=
202601111330 METAR VABB 111330Z 35006KT 2500 FU NSC 27/15 Q1014 NOSIG=
202601111400 METAR VABB 111400Z 36007KT 2500 FU NSC 27/15 Q1015 NOSIG=
202601111430 METAR VABB 111430Z 36006KT 2500 FU NSC 26/16 Q1015 NOSIG=
202601111500 METAR VABB 111500Z 35005KT 2500 FU NSC 26/16 Q1015 NOSIG=
202601111530 METAR VABB 111530Z 00000KT 2500 FU NSC 26/16 Q1016 NOSIG=
202601111600 METAR VABB 111600Z 01004KT 2500 FU NSC 26/16 Q1016 NOSIG=
202601111630 METAR VABB 111630Z 09003KT 2500 FU NSC 25/15 Q1016 NOSIG=
202601111700 METAR VABB 111700Z 14004KT 2500 FU NSC 26/14 Q1016 NOSIG=
202601111730 METAR VABB 111730Z 00000KT 2500 FU NSC 25/15 Q1016 NOSIG=
202601111800 METAR VABB 111800Z 00000KT 2500 FU NSC 24/15 Q1016 NOSIG=
202601111830 METAR VABB 111830Z 00000KT 2500 FU NSC 25/14 Q1015 NOSIG=
202601111900 METAR VABB 111900Z 00000KT 2500 FU NSC 25/15 Q1015 NOSIG=
202601111930 METAR VABB 111930Z 12004KT 2500 FU NSC 26/13 Q1015 NOSIG=
202601112000 METAR VABB 112000Z 13003KT 2500 FU NSC 26/11 Q1015 NOSIG=
202601112030 METAR VABB 112030Z 07004KT 2500 FU NSC 25/11 Q1015 NOSIG=
202601112100 METAR VABB 112100Z 06005KT 2500 FU NSC 25/11 Q1014 NOSIG=
202601112130 METAR VABB 112130Z 12005KT 2500 FU NSC 25/10 Q1014 NOSIG=
202601112200 METAR VABB 112200Z 05003KT 2500 FU NSC 25/10 Q1014 NOSIG=
202601112230 METAR VABB 112230Z 13003KT 2500 FU NSC 23/11 Q1014 NOSIG=
202601112300 METAR VABB 112300Z 17005KT 2500 FU NSC 25/09 Q1014 NOSIG=
202601112330 METAR VABB 112330Z 12006KT 2500 FU NSC 24/09 Q1014 NOSIG=
202601120000 METAR VABB 120000Z 13004KT 2500 FU NSC 25/08 Q1014 NOSIG=
202601120030 METAR VABB 120030Z 13004KT 2500 FU NSC 24/09 Q1014 NOSIG=
202601120100 METAR VABB 120100Z 16003KT 2500 FU NSC 23/09 Q1015 NOSIG=
202601120130 METAR VABB 120130Z 05005KT 2100 FU NSC 24/09 Q1015 NOSIG=
202601120200 METAR VABB 120200Z 20004KT 2100 FU NSC 23/09 Q1015 NOSIG=
202601120230 METAR VABB 120230Z 14004KT 2100 FU NSC 24/09 Q1016 NOSIG=
202601120300 METAR VABB 120300Z 14004KT 2100 FU NSC 25/09 Q1016 NOSIG=
202601120330 METAR VABB 120330Z 12004KT 2500 FU NSC 26/09 Q1017 NOSIG=
202601120400 METAR VABB 120400Z 12006KT 2500 FU NSC 26/09 Q1017 NOSIG=
202601120430 METAR VABB 120430Z 13006KT 2500 FU NSC 27/09 Q1017 NOSIG=
202601120500 METAR VABB 120500Z 12007KT 2500 FU NSC 28/10 Q1017 NOSIG=
202601120530 METAR VABB 120530Z 12008KT 2500 FU NSC 29/09 Q1017 BECMG 3000 FU=
202601120600 METAR VABB 120600Z 11009KT 3000 FU NSC 30/10 Q1017 NOSIG=
202601120630 METAR VABB 120630Z 11008KT 3000 FU NSC 31/11 Q1016 NOSIG=
202601120700 METAR VABB 120700Z 14006KT 3000 FU NSC 31/12 Q1016 NOSIG=
202601120730 METAR VABB 120730Z 10004KT 3000 FU NSC 32/12 Q1015 NOSIG=
202601120800 METAR VABB 120800Z 18004KT 3500 FU NSC 32/12 Q1015 NOSIG=
202601120830 METAR VABB 120830Z 23008KT 3500 FU NSC 33/11 Q1014 NOSIG=
202601120900 METAR VABB 120900Z 24009KT 3500 FU FEW100 33/12 Q1014 NOSIG=
202601120930 METAR VABB 120930Z 25009KT 4000 FU FEW100 32/12 Q1014 NOSIG=
202601121000 METAR VABB 121000Z 27010KT 4000 FU FEW100 32/11 Q1014 NOSIG=
202601121030 METAR VABB 121030Z 28009KT 4000 FU FEW100 32/14 Q1014 NOSIG=
202601121100 METAR VABB 121100Z 28010KT 3500 FU FEW100 31/13 Q1014 NOSIG=
202601121130 METAR VABB 121130Z 30009KT 3500 FU SCT100 30/11 Q1014 NOSIG=
202601121200 METAR VABB 121200Z 29009KT 3500 FU SCT100 30/13 Q1014 NOSIG=
202601121230 METAR VABB 121230Z 29006KT 3500 FU SCT100 29/14 Q1014 NOSIG=
202601121300 METAR VABB 121300Z 31009KT 3500 FU SCT100 29/14 Q1014 BECMG 3000 FU=
202601121330 METAR VABB 121330Z 32005KT 3500 FU SCT100 28/14 Q1015 NOSIG=
202601121400 METAR VABB 121400Z 33006KT 3000 FU SCT100 28/15 Q1016 NOSIG=
202601121430 METAR VABB 121430Z 36007KT 3000 FU SCT100 28/15 Q1016 NOSIG=
202601121500 METAR VABB 121500Z 01007KT 3000 FU SCT100 28/14 Q1016 NOSIG=
202601121530 METAR VABB 121530Z 36003KT 3000 FU SCT100 28/13 Q1017 NOSIG=
202601121600 METAR VABB 121600Z 02005KT 3000 FU SCT100 27/13 Q1017 NOSIG=
202601121630 METAR VABB 121630Z 01005KT 3000 FU SCT100 27/13 Q1017 NOSIG=
202601121700 METAR VABB 121700Z 07004KT 3000 FU SCT100 28/11 Q1017 NOSIG=
202601121730 METAR VABB 121730Z 13004KT 3000 FU SCT100 27/12 Q1017 NOSIG=
202601121800 METAR VABB 121800Z 12005KT 3000 FU SCT100 27/12 Q1017 NOSIG=
202601121830 METAR VABB 121830Z 14005KT 3000 FU SCT100 27/12 Q1016 NOSIG=
202601121900 METAR VABB 121900Z 15005KT 3000 FU SCT100 27/11 Q1016 NOSIG=
202601121930 METAR VABB 121930Z 00000KT 3000 FU FEW100 26/12 Q1016 NOSIG=
202601122000 METAR VABB 122000Z 00000KT 3000 FU FEW100 27/13 Q1016 NOSIG=
202601122030 METAR VABB 122030Z 03003KT 3000 FU FEW100 26/13 Q1016 NOSIG=
202601122100 METAR VABB 122100Z 36004KT 3000 FU FEW100 26/11 Q1015 NOSIG=
202601122130 METAR VABB 122130Z 26004KT 3000 FU FEW100 26/12 Q1015 NOSIG=
202601122200 METAR VABB 122200Z 00000KT 3000 FU FEW100 26/11 Q1015 NOSIG=
202601122230 METAR VABB 122230Z 00000KT 3000 FU FEW100 23/14 Q1015 NOSIG=
202601122300 METAR VABB 122300Z 07003KT 3000 FU NSC 25/13 Q1015 NOSIG=
202601122330 METAR VABB 122330Z 12005KT 3000 FU NSC 26/13 Q1015 NOSIG=
202601130000 METAR VABB 130000Z 21003KT 3000 FU NSC 25/14 Q1015 NOSIG=
202601130030 METAR VABB 130030Z 06003KT 3000 FU NSC 25/14 Q1015 NOSIG=
202601130100 METAR VABB 130100Z 06005KT 3000 FU NSC 25/13 Q1015 NOSIG=
202601130130 METAR VABB 130130Z 11003KT 2500 FU FEW100 25/14 Q1015 NOSIG=
202601130200 METAR VABB 130200Z 19003KT 2500 FU FEW100 25/14 Q1016 NOSIG=
202601130230 METAR VABB 130230Z 00000KT 2500 FU FEW100 25/14 Q1016 NOSIG=
202601130300 METAR VABB 130300Z 00000KT 2500 FU FEW100 27/14 Q1017 NOSIG=
202601130330 METAR VABB 130330Z 00000KT 2500 FU FEW100 28/14 Q1017 NOSIG=
202601130400 METAR VABB 130400Z 12006KT 2500 FU FEW100 28/13 Q1017 NOSIG=
202601130430 METAR VABB 130430Z 09006KT 2500 FU NSC 29/14 Q1017 NOSIG=
202601130500 METAR VABB 130500Z 09004KT 2500 FU NSC 30/14 Q1017 NOSIG=
202601130530 METAR VABB 130530Z 11005KT 2500 FU NSC 30/14 Q1017 BECMG 3000 FU=
202601130600 METAR VABB 130600Z 14005KT 3000 FU NSC 30/14 Q1017 NOSIG=
202601130630 METAR VABB 130630Z 18003KT 3000 FU NSC 31/15 Q1017 NOSIG=
202601130700 METAR VABB 130700Z 15005KT 3000 FU NSC 32/16 Q1016 NOSIG=
202601130730 METAR VABB 130730Z 18008KT 3000 FU NSC 32/16 Q1016 NOSIG=
202601130800 METAR VABB 130800Z 21008KT 3500 FU NSC 33/16 Q1015 NOSIG=
202601130830 METAR VABB 130830Z 26007KT 3500 FU NSC 32/17 Q1015 NOSIG=
202601130900 METAR VABB 130900Z 26007KT 3500 FU NSC 32/17 Q1014 NOSIG=
202601130930 METAR VABB 130930Z 28009KT 3000 FU NSC 31/17 Q1014 NOSIG=
202601131000 METAR VABB 131000Z 27009KT 3000 FU NSC 32/18 Q1014 NOSIG=
202601131030 METAR VABB 131030Z 28009KT 3000 FU NSC 31/17 Q1014 NOSIG=
202601131100 METAR VABB 131100Z 25008KT 3000 FU NSC 31/16 Q1014 NOSIG=
202601131130 METAR VABB 131130Z 26007KT 3000 FU NSC 30/16 Q1014 NOSIG=
202601131200 METAR VABB 131200Z 26006KT 3000 FU NSC 30/16 Q1014 NOSIG=
202601131230 METAR VABB 131230Z 26006KT 3000 FU NSC 30/16 Q1014 NOSIG=
202601131300 METAR VABB 131300Z 30006KT 3000 FU NSC 30/16 Q1014 NOSIG=
202601131330 METAR VABB 131330Z 33007KT 3000 FU NSC 29/16 Q1014 NOSIG=
202601131400 METAR VABB 131400Z 33006KT 3000 FU NSC 29/16 Q1015 NOSIG=
202601131430 METAR VABB 131430Z 33005KT 3000 FU NSC 29/16 Q1015 NOSIG=
202601131500 METAR VABB 131500Z 34005KT 3000 FU NSC 28/16 Q1015 NOSIG=
202601131530 METAR VABB 131530Z 01005KT 3000 FU NSC 28/16 Q1015 NOSIG=
202601131600 METAR VABB 131600Z 01004KT 3000 FU NSC 28/15 Q1016 NOSIG=
202601131630 METAR VABB 131630Z 05003KT 3000 FU NSC 28/16 Q1016 NOSIG=
202601131700 METAR VABB 131700Z 13005KT 3000 FU NSC 28/15 Q1016 NOSIG=
202601131730 METAR VABB 131730Z 00000KT 3000 FU NSC 27/16 Q1016 NOSIG=
202601131800 METAR VABB 131800Z 00000KT 3000 FU NSC 28/16 Q1015 NOSIG=
202601131830 METAR VABB 131830Z 00000KT 3000 FU NSC 27/16 Q1015 NOSIG=
202601131900 METAR VABB 131900Z 00000KT 3000 FU NSC 27/17 Q1015 NOSIG=
202601131930 METAR VABB 131930Z 18004KT 3000 FU NSC 27/16 Q1015 NOSIG=
202601132000 METAR COR VABB 132000Z 17004KT 3000 FU NSC 27/16 Q1014 NOSIG=
202601132030 METAR COR VABB 132030Z 23003KT 2500 FU NSC 27/17 Q1014 NOSIG=
202601132100 METAR VABB 132100Z 24005KT 2500 FU NSC 27/17 Q1014 NOSIG=
202601132130 METAR VABB 132130Z 29003KT 2500 FU NSC 26/18 Q1014 NOSIG=
202601132200 METAR VABB 132200Z 27003KT 2500 FU NSC 26/19 Q1014 NOSIG=
202601132230 METAR VABB 132230Z 00000KT 2500 FU NSC 25/19 Q1014 NOSIG=
202601132300 METAR VABB 132300Z 00000KT 2500 HZ FEW100 25/18 Q1013 NOSIG=
202601132330 METAR VABB 132330Z 00000KT 2500 HZ FEW100 26/18 Q1014 NOSIG=
202601140000 METAR VABB 140000Z 10003KT 2500 HZ FEW100 25/18 Q1014 NOSIG=
202601140030 METAR VABB 140030Z 16004KT 2500 HZ FEW100 25/18 Q1014 NOSIG=
202601140100 METAR VABB 140100Z 00000KT 2500 HZ FEW100 25/17 Q1014 NOSIG=
202601140130 METAR VABB 140130Z 00000KT 2100 HZ SCT100 25/18 Q1015 NOSIG=
202601140200 METAR VABB 140200Z 00000KT 2100 HZ SCT100 25/18 Q1015 NOSIG=
202601140230 METAR VABB 140230Z 00000KT 2100 HZ FEW100 25/17 Q1016 NOSIG=
202601140300 METAR VABB 140300Z 03004KT 1800 HZ FEW100 25/17 Q1016 NOSIG=
202601140330 METAR VABB 140330Z 02004KT 1800 FU NSC 26/16 Q1016 NOSIG=
202601140400 METAR VABB 140400Z 01003KT 2100 FU NSC 27/16 Q1017 NOSIG=
202601140430 METAR VABB 140430Z 10003KT 2500 FU FEW100 28/16 Q1017 NOSIG=
202601140500 METAR VABB 140500Z 06005KT 2500 FU FEW100 29/16 Q1017 NOSIG=
202601140530 METAR VABB 140530Z 34004KT 2500 FU NSC 30/16 Q1016 NOSIG=
202601140600 METAR VABB 140600Z 02003KT 2500 FU NSC 31/17 Q1016 NOSIG=
202601140630 METAR VABB 140630Z 34006KT 2500 FU NSC 31/15 Q1015 BECMG 3000 FU=
202601140700 METAR VABB 140700Z 34004KT 3000 FU NSC 32/16 Q1015 NOSIG=
202601140730 METAR VABB 140730Z 03005KT 3000 FU NSC 32/16 Q1014 NOSIG=
202601140800 METAR VABB 140800Z 35007KT 3000 FU NSC 32/16 Q1013 NOSIG=
202601140830 METAR VABB 140830Z 31011KT 3000 FU NSC 31/18 Q1013 NOSIG=
202601140900 METAR VABB 140900Z 31013KT 2500 FU NSC 31/17 Q1013 NOSIG=
202601140930 METAR VABB 140930Z 34012KT 2500 FU NSC 31/15 Q1012 NOSIG=
202601141000 METAR VABB 141000Z 32012KT 2500 FU NSC 31/14 Q1012 NOSIG=
202601141030 METAR VABB 141030Z 33011KT 2500 FU NSC 31/13 Q1012 BECMG 3000 FU=
202601141100 METAR VABB 141100Z 34010KT 3000 FU NSC 31/13 Q1012 NOSIG=
202601141130 METAR VABB 141130Z 33011KT 3000 FU NSC 30/12 Q1012 NOSIG=
202601141200 METAR VABB 141200Z 33007KT 3000 FU NSC 30/13 Q1012 NOSIG=
202601141230 METAR VABB 141230Z 32007KT 3000 FU NSC 29/13 Q1013 NOSIG=
202601141300 METAR VABB 141300Z 33009KT 3000 FU NSC 29/13 Q1013 NOSIG=
202601141330 METAR VABB 141330Z 33009KT 3000 FU NSC 28/13 Q1013 NOSIG=
202601141400 METAR VABB 141400Z 33008KT 3000 FU NSC 28/13 Q1014 NOSIG=
202601141430 METAR VABB 141430Z 01005KT 3000 FU NSC 27/15 Q1014 NOSIG=
202601141500 METAR VABB 141500Z 34006KT 3000 FU NSC 27/16 Q1014 NOSIG=
202601141530 METAR VABB 141530Z 34005KT 3000 FU NSC 27/16 Q1015 NOSIG=
202601141600 METAR VABB 141600Z 34006KT 3000 FU NSC 26/17 Q1015 NOSIG=
202601141630 METAR VABB 141630Z 32004KT 3000 FU NSC 25/17 Q1015 NOSIG=
202601141700 METAR COR VABB 141700Z 34005KT 3000 FU NSC 26/16 Q1015 NOSIG=
202601010000 METAR VABB NIL=
202601141730 METAR VABB 141730Z 35004KT 3000 FU NSC 25/16 Q1015 NOSIG=
202601141800 METAR VABB 141800Z 01004KT 3000 FU NSC 25/16 Q1015 NOSIG=
202601141830 METAR VABB 141830Z 36008KT 3000 FU NSC 25/14 Q1015 NOSIG=
202601141900 METAR VABB 141900Z 03004KT 3000 FU NSC 25/13 Q1015 NOSIG=
202601141930 METAR VABB 141930Z 02003KT 3000 FU NSC 24/13 Q1014 NOSIG=
202601142000 METAR VABB 142000Z 00000KT 3000 FU NSC 24/14 Q1014 NOSIG=
202601010000 METAR VABB NIL=
202601142030 METAR VABB 142030Z 21003KT 3000 FU NSC 24/14 Q1014 NOSIG=
202601142100 METAR VABB 142100Z 00000KT 3000 FU NSC 24/13 Q1013 NOSIG=
202601142130 METAR VABB 142130Z 01004KT 3000 FU NSC 23/13 Q1013 NOSIG=
202601142200 METAR VABB 142200Z 00000KT 3000 FU NSC 23/14 Q1013 NOSIG=
202601142230 METAR VABB 142230Z 00000KT 3000 HZ NSC 22/15 Q1013 NOSIG=
202601142300 METAR VABB 142300Z 00000KT 3000 HZ NSC 22/15 Q1013 NOSIG=
202601142330 METAR VABB 142330Z 15003KT 3000 HZ NSC 22/14 Q1013 NOSIG=
202601150000 METAR VABB 150000Z 14004KT 3000 HZ NSC 22/13 Q1013 NOSIG=
202601150030 METAR VABB 150030Z 15004KT 3000 HZ NSC 22/13 Q1013 NOSIG=
202601150100 METAR VABB 150100Z 10004KT 3000 HZ NSC 22/13 Q1013 NOSIG=
202601150130 METAR VABB 150130Z 11003KT 2100 HZ NSC 22/13 Q1014 NOSIG=
202601150200 METAR VABB 150200Z 02003KT 2100 HZ NSC 22/14 Q1014 NOSIG=
202601150230 METAR VABB 150230Z 00000KT 2100 FU NSC 22/14 Q1015 NOSIG=
202601150300 METAR VABB 150300Z 00000KT 2100 FU NSC 23/14 Q1015 NOSIG=
202601150330 METAR VABB 150330Z 17003KT 2100 FU NSC 24/14 Q1015 NOSIG=
202601150400 METAR VABB 150400Z 04004KT 2100 FU NSC 25/13 Q1016 NOSIG=
202601150430 METAR VABB 150430Z 06004KT 2100 FU NSC 26/13 Q1016 NOSIG=
202601150500 METAR VABB 150500Z 03005KT 2500 FU NSC 27/13 Q1016 NOSIG=
202601150530 METAR VABB 150530Z 01003KT 2500 FU NSC 28/13 Q1016 NOSIG=
202601150600 METAR VABB 150600Z 36005KT 2500 FU NSC 29/13 Q1015 BECMG 3000 FU=
202601150630 METAR VABB 150630Z 01003KT 3000 FU NSC 30/12 Q1015 NOSIG=
202601150700 METAR VABB 150700Z 27009KT 3000 FU NSC 30/16 Q1014 NOSIG=
202601150730 METAR VABB 150730Z 26011KT 3000 FU NSC 30/17 Q1014 NOSIG=
202601150800 METAR VABB 150800Z 27008KT 3000 FU NSC 30/17 Q1013 NOSIG=
202601150830 METAR VABB 150830Z 28008KT 3000 FU NSC 31/16 Q1012 NOSIG=
202601150900 METAR VABB 150900Z 26010KT 3000 FU NSC 30/17 Q1012 NOSIG=
202601150930 METAR VABB 150930Z 30009KT 4000 FU NSC 30/15 Q1012 NOSIG=
202601151000 METAR VABB 151000Z 31008KT 3500 FU NSC 30/16 Q1011 BECMG 3000 FU=
202601151030 METAR VABB 151030Z 28007KT 3000 FU NSC 30/16 Q1011 NOSIG=
202601151100 METAR VABB 151100Z 31008KT 3000 FU NSC 29/15 Q1011 NOSIG=
202601151130 METAR VABB 151130Z 29007KT 3000 FU NSC 29/16 Q1011 NOSIG=
202601151200 METAR VABB 151200Z 29007KT 3000 FU NSC 28/15 Q1011 NOSIG=
202601151230 METAR VABB 151230Z 29007KT 3000 FU NSC 27/15 Q1012 NOSIG=
202601151300 METAR VABB 151300Z 29006KT 3000 FU NSC 26/15 Q1012 NOSIG=
202601151330 METAR VABB 151330Z 30006KT 3000 FU NSC 26/15 Q1012 NOSIG=
202601151400 METAR VABB 151400Z 31004KT 3000 FU NSC 25/15 Q1012 NOSIG=
202601151430 METAR VABB 151430Z 30003KT 3000 FU NSC 25/15 Q1013 NOSIG=
202601151500 METAR VABB 151500Z 28003KT 3000 FU NSC 25/14 Q1013 NOSIG=
202601151530 METAR VABB 151530Z 29003KT 3000 FU NSC 25/15 Q1013 NOSIG=
202601151600 METAR VABB 151600Z 00000KT 3000 FU NSC 25/15 Q1014 NOSIG=
202601151630 METAR VABB 151630Z 00000KT 3000 FU NSC 25/15 Q1014 NOSIG=
202601151700 METAR VABB 151700Z 00000KT 3000 FU NSC 24/16 Q1014 NOSIG=
202601151730 METAR VABB 151730Z 00000KT 3000 FU NSC 24/15 Q1014 NOSIG=
202601151800 METAR VABB 151800Z 00000KT 3000 FU NSC 23/16 Q1014 NOSIG=
202601151830 METAR VABB 151830Z 00000KT 3000 FU NSC 23/17 Q1013 NOSIG=
202601151900 METAR VABB 151900Z 00000KT 3000 HZ NSC 23/17 Q1013 NOSIG=
202601151930 METAR VABB 151930Z 00000KT 3000 HZ NSC 23/16 Q1013 NOSIG=
202601152000 METAR VABB 152000Z 00000KT 3000 HZ NSC 23/16 Q1013 NOSIG=
202601152030 METAR VABB 152030Z 00000KT 3000 HZ NSC 22/17 Q1012 NOSIG=
202601152100 METAR VABB 152100Z 00000KT 3000 HZ NSC 22/17 Q1012 NOSIG=
202601152130 METAR VABB 152130Z 00000KT 3000 HZ NSC 22/16 Q1012 NOSIG=
202601152200 METAR VABB 152200Z 00000KT 3000 HZ NSC 21/17 Q1012 NOSIG=
202601152230 METAR VABB 152230Z 00000KT 3000 HZ NSC 21/17 Q1012 NOSIG=
202601152300 METAR VABB 152300Z 00000KT 3000 HZ NSC 21/17 Q1012 NOSIG=
202601152330 METAR VABB 152330Z 00000KT 3000 HZ NSC 21/16 Q1012 NOSIG=
202601160000 METAR VABB 160000Z 00000KT 3000 HZ NSC 21/16 Q1012 NOSIG=
202601160030 METAR VABB 160030Z 00000KT 3000 HZ NSC 21/16 Q1013 NOSIG=
202601160100 METAR VABB 160100Z 00000KT 3000 HZ NSC 22/16 Q1013 NOSIG=
202601160130 METAR VABB 160130Z 04003KT 2500 HZ NSC 22/16 Q1013 NOSIG=
202601160200 METAR VABB 160200Z 10003KT 1500 R27/P2000 HZ FEW100 21/17 Q1013 NOSIG=
202601160230 METAR VABB 160230Z 12005KT 1400 R27/P2000 HZ FEW100 22/17 Q1014 NOSIG=
202601160300 METAR VABB 160300Z 12007KT 1400 R27/P2000 HZ FEW100 23/17 Q1014 NOSIG=
202601160330 METAR VABB 160330Z 13008KT 1400 R27/P2000 FU FEW100 24/15 Q1014 NOSIG=
202601160400 METAR VABB 160400Z 13005KT 1400 R27/P2000 FU FEW100 26/15 Q1015 NOSIG=
202601160430 METAR VABB 160430Z 12005KT 1400 R27/P2000 FU FEW100 27/15 Q1015 NOSIG=
202601160500 METAR VABB 160500Z 00000KT 1500 FU FEW100 29/16 Q1015 NOSIG=
202601160530 METAR VABB 160530Z 18004KT 2100 FU NSC 30/15 Q1015 NOSIG=
202601160600 METAR VABB 160600Z 14004KT 1500 FU NSC 30/20 Q1014 NOSIG=
202601160630 METAR VABB 160630Z 35003KT 1200 R27/2000 FU NSC 31/16 Q1014 NOSIG=
202601160700 METAR VABB 160700Z 28009KT 1200 R27/2000 FU NSC 30/18 Q1014 NOSIG=
202601160730 METAR VABB 160730Z 27009KT 1200 R27/2000 FU NSC 30/18 Q1013 NOSIG=
202601160800 METAR VABB 160800Z 28010KT 1500 FU NSC 29/19 Q1013 NOSIG=
202601160830 METAR VABB 160830Z 27009KT 1800 FU NSC 29/19 Q1012 NOSIG=
202601160900 METAR VABB 160900Z 28008KT 2100 FU NSC 29/18 Q1012 NOSIG=
202601160930 METAR VABB 160930Z 27009KT 2100 FU NSC 29/19 Q1011 NOSIG=
202601161000 METAR VABB 161000Z 28009KT 2200 FU NSC 29/19 Q1011 NOSIG=
202601161030 METAR VABB 161030Z 26010KT 2200 FU NSC 29/19 Q1011 NOSIG=
202601161100 METAR VABB 161100Z 27008KT 2500 FU NSC 28/19 Q1011 NOSIG=
202601161130 METAR VABB 161130Z 29008KT 2500 FU NSC 28/19 Q1011 NOSIG=
202601161200 METAR VABB 161200Z 28009KT 2500 FU NSC 28/20 Q1011 NOSIG=
202601161230 METAR VABB 161230Z 30010KT 2100 HZ NSC 27/20 Q1011 NOSIG=
202601161300 METAR VABB 161300Z 29008KT 2100 HZ NSC 26/20 Q1012 NOSIG=
202601161330 METAR VABB 161330Z 30007KT 2100 HZ NSC 26/20 Q1012 NOSIG=
202601161400 METAR VABB 161400Z 32007KT 2100 HZ NSC 26/21 Q1012 NOSIG=
202601161430 METAR VABB 161430Z 33005KT 2100 HZ NSC 26/21 Q1013 NOSIG=
202601161500 METAR VABB 161500Z 32005KT 2100 HZ NSC 26/20 Q1013 NOSIG=
202601161530 METAR VABB 161530Z 32003KT 2100 HZ NSC 25/20 Q1013 NOSIG=
202601161600 METAR VABB 161600Z 01003KT 2100 HZ NSC 25/20 Q1014 NOSIG=
202601161630 METAR VABB 161630Z 02004KT 2100 HZ NSC 25/20 Q1014 NOSIG=
202601161700 METAR VABB 161700Z 03003KT 2100 HZ NSC 25/20 Q1014 NOSIG=
202601161730 METAR VABB 161730Z 06004KT 2100 HZ NSC 25/19 Q1014 NOSIG=
202601161800 METAR VABB 161800Z 00000KT 2200 HZ NSC 24/19 Q1013 NOSIG=
202601161830 METAR VABB 161830Z 05003KT 2200 HZ NSC 25/19 Q1013 NOSIG=
202601161900 METAR VABB 161900Z 00000KT 2200 HZ NSC 24/18 Q1013 NOSIG=
202601161930 METAR VABB 161930Z 20004KT 2200 HZ NSC 24/18 Q1013 NOSIG=
202601162000 METAR VABB 162000Z 00000KT 2200 HZ NSC 25/17 Q1013 NOSIG=
202601162030 METAR VABB 162030Z 21003KT 2200 HZ NSC 24/18 Q1012 NOSIG=
202601162100 METAR VABB 162100Z 20004KT 2200 HZ NSC 24/20 Q1012 NOSIG=
202601162130 METAR VABB 162130Z 19003KT 2100 HZ NSC 24/19 Q1012 NOSIG=
202601162200 METAR VABB 162200Z 36003KT 2100 HZ NSC 24/18 Q1012 NOSIG=
202601162230 METAR VABB 162230Z 32004KT 2100 BR NSC 23/20 Q1012 NOSIG=
202601162300 METAR VABB 162300Z 32004KT 2100 BR NSC 23/20 Q1012 NOSIG=
202601162330 METAR VABB 162330Z 32004KT 2100 BR NSC 23/20 Q1012 NOSIG=
202601170000 METAR VABB 170000Z 34004KT 2100 BR NSC 23/20 Q1012 NOSIG=
202601170030 METAR VABB 170030Z 03004KT 2100 BR NSC 23/20 Q1012 NOSIG=
202601170100 METAR VABB 170100Z 02003KT 2100 BR NSC 23/20 Q1012 NOSIG=
202601170130 METAR VABB 170130Z 03003KT 1800 BR NSC 23/20 Q1012 NOSIG=
202601170200 METAR VABB 170200Z 04003KT 1500 BR NSC 22/20 Q1013 NOSIG=
202601170230 METAR VABB 170230Z 01003KT 1200 R27/P2000 BR NSC 23/20 Q1014 NOSIG=
202601170300 METAR VABB 170300Z 01004KT 1200 R27/P2000 BR NSC 23/20 Q1014 NOSIG=
202601170330 METAR VABB 170330Z 02003KT 1200 R27/P2000 BR NSC 24/21 Q1014 NOSIG=
202601170400 METAR VABB 170400Z 01003KT 1400 R27/2000 HZ NSC 25/20 Q1015 NOSIG=
202601170430 METAR VABB 170430Z 00000KT 1600 HZ NSC 26/19 Q1015 NOSIG=
202601170500 METAR VABB 170500Z 34003KT 2100 HZ NSC 27/19 Q1015 NOSIG=
202601170530 METAR VABB 170530Z 27004KT 2100 FU NSC 28/18 Q1015 NOSIG=
202601170600 METAR VABB 170600Z 27006KT 2200 FU NSC 29/20 Q1015 NOSIG=
202601170630 METAR VABB 170630Z 26005KT 2200 FU NSC 29/19 Q1014 NOSIG=
202601170700 METAR VABB 170700Z 26007KT 2500 FU NSC 29/19 Q1014 NOSIG=
202601170730 METAR VABB 170730Z 28006KT 2500 FU NSC 30/19 Q1013 NOSIG=
202601170800 METAR VABB 170800Z 28007KT 2500 FU NSC 30/18 Q1012 NOSIG=
202601170830 METAR VABB 170830Z 27010KT 2500 FU NSC 30/19 Q1012 NOSIG=
202601170900 METAR VABB 170900Z 28011KT 2500 FU NSC 29/17 Q1012 BECMG 3000 FU=
202601170930 METAR VABB 170930Z 27008KT 3000 FU NSC 28/17 Q1011 NOSIG=
202601171000 METAR VABB 171000Z 28010KT 3500 FU NSC 28/16 Q1011 NOSIG=
202601171030 METAR VABB 171030Z 27010KT 4000 FU NSC 28/15 Q1011 NOSIG=
202601171100 METAR VABB 171100Z 28009KT 4000 FU NSC 28/14 Q1011 NOSIG=
202601171130 METAR VABB 171130Z 28009KT 4000 FU NSC 27/15 Q1011 NOSIG=
202601171200 METAR VABB 171200Z 29010KT 4000 FU NSC 27/17 Q1011 NOSIG=
202601171230 METAR VABB 171230Z 28008KT 4000 FU FEW100 26/18 Q1011 NOSIG=
202601171300 METAR VABB 171300Z 30009KT 3000 HZ FEW100 26/20 Q1011 NOSIG=
202601171330 METAR VABB 171330Z 31010KT 3000 HZ NSC 25/20 Q1011 NOSIG=
202601171400 METAR VABB 171400Z 31010KT 3000 BR NSC 25/21 Q1012 NOSIG=
202601171430 METAR VABB 171430Z 31008KT 3000 BR NSC 25/20 Q1012 NOSIG=
202601171500 METAR VABB 171500Z 32008KT 3000 HZ NSC 24/19 Q1012 NOSIG=
202601171530 METAR VABB 171530Z 32007KT 3000 HZ NSC 24/19 Q1012 NOSIG=
202601171600 METAR VABB 171600Z 31006KT 3000 HZ NSC 24/18 Q1012 NOSIG=
202601171630 METAR VABB 171630Z 30005KT 3000 HZ NSC 24/17 Q1012 NOSIG=
202601171700 METAR VABB 171700Z 31007KT 3000 HZ NSC 24/17 Q1012 NOSIG=
202601171730 METAR VABB 171730Z 30006KT 3000 HZ NSC 24/18 Q1012 NOSIG=
202601171800 METAR VABB 171800Z 31005KT 3000 HZ NSC 24/18 Q1012 NOSIG=
202601171830 METAR VABB 171830Z 34006KT 3000 HZ NSC 24/18 Q1012 NOSIG=
202601171900 METAR VABB 171900Z 03003KT 3000 HZ NSC 23/18 Q1012 NOSIG=
202601171930 METAR VABB 171930Z 04003KT 3000 HZ NSC 23/18 Q1012 NOSIG=
202601172000 METAR VABB 172000Z 00000KT 3000 HZ NSC 23/18 Q1012 NOSIG=
202601172030 METAR VABB 172030Z 04003KT 3000 HZ NSC 23/18 Q1011 NOSIG=
202601172100 METAR VABB 172100Z 07004KT 3000 HZ NSC 23/18 Q1011 NOSIG=
202601172130 METAR VABB 172130Z 05004KT 3000 HZ NSC 23/18 Q1011 NOSIG=
202601172200 METAR VABB 172200Z 06004KT 3000 HZ NSC 23/18 Q1010 NOSIG=
202601172230 METAR VABB 172230Z 09004KT 3000 HZ NSC 22/18 Q1010 NOSIG=
202601172300 METAR VABB 172300Z 10003KT 3000 HZ NSC 22/18 Q1010 NOSIG=
202601172330 METAR VABB 172330Z 15004KT 3000 HZ NSC 23/18 Q1010 NOSIG=
202601180000 METAR VABB 180000Z 00000KT 3000 HZ NSC 23/18 Q1010 NOSIG=
202601180030 METAR VABB 180030Z 04003KT 3000 HZ NSC 23/18 Q1011 NOSIG=
202601180100 METAR VABB 180100Z 06004KT 3000 HZ NSC 23/18 Q1011 NOSIG=
202601180130 METAR VABB 180130Z 03004KT 3000 HZ NSC 23/18 Q1011 TEMPO 1500 HZ=
202601180200 METAR VABB 180200Z 03004KT 3000 HZ NSC 23/17 Q1012 NOSIG=
202601180230 METAR VABB 180230Z 04004KT 2500 HZ NSC 23/18 Q1012 NOSIG=
202601180300 METAR VABB 180300Z 03005KT 2500 HZ FEW100 23/18 Q1013 NOSIG=
202601180330 METAR VABB 180330Z 06004KT 2500 HZ FEW100 24/18 Q1013 NOSIG=
202601180400 METAR VABB 180400Z 05005KT 2500 HZ FEW100 25/17 Q1014 NOSIG=
202601180430 METAR VABB 180430Z 14004KT 2500 HZ FEW020 25/17 Q1014 BECMG 3000 HZ=
202601180500 METAR VABB 180500Z 08004KT 3000 HZ FEW020 25/17 Q1014 NOSIG=
202601180530 METAR VABB 180530Z 11003KT 3000 HZ FEW020 26/18 Q1013 NOSIG=
202601180600 METAR VABB 180600Z 26005KT 3500 FU FEW020 27/17 Q1013 NOSIG=
202601180630 METAR VABB 180630Z 28012KT 3500 FU SCT020 26/17 Q1013 NOSIG=
202601180700 METAR VABB 180700Z 32010KT 4000 FU SCT020 27/17 Q1013 NOSIG=
202601180730 METAR VABB 180730Z 27008KT 4000 FU SCT020 27/17 Q1012 NOSIG=
202601180800 METAR VABB 180800Z 27011KT 4000 FU FEW020 27/17 Q1012 NOSIG=
202601180830 METAR VABB 180830Z 29009KT 4000 FU FEW020 27/17 Q1011 NOSIG=
202601180900 METAR VABB 180900Z 32009KT 4000 FU FEW020 27/16 Q1011 BECMG 5000 FU=
202601180930 METAR VABB 180930Z 29012KT 4000 FU FEW020 27/17 Q1011 NOSIG=
202601181000 METAR VABB 181000Z 36007KT 4000 FU FEW020 27/17 Q1010 NOSIG=
202601181030 METAR VABB 181030Z 30009KT 4000 FU FEW020 26/17 Q1010 NOSIG=
202601181100 METAR VABB 181100Z 30010KT 4000 FU FEW020 26/18 Q1010 NOSIG=
202601181130 METAR VABB 181130Z 30010KT 4000 FU FEW020 26/17 Q1010 NOSIG=
202601181200 METAR VABB 181200Z 32008KT 4000 FU FEW020 26/16 Q1011 NOSIG=
202601181230 METAR VABB 181230Z 31006KT 4000 FU NSC 25/16 Q1011 NOSIG=
202601181300 METAR VABB 181300Z 32008KT 3500 FU NSC 25/15 Q1011 BECMG 3000 FU=
202601181330 METAR VABB 181330Z 31008KT 3000 FU NSC 24/16 Q1011 NOSIG=
202601181400 METAR VABB 181400Z 33007KT 3000 FU NSC 24/16 Q1012 NOSIG=
202601181430 METAR VABB 181430Z 33007KT 3000 FU NSC 24/16 Q1012 NOSIG=
202601181500 METAR VABB 181500Z 34005KT 3000 FU NSC 24/16 Q1012 NOSIG=
202601181530 METAR VABB 181530Z 34005KT 3000 FU NSC 24/16 Q1013 NOSIG=
202601181600 METAR VABB 181600Z 36007KT 3000 HZ NSC 24/16 Q1013 NOSIG=
202601181630 METAR VABB 181630Z 36006KT 3000 HZ NSC 24/15 Q1013 NOSIG=
202601181700 METAR VABB 181700Z 36006KT 3000 FU NSC 24/15 Q1013 NOSIG=
202601181730 METAR VABB 181730Z 02004KT 3000 FU NSC 23/14 Q1013 NOSIG=
202601181800 METAR VABB 181800Z 00000KT 3000 FU NSC 23/14 Q1013 NOSIG=
202601181830 METAR VABB 181830Z 05003KT 3000 FU NSC 23/15 Q1013 NOSIG=
202601181900 METAR VABB 181900Z 04004KT 3000 FU NSC 23/14 Q1013 NOSIG=
202601181930 METAR VABB 181930Z 06004KT 3000 FU NSC 22/13 Q1013 NOSIG=
202601182000 METAR VABB 182000Z 00000KT 3000 FU NSC 22/13 Q1013 NOSIG=
202601182030 METAR VABB 182030Z 00000KT 3000 FU NSC 23/13 Q1012 NOSIG=
202601182100 METAR VABB 182100Z 00000KT 2500 FU NSC 21/13 Q1012 NOSIG=
202601182130 METAR VABB 182130Z 03004KT 2500 FU NSC 22/13 Q1012 NOSIG=
202601182200 METAR VABB 182200Z 02004KT 3000 FU NSC 22/13 Q1012 NOSIG=
202601182230 METAR VABB 182230Z 02003KT 3000 FU NSC 22/13 Q1012 NOSIG=
202601182300 METAR VABB 182300Z 03004KT 3000 HZ NSC 22/15 Q1012 NOSIG=
202601182330 METAR VABB 182330Z 03003KT 3000 HZ NSC 21/16 Q1012 NOSIG=
202601190000 METAR VABB 190000Z 07003KT 3000 HZ NSC 22/16 Q1013 NOSIG=
202601190030 METAR VABB 190030Z 10005KT 3000 HZ NSC 21/15 Q1013 NOSIG=
202601190100 METAR VABB 190100Z 11004KT 3000 HZ NSC 21/16 Q1013 NOSIG=
202601190130 METAR VABB 190130Z 11003KT 2500 HZ NSC 21/16 Q1013 NOSIG=
202601190200 METAR VABB 190200Z 10006KT 2500 HZ NSC 21/15 Q1014 NOSIG=
202601190230 METAR VABB 190230Z 00000KT 1800 HZ NSC 21/16 Q1014 NOSIG=
202601190300 METAR VABB 190300Z 08003KT 1800 HZ NSC 23/16 Q1014 NOSIG=
202601190330 METAR VABB 190330Z 12006KT 1800 HZ NSC 22/16 Q1015 NOSIG=
202601190400 METAR VABB 190400Z 12004KT 1800 HZ FEW020 24/16 Q1015 NOSIG=
202601190430 METAR VABB 190430Z 02004KT 2100 HZ FEW020 24/17 Q1015 NOSIG=
202601190500 METAR VABB 190500Z 04006KT 2500 HZ FEW020 26/15 Q1015 NOSIG=
202601190530 METAR VABB 190530Z 09005KT 2500 FU FEW020 27/15 Q1015 BECMG 3000 FU=
202601190600 METAR VABB 190600Z 09005KT 3000 FU FEW020 26/15 Q1015 NOSIG=
202601190630 METAR VABB 190630Z 11006KT 3500 FU FEW020 27/14 Q1014 NOSIG=
202601190700 METAR VABB 190700Z 02005KT 3500 FU FEW020 28/14 Q1014 NOSIG=
202601190730 METAR VABB 190730Z 27003KT 3500 FU FEW020 28/13 Q1013 NOSIG=
202601190800 METAR VABB 190800Z 28009KT 4000 FU FEW020 28/15 Q1013 NOSIG=
202601190830 METAR VABB 190830Z 29010KT 4000 FU FEW020 28/15 Q1012 NOSIG=
202601190900 METAR VABB 190900Z 28011KT 4000 FU NSC 27/16 Q1012 NOSIG=
202601190930 METAR VABB 190930Z 29013KT 4000 FU NSC 27/16 Q1011 NOSIG=
202601191000 METAR VABB 191000Z 28012KT 4000 FU NSC 27/16 Q1011 NOSIG=
202601191030 METAR VABB 191030Z 31013KT 4000 FU NSC 27/15 Q1011 NOSIG=
202601191100 METAR VABB 191100Z 30012KT 4000 FU NSC 26/15 Q1011 NOSIG=
202601191130 METAR VABB 191130Z 31013KT 4000 FU NSC 26/15 Q1011 NOSIG=
202601191200 METAR VABB 191200Z 33012KT 4000 FU NSC 25/14 Q1012 NOSIG=
202601191230 METAR VABB 191230Z 33012KT 4000 FU NSC 25/14 Q1012 BECMG 3000 FU=
202601191300 METAR VABB 191300Z 32011KT 3000 FU NSC 25/16 Q1012 NOSIG=
202601191330 METAR VABB 191330Z 33010KT 3000 FU NSC 24/16 Q1013 NOSIG=
202601191400 METAR VABB 191400Z 32008KT 3000 FU NSC 24/16 Q1013 NOSIG=
202601191430 METAR VABB 191430Z 35007KT 3000 FU NSC 24/15 Q1013 NOSIG=
202601191500 METAR VABB 191500Z 35008KT 3000 FU NSC 24/15 Q1013 NOSIG=
202601191530 METAR VABB 191530Z 36009KT 3000 FU NSC 24/15 Q1014 NOSIG=
202601191600 METAR VABB 191600Z 36008KT 3000 FU NSC 24/14 Q1014 NOSIG=
202601191630 METAR VABB 191630Z 01007KT 3000 FU NSC 23/14 Q1014 NOSIG=
202601191700 METAR VABB 191700Z 36004KT 3000 FU NSC 23/14 Q1014 NOSIG=
202601191730 METAR VABB 191730Z 04004KT 3000 FU NSC 23/14 Q1013 NOSIG=
202601191800 METAR VABB 191800Z 01004KT 3000 FU NSC 23/14 Q1013 NOSIG=
202601191830 METAR VABB 191830Z 04003KT 3000 FU NSC 23/14 Q1013 NOSIG=
202601191900 METAR VABB 191900Z 03004KT 3000 FU NSC 22/14 Q1013 NOSIG=
202601191930 METAR VABB 191930Z 02004KT 3000 FU NSC 22/13 Q1013 NOSIG=
202601192000 METAR VABB 192000Z 02005KT 3000 FU NSC 22/13 Q1012 NOSIG=
202601192030 METAR VABB 192030Z 03005KT 3000 FU NSC 22/13 Q1012 NOSIG=
202601192100 METAR VABB 192100Z 03004KT 3000 FU NSC 22/13 Q1012 NOSIG=
202601192130 METAR VABB 192130Z 02003KT 3000 FU NSC 22/14 Q1012 NOSIG=
202601192200 METAR VABB 192200Z 04005KT 3000 FU NSC 22/13 Q1012 NOSIG=
202601192230 METAR VABB 192230Z 03003KT 3000 FU NSC 22/13 Q1012 NOSIG=
202601192300 METAR VABB 192300Z 17003KT 3000 FU NSC 22/14 Q1012 NOSIG=
202601192330 METAR VABB 192330Z 18004KT 3000 FU NSC 21/14 Q1012 NOSIG=
202601200000 METAR VABB 200000Z 07003KT 3000 HZ NSC 21/14 Q1012 NOSIG=
202601200030 METAR VABB 200030Z 00000KT 3000 HZ NSC 21/14 Q1012 NOSIG=
202601200100 METAR VABB 200100Z 10004KT 3000 HZ NSC 21/14 Q1013 NOSIG=
202601200130 METAR VABB 200130Z 11004KT 2100 HZ NSC 21/14 Q1013 NOSIG=
202601200200 METAR VABB 200200Z 07004KT 2100 HZ NSC 21/14 Q1013 NOSIG=
202601200230 METAR VABB 200230Z 05005KT 2100 HZ NSC 21/14 Q1014 NOSIG=
202601200300 METAR VABB 200300Z 07003KT 2100 HZ NSC 22/14 Q1014 NOSIG=
202601200330 METAR VABB 200330Z 07004KT 2100 HZ NSC 23/13 Q1014 NOSIG=
202601200400 METAR VABB 200400Z 08004KT 2200 HZ NSC 24/14 Q1015 NOSIG=
202601200430 METAR VABB 200430Z 06005KT 2500 FU NSC 25/13 Q1015 NOSIG=
202601200500 METAR VABB 200500Z 02005KT 2500 FU NSC 25/14 Q1015 NOSIG=
202601200530 METAR VABB 200530Z 05005KT 2500 FU NSC 26/14 Q1014 NOSIG=
202601200600 METAR VABB 200600Z 05006KT 2500 FU NSC 27/13 Q1014 NOSIG=
202601200630 METAR VABB 200630Z 36004KT 2500 FU NSC 27/13 Q1014 BECMG 3000 FU=
202601200700 METAR VABB 200700Z 26009KT 3000 FU NSC 27/15 Q1013 NOSIG=
202601200730 METAR VABB 200730Z 28008KT 3000 FU NSC 28/16 Q1013 NOSIG=
202601200800 METAR VABB 200800Z 29008KT 3000 FU NSC 29/16 Q1012 NOSIG=
202601200830 METAR VABB 200830Z 27008KT 3000 FU NSC 29/16 Q1011 NOSIG=
202601200900 METAR VABB 200900Z 28008KT 3500 FU NSC 28/16 Q1011 NOSIG=
202601200930 METAR VABB 200930Z 30008KT 3500 FU NSC 28/16 Q1010 NOSIG=
202601201000 METAR VABB 201000Z 30008KT 4000 FU NSC 28/16 Q1010 NOSIG=
202601201030 METAR VABB 201030Z 32008KT 4000 FU NSC 28/15 Q1010 NOSIG=
202601201100 METAR VABB 201100Z 29009KT 4000 FU NSC 28/15 Q1010 NOSIG=
202601201130 METAR VABB 201130Z 30008KT 4000 FU NSC 27/16 Q1010 NOSIG=
202601201200 METAR VABB 201200Z 32009KT 4000 FU NSC 27/16 Q1010 NOSIG=
202601201230 METAR VABB 201230Z 34006KT 3500 FU NSC 26/16 Q1011 BECMG 3000 FU=
202601201300 METAR VABB 201300Z 35003KT 3000 FU NSC 26/16 Q1011 NOSIG=
202601201330 METAR VABB 201330Z 33004KT 3000 FU NSC 26/16 Q1011 NOSIG=
202601201400 METAR VABB 201400Z 34005KT 3000 FU NSC 26/16 Q1011 NOSIG=
202601201430 METAR VABB 201430Z 35005KT 3000 FU NSC 26/15 Q1012 NOSIG=
202601201500 METAR VABB 201500Z 32003KT 3000 FU NSC 25/17 Q1012 NOSIG=
202601201530 METAR VABB 201530Z 32004KT 2500 FU NSC 25/17 Q1013 NOSIG=
202601201600 METAR VABB 201600Z 35004KT 2500 FU NSC 25/17 Q1013 NOSIG=
202601201630 METAR VABB 201630Z 01005KT 2500 HZ NSC 24/17 Q1013 NOSIG=
202601201700 METAR VABB 201700Z 01003KT 2500 HZ NSC 24/17 Q1013 NOSIG=
202601201730 METAR VABB 201730Z 12005KT 2500 HZ NSC 25/16 Q1013 NOSIG=
202601201800 METAR VABB 201800Z 14004KT 2500 HZ NSC 25/16 Q1013 NOSIG=
202601201830 METAR VABB 201830Z 11004KT 2500 HZ NSC 25/16 Q1012 NOSIG=
202601201900 METAR VABB 201900Z 13004KT 2500 HZ NSC 25/16 Q1012 NOSIG=
202601201930 METAR VABB 201930Z 16004KT 2500 HZ NSC 24/16 Q1012 NOSIG=
202601202000 METAR VABB 202000Z 17003KT 2500 HZ NSC 24/16 Q1012 NOSIG=
202601202030 METAR VABB 202030Z 23004KT 2500 HZ NSC 24/17 Q1012 NOSIG=
202601202100 METAR VABB 202100Z 20003KT 2500 HZ NSC 23/17 Q1011 NOSIG=
202601202130 METAR VABB 202130Z 21003KT 2500 HZ NSC 24/17 Q1011 NOSIG=
202601202200 METAR VABB 202200Z 10005KT 2500 HZ NSC 23/16 Q1011 NOSIG=
202601202230 METAR VABB 202230Z 11005KT 2500 HZ NSC 22/17 Q1011 NOSIG=
202601202300 METAR VABB 202300Z 10006KT 2500 HZ NSC 23/16 Q1011 NOSIG=
202601202330 METAR VABB 202330Z 00000KT 2500 HZ NSC 23/17 Q1011 NOSIG=
202601210000 METAR VABB 210000Z 15004KT 2500 HZ NSC 23/17 Q1011 NOSIG=
202601210030 METAR VABB 210030Z 11005KT 2500 HZ NSC 23/17 Q1012 NOSIG=
202601210100 METAR VABB 210100Z 00000KT 2500 HZ NSC 23/17 Q1012 NOSIG=
202601210130 METAR VABB 210130Z 07005KT 2100 HZ NSC 23/17 Q1012 TEMPO 1500 BR=
202601210200 METAR VABB 210200Z 00000KT 1700 HZ NSC 23/17 Q1013 NOSIG=
202601210230 METAR VABB 210230Z 11003KT 1700 HZ NSC 23/17 Q1013 NOSIG=
202601210300 METAR VABB 210300Z 13003KT 1700 HZ NSC 24/17 Q1014 NOSIG=
202601210330 METAR VABB 210330Z 10003KT 1700 HZ NSC 24/17 Q1014 NOSIG=
202601210400 METAR VABB 210400Z 12003KT 1700 HZ NSC 25/17 Q1015 NOSIG=
202601210430 METAR VABB 210430Z 13005KT 1700 HZ NSC 26/16 Q1015 NOSIG=
202601210500 METAR VABB 210500Z 10006KT 2200 FU NSC 28/15 Q1015 NOSIG=
202601210530 METAR VABB 210530Z 11007KT 2200 FU NSC 29/15 Q1015 NOSIG=
202601210600 METAR VABB 210600Z 12007KT 2200 FU NSC 29/14 Q1015 NOSIG=
202601210629 METAR VABB 210629Z 11008KT 2500 FU NSC 30/15 Q1014 NOSIG=
202601210630 METAR VABB 210630Z 11008KT 2500 FU NSC 30/15 Q1014 NOSIG=
202601210700 METAR VABB 210700Z 14007KT 2500 FU NSC 31/12 Q1014 BECMG 3000 FU=
202601210730 METAR VABB 210730Z 15004KT 2500 FU NSC 31/13 Q1013 NOSIG=
202601210800 METAR VABB 210800Z 21010KT 2100 FU NSC 32/12 Q1013 NOSIG=
202601210830 METAR VABB 210830Z 20008KT 2100 FU NSC 32/11 Q1012 NOSIG=
202601210900 METAR VABB 210900Z 25010KT 2100 FU NSC 31/16 Q1012 NOSIG=
202601210930 METAR VABB 210930Z 26011KT 2200 FU NSC 31/14 Q1011 NOSIG=
202601211000 METAR VABB 211000Z 25010KT 2200 FU NSC 31/13 Q1011 NOSIG=
202601211030 METAR VABB 211030Z 25011KT 2200 FU NSC 30/14 Q1011 NOSIG=
202601211100 METAR VABB 211100Z 25010KT 2200 FU NSC 29/15 Q1011 NOSIG=
202601211130 METAR VABB 211130Z 25009KT 2200 FU NSC 29/16 Q1011 NOSIG=
202601211200 METAR VABB 211200Z 25007KT 2200 FU NSC 28/16 Q1012 NOSIG=
202601211230 METAR VABB 211230Z 26008KT 2500 FU NSC 28/16 Q1012 NOSIG=
202601211300 METAR VABB 211300Z 27005KT 2500 FU NSC 27/17 Q1012 NOSIG=
202601211330 METAR VABB 211330Z 27005KT 2500 FU NSC 27/17 Q1012 NOSIG=
202601211400 METAR VABB 211400Z 30003KT 2500 FU NSC 27/18 Q1013 NOSIG=
202601211430 METAR VABB 211430Z 20003KT 2500 FU NSC 27/17 Q1013 NOSIG=
202601211500 METAR VABB 211500Z 23003KT 2500 FU NSC 27/16 Q1013 NOSIG=
202601211530 METAR VABB 211530Z 22003KT 2500 FU NSC 27/17 Q1014 NOSIG=
202601211600 METAR VABB 211600Z 00000KT 2500 FU NSC 27/16 Q1014 NOSIG=
202601211630 METAR VABB 211630Z 00000KT 2500 FU NSC 27/17 Q1014 NOSIG=
202601211700 METAR VABB 211700Z 00000KT 2500 FU NSC 26/17 Q1014 NOSIG=
202601211730 METAR VABB 211730Z 00000KT 2500 HZ FEW100 26/18 Q1014 NOSIG=
202601211800 METAR VABB 211800Z 07004KT 2500 FU FEW100 26/17 Q1014 NOSIG=
202601211830 METAR VABB 211830Z 10005KT 2500 FU FEW100 25/17 Q1014 NOSIG=
202601211900 METAR VABB 211900Z 08003KT 2500 FU FEW100 25/17 Q1014 NOSIG=
202601211930 METAR VABB 211930Z 10003KT 2500 FU FEW100 25/16 Q1013 NOSIG=
202601212000 METAR VABB 212000Z 08003KT 2500 FU FEW100 25/16 Q1013 NOSIG=
202601212030 METAR VABB 212030Z 09003KT 2500 FU SCT100 25/16 Q1013 NOSIG=
202601212100 METAR VABB 212100Z 00000KT 2500 FU SCT100 24/15 Q1013 NOSIG=
202601212130 METAR VABB 212130Z 00000KT 2500 FU SCT100 25/15 Q1013 NOSIG=
202601212200 METAR VABB 212200Z 00000KT 2500 FU SCT100 24/15 Q1013 NOSIG=
202601212230 METAR VABB 212230Z 11003KT 2500 FU SCT100 23/15 Q1013 NOSIG=
202601212300 METAR VABB 212300Z 00000KT 2500 FU SCT100 24/14 Q1013 NOSIG=
202601212330 METAR VABB 212330Z 00000KT 2500 FU SCT100 25/14 Q1013 NOSIG=
202601220000 METAR VABB 220000Z 24004KT 2500 FU SCT100 24/14 Q1013 NOSIG=
202601220030 METAR VABB 220030Z 20004KT 2500 FU SCT100 23/15 Q1013 NOSIG=
202601220100 METAR VABB 220100Z 00000KT 2500 FU SCT100 23/15 Q1013 NOSIG=
202601220130 METAR VABB 220130Z 00000KT 2100 FU SCT100 24/15 Q1013 NOSIG=
202601220200 METAR VABB 220200Z 00000KT 2100 FU SCT100 23/15 Q1014 NOSIG=
202601220230 METAR VABB 220230Z 14005KT 2100 HZ SCT100 24/15 Q1014 NOSIG=
202601220300 METAR VABB 220300Z 11005KT 2100 HZ SCT100 25/14 Q1014 NOSIG=
202601220330 METAR VABB 220330Z 12006KT 2100 FU FEW100 26/14 Q1014 NOSIG=
202601220400 METAR VABB 220400Z 11006KT 2100 FU FEW100 26/13 Q1015 NOSIG=
202601220430 METAR VABB 220430Z 12006KT 2100 FU FEW100 27/13 Q1015 NOSIG=
202601220500 METAR VABB 220500Z 14004KT 2500 FU FEW100 28/13 Q1015 NOSIG=
202601220530 METAR VABB 220530Z 14005KT 2500 FU FEW100 28/13 Q1015 NOSIG=
202601220600 METAR VABB 220600Z 14006KT 2500 FU FEW100 30/13 Q1015 NOSIG=
202601220630 METAR VABB 220630Z 16004KT 2500 FU FEW100 30/13 Q1014 NOSIG=
202601220700 METAR VABB 220700Z 28007KT 2100 FU FEW100 29/18 Q1014 NOSIG=
202601220730 METAR VABB 220730Z 24006KT 2100 FU FEW100 30/18 Q1014 NOSIG=
202601220800 METAR VABB 220800Z 27008KT 2100 FU FEW100 30/18 Q1013 NOSIG=
202601220830 METAR VABB 220830Z 24011KT 2100 FU NSC 30/14 Q1013 NOSIG=
202601220900 METAR VABB 220900Z 24009KT 2500 FU NSC 30/13 Q1013 NOSIG=
202601220930 METAR VABB 220930Z 24008KT 2500 FU NSC 30/13 Q1012 NOSIG=
202601221000 METAR VABB 221000Z 21009KT 2500 FU NSC 29/14 Q1012 NOSIG=
202601221030 METAR VABB 221030Z 26010KT 2500 FU NSC 29/16 Q1012 NOSIG=
202601221100 METAR VABB 221100Z 25009KT 2500 FU NSC 29/17 Q1012 NOSIG=
202601221130 METAR VABB 221130Z 25008KT 2500 FU NSC 28/16 Q1012 NOSIG=
202601221200 METAR VABB 221200Z 24007KT 2500 FU NSC 28/16 Q1012 NOSIG=
202601221230 METAR VABB 221230Z 24007KT 2500 FU NSC 28/15 Q1012 NOSIG=
202601221300 METAR VABB 221300Z 26007KT 2500 FU NSC 27/18 Q1012 NOSIG=
202601221330 METAR COR VABB 221330Z 28006KT 2500 HZ NSC 26/20 Q1012 NOSIG=
202601221400 METAR VABB 221400Z 29007KT 2500 HZ NSC 26/21 Q1013 NOSIG=
202601221430 METAR VABB 221430Z 29006KT 2500 HZ NSC 26/21 Q1013 NOSIG=
202601221500 METAR VABB 221500Z 30006KT 2500 HZ NSC 26/21 Q1014 NOSIG=
202601221530 METAR VABB 221530Z 33005KT 2500 HZ NSC 26/21 Q1014 NOSIG=
202601221600 METAR VABB 221600Z 32004KT 2500 BR NSC 26/21 Q1014 NOSIG=
202601221630 METAR VABB 221630Z 32005KT 2500 BR NSC 26/21 Q1014 NOSIG=
202601221700 METAR VABB 221700Z 32004KT 2500 BR NSC 26/21 Q1015 NOSIG=
202601221730 METAR VABB 221730Z 32004KT 2500 BR NSC 26/21 Q1015 NOSIG=
202601221800 METAR VABB 221800Z 36004KT 2500 BR NSC 25/21 Q1015 NOSIG=
202601221830 METAR VABB 221830Z 01003KT 2500 BR NSC 25/21 Q1015 NOSIG=
202601221900 METAR VABB 221900Z 02003KT 2500 BR NSC 25/21 Q1015 NOSIG=
202601221930 METAR VABB 221930Z 01004KT 2500 BR NSC 25/21 Q1015 NOSIG=
202601222000 METAR VABB 222000Z 06004KT 2500 BR NSC 25/21 Q1015 NOSIG=
202601222030 METAR VABB 222030Z 11003KT 2500 BR NSC 25/21 Q1014 NOSIG=
202601222100 METAR VABB 222100Z 14005KT 2500 BR NSC 25/21 Q1014 NOSIG=
202601222130 METAR VABB 222130Z 10004KT 2500 BR NSC 25/21 Q1014 NOSIG=
202601222200 METAR VABB 222200Z 04003KT 2500 BR NSC 24/21 Q1014 NOSIG=
202601222230 METAR VABB 222230Z 00000KT 2500 BR NSC 24/20 Q1014 NOSIG=
202601222300 METAR VABB 222300Z 00000KT 2500 BR NSC 24/20 Q1014 NOSIG=
202601222330 METAR VABB 222330Z 07004KT 2500 BR NSC 24/21 Q1014 NOSIG=
202601230000 METAR VABB 230000Z 00000KT 2500 BR NSC 24/20 Q1014 NOSIG=
202601230030 METAR VABB 230030Z 08003KT 2500 BR NSC 24/20 Q1014 NOSIG=
202601230100 METAR VABB 230100Z 04003KT 2500 BR NSC 24/20 Q1014 NOSIG=
202601230130 METAR VABB 230130Z 04003KT 2100 BR NSC 24/20 Q1015 NOSIG=
202601230200 METAR VABB 230200Z 05003KT 1800 BR FEW100 24/20 Q1015 NOSIG=
202601230230 METAR VABB 230230Z 00000KT 1500 BR FEW100 24/20 Q1016 NOSIG=
202601230300 METAR VABB 230300Z 02003KT 1500 BR NSC 24/20 Q1016 NOSIG=
202601230330 METAR VABB 230330Z 00000KT 1500 BR NSC 25/21 Q1016 NOSIG=
202601230400 METAR VABB 230400Z 03003KT 1500 HZ NSC 25/20 Q1017 NOSIG=
202601230430 METAR VABB 230430Z 26004KT 2100 HZ FEW100 26/20 Q1017 NOSIG=
202601230500 METAR VABB 230500Z 27004KT 2100 HZ FEW100 27/19 Q1017 NOSIG=
202601230530 METAR COR VABB 230530Z 00000KT 2100 FU FEW100 27/17 Q1017 NOSIG=
202601230600 METAR VABB 230600Z 27007KT 2100 HZ FEW100 27/20 Q1016 NOSIG=
202601230630 METAR VABB 230630Z 28007KT 2200 HZ FEW100 27/20 Q1016 NOSIG=
202601230700 METAR VABB 230700Z 27010KT 2200 HZ FEW100 28/20 Q1015 NOSIG=
202601230730 METAR VABB 230730Z 27013KT 2200 HZ FEW100 27/20 Q1015 NOSIG=
202601230800 METAR VABB 230800Z 30009KT 2500 HZ FEW100 27/19 Q1014 NOSIG=
202601230830 METAR VABB 230830Z 29010KT 2500 HZ FEW100 27/19 Q1014 BECMG 3000 HZ=
202601230900 METAR VABB 230900Z 29010KT 3000 HZ FEW100 27/18 Q1013 NOSIG=
202601230930 METAR VABB 230930Z 30011KT 3500 FU NSC 27/17 Q1013 NOSIG=
202601231000 METAR VABB 231000Z 32011KT 3500 FU NSC 27/18 Q1013 NOSIG=
202601231030 METAR VABB 231030Z 31011KT 3500 FU NSC 27/17 Q1013 NOSIG=
202601231100 METAR VABB 231100Z 31011KT 3500 FU NSC 27/18 Q1013 NOSIG=
202601231130 METAR VABB 231130Z 33011KT 3500 HZ NSC 26/18 Q1013 NOSIG=
202601231200 METAR VABB 231200Z 31010KT 3500 HZ NSC 26/18 Q1013 BECMG 3000 HZ=
202601231230 METAR VABB 231230Z 33009KT 3000 HZ NSC 25/18 Q1014 NOSIG=
202601231300 METAR VABB 231300Z 34008KT 3000 HZ NSC 25/18 Q1014 NOSIG=
202601231330 METAR VABB 231330Z 33009KT 3000 HZ NSC 25/17 Q1015 NOSIG=
202601231400 METAR VABB 231400Z 36007KT 3000 HZ NSC 25/18 Q1015 NOSIG=
202601231430 METAR VABB 231430Z 35005KT 3000 HZ NSC 24/18 Q1016 NOSIG=
202601231500 METAR VABB 231500Z 36007KT 3000 HZ NSC 24/17 Q1016 NOSIG=
202601231530 METAR VABB 231530Z 34005KT 3000 HZ NSC 24/16 Q1016 NOSIG=
202601231600 METAR VABB 231600Z 35003KT 3000 HZ NSC 24/17 Q1016 NOSIG=
202601231630 METAR VABB 231630Z 36003KT 3000 HZ NSC 24/17 Q1017 NOSIG=
202601231700 METAR VABB 231700Z 03003KT 3000 HZ NSC 24/17 Q1017 NOSIG=
202601231730 METAR VABB 231730Z 03004KT 3000 HZ NSC 23/17 Q1017 NOSIG=
202601231800 METAR VABB 231800Z 05004KT 3000 HZ NSC 23/16 Q1017 NOSIG=
202601231830 METAR VABB 231830Z 06003KT 3000 HZ NSC 23/16 Q1017 NOSIG=
202601231900 METAR VABB 231900Z 14004KT 3000 HZ NSC 24/15 Q1017 NOSIG=
202601231930 METAR VABB 231930Z 13005KT 3000 HZ NSC 24/16 Q1016 NOSIG=
202601232000 METAR VABB 232000Z 00000KT 3000 HZ NSC 23/16 Q1016 NOSIG=
202601232030 METAR VABB 232030Z 02003KT 3000 HZ NSC 22/16 Q1016 NOSIG=
202601232100 METAR VABB 232100Z 00000KT 3000 HZ NSC 23/14 Q1016 NOSIG=
202601232130 METAR VABB 232130Z 04003KT 3000 HZ NSC 22/15 Q1015 NOSIG=
202601232200 METAR VABB 232200Z 02003KT 3000 HZ NSC 22/14 Q1015 NOSIG=
202601232230 METAR VABB 232230Z 00000KT 3000 HZ NSC 22/14 Q1015 NOSIG=
202601232300 METAR VABB 232300Z 06003KT 3000 HZ NSC 21/14 Q1015 NOSIG=
202601232330 METAR VABB 232330Z 03003KT 3000 HZ NSC 22/14 Q1015 NOSIG=
202601240000 METAR COR VABB 240000Z 03004KT 3000 HZ NSC 22/14 Q1016 NOSIG=
202601240030 METAR VABB 240030Z 02004KT 3000 HZ NSC 22/14 Q1016 NOSIG=
202601240100 METAR VABB 240100Z 04003KT 3000 HZ NSC 21/14 Q1016 NOSIG=
202601240130 METAR VABB 240130Z 00000KT 3000 HZ NSC 22/14 Q1017 NOSIG=
202601240200 METAR VABB 240200Z 08003KT 3000 HZ NSC 22/15 Q1017 NOSIG=
202601240230 METAR VABB 240230Z 20004KT 2500 HZ NSC 22/15 Q1017 NOSIG=
202601240300 METAR VABB 240300Z 12003KT 2500 HZ NSC 23/15 Q1018 NOSIG=
202601240330 METAR VABB 240330Z 11004KT 2500 FU NSC 23/15 Q1018 NOSIG=
202601240400 METAR VABB 240400Z 05006KT 2500 FU NSC 24/15 Q1018 NOSIG=
202601240430 METAR VABB 240430Z 07006KT 2500 FU NSC 25/16 Q1018 NOSIG=
202601240500 METAR VABB 240500Z 05004KT 2500 FU NSC 26/15 Q1018 NOSIG=
202601240530 METAR VABB 240530Z 01004KT 2500 FU NSC 27/15 Q1018 BECMG 3000 FU=
202601240600 METAR VABB 240600Z 07005KT 3000 FU NSC 28/14 Q1018 NOSIG=
202601240630 METAR VABB 240630Z 05004KT 3000 FU NSC 28/14 Q1017 NOSIG=
202601240700 METAR VABB 240700Z 02004KT 3000 FU NSC 29/13 Q1017 NOSIG=
202601240730 METAR VABB 240730Z 29006KT 3000 FU NSC 29/17 Q1016 NOSIG=
202601240800 METAR VABB 240800Z 28007KT 3000 FU NSC 29/17 Q1016 NOSIG=
202601240830 METAR VABB 240830Z 27009KT 3000 FU NSC 29/16 Q1015 NOSIG=
202601240900 METAR VABB 240900Z 28008KT 3000 FU NSC 29/17 Q1015 NOSIG=
202601010000 METAR VABB NIL=
202601240930 METAR VABB 240930Z 28008KT 3500 FU NSC 29/16 Q1014 NOSIG=
202601241000 METAR VABB 241000Z 29010KT 3500 FU NSC 29/16 Q1014 NOSIG=
202601010000 METAR VABB NIL=
202601241030 METAR VABB 241030Z 30011KT 3500 FU NSC 28/17 Q1014 NOSIG=
202601241100 METAR VABB 241100Z 31010KT 3500 FU NSC 27/18 Q1014 NOSIG=
202601010000 METAR VABB NIL=
202601241130 METAR VABB 241130Z 32010KT 3500 FU NSC 27/18 Q1014 NOSIG=
202601241200 METAR VABB 241200Z 32008KT 3500 FU NSC 26/18 Q1014 BECMG 3000 FU=
202601010000 METAR VABB NIL=
202601241230 METAR VABB 241230Z 31007KT 3000 FU NSC 26/18 Q1015 NOSIG=
202601241300 METAR VABB 241300Z 31009KT 3000 HZ NSC 25/17 Q1015 NOSIG=
202601010000 METAR VABB NIL=
202601241330 METAR VABB 241330Z 33007KT 3000 HZ NSC 25/17 Q1016 NOSIG=
202601241400 METAR VABB 241400Z 32008KT 3000 HZ NSC 25/17 Q1016 NOSIG=
202601010000 METAR VABB NIL=
202601241430 METAR VABB 241430Z 35006KT 3000 HZ NSC 25/17 Q1016 NOSIG=
202601241500 METAR VABB 241500Z 35007KT 3000 HZ NSC 24/16 Q1017 NOSIG=
202601241530 METAR VABB 241530Z 35007KT 3000 HZ NSC 24/16 Q1017 NOSIG=
202601241600 METAR VABB 241600Z 36006KT 3000 HZ NSC 24/16 Q1017 NOSIG=
202601241630 METAR VABB 241630Z 04006KT 3000 HZ NSC 23/17 Q1017 NOSIG=
202601241700 METAR VABB 241700Z 01005KT 3000 HZ NSC 24/16 Q1017 NOSIG=
202601241730 METAR VABB 241730Z 01006KT 3000 HZ NSC 24/16 Q1017 NOSIG=
202601241800 METAR VABB 241800Z 02005KT 3000 HZ NSC 24/16 Q1016 NOSIG=
202601241830 METAR VABB 241830Z 02004KT 3000 HZ NSC 23/15 Q1016 NOSIG=
202601241900 METAR VABB 241900Z 36004KT 3000 HZ NSC 23/15 Q1016 NOSIG=
202601241930 METAR VABB 241930Z 36004KT 3000 HZ NSC 23/16 Q1016 NOSIG=
202601242000 METAR VABB 242000Z 01003KT 3000 HZ NSC 23/16 Q1015 NOSIG=
202601242030 METAR VABB 242030Z 02003KT 3000 HZ NSC 23/16 Q1015 NOSIG=
202601242100 METAR VABB 242100Z 03004KT 3000 HZ NSC 22/16 Q1014 NOSIG=
202601242130 METAR VABB 242130Z 10003KT 2500 HZ NSC 23/16 Q1014 NOSIG=
202601242200 METAR VABB 242200Z 00000KT 3000 HZ NSC 23/16 Q1014 NOSIG=
202601242230 METAR VABB 242230Z 00000KT 3000 HZ NSC 21/16 Q1013 NOSIG=
202601242300 METAR VABB 242300Z 00000KT 3000 HZ NSC 22/16 Q1014 NOSIG=
202601242330 METAR VABB 242330Z 03003KT 3000 HZ NSC 22/17 Q1014 NOSIG=
202601250000 METAR VABB 250000Z 05003KT 3000 HZ NSC 22/16 Q1014 NOSIG=
202601250030 METAR VABB 250030Z 04003KT 3000 HZ NSC 22/16 Q1014 NOSIG=
202601250100 METAR VABB 250100Z 01004KT 3000 HZ NSC 22/16 Q1014 NOSIG=
202601250130 METAR VABB 250130Z 14003KT 2500 HZ NSC 22/16 Q1015 NOSIG=
202601250200 METAR VABB 250200Z 16004KT 1800 HZ FEW100 22/17 Q1015 NOSIG=
202601250230 METAR VABB 250230Z 15005KT 1500 HZ FEW100 22/16 Q1015 NOSIG=
202601250300 METAR VABB 250300Z 06004KT 1600 HZ FEW100 23/16 Q1016 NOSIG=
202601250330 METAR VABB 250330Z 07005KT 1800 HZ FEW100 24/16 Q1016 NOSIG=
202601250400 METAR VABB 250400Z 07007KT 1800 HZ FEW100 25/16 Q1016 NOSIG=
202601250430 METAR VABB 250430Z 06005KT 2100 FU FEW100 26/16 Q1017 NOSIG=
202601250500 METAR VABB 250500Z 06006KT 2100 FU FEW100 26/16 Q1017 NOSIG=
202601250530 METAR VABB 250530Z 11006KT 2100 FU FEW100 27/16 Q1017 NOSIG=
202601250600 METAR VABB 250600Z 01004KT 2100 FU FEW100 28/16 Q1016 NOSIG=
202601250630 METAR VABB 250630Z 01003KT 2100 FU FEW100 29/16 Q1016 NOSIG=
202601250700 METAR VABB 250700Z 11004KT 2100 FU NSC 30/15 Q1015 NOSIG=
202601250730 METAR VABB 250730Z 09004KT 2100 FU NSC 30/15 Q1015 NOSIG=
202601250800 METAR VABB 250800Z 21003KT 2100 FU NSC 31/15 Q1014 NOSIG=
202601250830 METAR VABB 250830Z 27009KT 2500 FU NSC 30/18 Q1013 NOSIG=
202601250900 METAR VABB 250900Z 25008KT 2500 FU NSC 30/19 Q1013 NOSIG=
202601250930 METAR VABB 250930Z 27008KT 2500 FU NSC 30/19 Q1013 NOSIG=
202601251000 METAR VABB 251000Z 26011KT 2500 FU NSC 29/19 Q1012 NOSIG=
202601251030 METAR VABB 251030Z 27008KT 2500 FU NSC 29/19 Q1012 NOSIG=
202601251100 METAR VABB 251100Z 29007KT 2500 FU NSC 29/19 Q1012 NOSIG=
202601251130 METAR VABB 251130Z 28007KT 2500 FU NSC 29/19 Q1012 NOSIG=
202601251200 METAR VABB 251200Z 29006KT 2500 FU NSC 28/19 Q1013 NOSIG=
202601251230 METAR VABB 251230Z 30007KT 2500 FU NSC 27/19 Q1013 NOSIG=
202601251300 METAR VABB 251300Z 30006KT 2200 HZ NSC 27/19 Q1013 NOSIG=
202601251330 METAR VABB 251330Z 30006KT 2500 HZ NSC 26/19 Q1013 NOSIG=
202601251400 METAR VABB 251400Z 30005KT 2500 HZ NSC 26/19 Q1014 NOSIG=
202601251430 METAR VABB 251430Z 33004KT 2500 HZ NSC 26/20 Q1014 NOSIG=
202601251500 METAR VABB 251500Z 29004KT 2500 HZ NSC 25/19 Q1015 NOSIG=
202601251530 METAR VABB 251530Z 01003KT 2500 HZ NSC 25/19 Q1015 NOSIG=
202601251600 METAR VABB 251600Z 36004KT 2500 HZ NSC 26/19 Q1015 NOSIG=
202601251630 METAR VABB 251630Z 02003KT 2500 HZ NSC 25/19 Q1015 NOSIG=
202601251700 METAR VABB 251700Z 00000KT 2500 HZ NSC 25/18 Q1015 NOSIG=
202601251730 METAR VABB 251730Z 14003KT 2500 HZ NSC 26/18 Q1015 NOSIG=
202601251800 METAR VABB 251800Z 23003KT 2500 HZ NSC 25/18 Q1015 NOSIG=
202601251830 METAR VABB 251830Z 00000KT 2500 HZ NSC 25/19 Q1015 NOSIG=
202601251900 METAR VABB 251900Z 18003KT 2500 HZ NSC 25/18 Q1014 NOSIG=
202601251930 METAR VABB 251930Z 07003KT 2500 HZ NSC 24/19 Q1014 NOSIG=
202601252000 METAR VABB 252000Z 16004KT 2500 HZ NSC 25/18 Q1014 NOSIG=
202601252030 METAR VABB 252030Z 18004KT 2500 HZ NSC 24/19 Q1014 NOSIG=
202601252100 METAR VABB 252100Z 17004KT 2500 HZ NSC 25/18 Q1013 NOSIG=
202601252130 METAR VABB 252130Z 21004KT 2500 HZ NSC 24/18 Q1013 NOSIG=
202601252200 METAR VABB 252200Z 08003KT 2500 HZ NSC 24/18 Q1013 NOSIG=
202601252230 METAR VABB 252230Z 13003KT 2500 HZ NSC 22/18 Q1013 NOSIG=
202601252300 METAR VABB 252300Z 00000KT 2500 HZ NSC 23/18 Q1013 NOSIG=
202601252330 METAR VABB 252330Z 00000KT 2500 HZ NSC 24/18 Q1013 NOSIG=
202601260000 METAR VABB 260000Z 10004KT 2500 HZ NSC 24/17 Q1013 NOSIG=
202601260030 METAR VABB 260030Z 09004KT 2500 HZ NSC 24/17 Q1013 NOSIG=
202601260100 METAR VABB 260100Z 07003KT 2500 HZ NSC 23/17 Q1014 NOSIG=
202601260130 METAR VABB 260130Z 09004KT 2100 HZ NSC 24/17 Q1014 NOSIG=
202601260200 METAR VABB 260200Z 17005KT 1800 HZ FEW100 23/17 Q1015 NOSIG=
202601260230 METAR VABB 260230Z 16005KT 1500 HZ FEW100 24/17 Q1015 NOSIG=
202601260300 METAR VABB 260300Z 17004KT 1500 HZ FEW100 25/17 Q1015 NOSIG=
202601260330 METAR VABB 260330Z 12007KT 1500 HZ FEW100 25/17 Q1016 NOSIG=
202601260400 METAR VABB 260400Z 12005KT 1800 FU FEW100 26/17 Q1016 NOSIG=
202601260430 METAR VABB 260430Z 12006KT 2100 FU FEW100 27/17 Q1016 NOSIG=
202601260500 METAR VABB 260500Z 10005KT 2100 FU FEW100 28/17 Q1016 NOSIG=
202601260530 METAR VABB 260530Z 10006KT 2500 FU FEW100 29/16 Q1016 NOSIG=
202601260600 METAR VABB 260600Z 11007KT 2500 FU NSC 30/16 Q1016 NOSIG=
202601260630 METAR VABB 260630Z 12006KT 2500 FU NSC 30/16 Q1016 NOSIG=
202601260700 METAR VABB 260700Z 16004KT 2100 FU NSC 31/16 Q1015 NOSIG=
202601260730 METAR VABB 260730Z 27005KT 2100 FU NSC 31/18 Q1014 NOSIG=
202601260800 METAR VABB 260800Z 27009KT 2000 FU FEW100 31/19 Q1014 NOSIG=
202601260830 METAR VABB 260830Z 27008KT 2000 FU SCT100 30/21 Q1014 NOSIG=
202601260900 METAR VABB 260900Z 26006KT 2000 FU SCT100 31/21 Q1013 NOSIG=
202601260930 METAR VABB 260930Z 28009KT 2000 FU SCT100 30/21 Q1013 NOSIG=
202601261000 METAR VABB 261000Z 27007KT 2100 FU SCT100 30/19 Q1013 NOSIG=
202601261030 METAR VABB 261030Z 28008KT 2100 FU SCT100 30/19 Q1013 NOSIG=
202601261100 METAR VABB 261100Z 27009KT 2100 FU SCT100 29/20 Q1013 NOSIG=
202601261130 METAR VABB 261130Z 27009KT 2100 FU SCT100 29/19 Q1013 NOSIG=
202601261200 METAR VABB 261200Z 27008KT 2100 FU FEW100 29/19 Q1013 NOSIG=
202601261230 METAR VABB 261230Z 28010KT 2100 FU FEW100 28/17 Q1013 NOSIG=
202601261300 METAR VABB 261300Z 29008KT 2100 FU FEW100 28/19 Q1014 NOSIG=
202601261330 METAR VABB 261330Z 31006KT 2100 HZ FEW100 27/20 Q1014 NOSIG=
202601261400 METAR VABB 261400Z 32006KT 2100 HZ FEW100 27/19 Q1015 NOSIG=
202601261430 METAR VABB 261430Z 32005KT 2100 HZ FEW100 27/19 Q1015 NOSIG=
202601261500 METAR VABB 261500Z 32005KT 2100 HZ FEW100 26/20 Q1016 NOSIG=
202601261530 METAR VABB 261530Z 31006KT 2100 HZ FEW100 26/21 Q1016 NOSIG=
202601261600 METAR VABB 261600Z 32005KT 2100 HZ FEW100 26/21 Q1016 NOSIG=
202601261630 METAR VABB 261630Z 32004KT 2100 HZ FEW100 26/22 Q1016 NOSIG=
202601261700 METAR VABB 261700Z 31005KT 2100 BR FEW100 26/22 Q1016 NOSIG=
202601261730 METAR VABB 261730Z 35005KT 2100 BR FEW100 25/22 Q1016 NOSIG=
202601261800 METAR VABB 261800Z 03003KT 2100 BR FEW100 25/22 Q1016 NOSIG=
202601261830 METAR VABB 261830Z 01005KT 2100 BR FEW100 25/21 Q1016 NOSIG=
202601261900 METAR VABB 261900Z 01004KT 2100 BR FEW100 25/21 Q1016 NOSIG=
202601261930 METAR VABB 261930Z 32004KT 2100 BR FEW100 25/21 Q1016 NOSIG=
202601262000 METAR VABB 262000Z 30005KT 2100 BR FEW100 25/21 Q1016 NOSIG=
202601262030 METAR VABB 262030Z 32004KT 2100 BR FEW100 25/19 Q1015 NOSIG=
202601262100 METAR VABB 262100Z 33005KT 2100 BR FEW100 25/19 Q1015 NOSIG=
202601262130 METAR VABB 262130Z 33006KT 1500 BR FEW100 25/20 Q1015 NOSIG=
202601262200 METAR VABB 262200Z 33006KT 1500 BR FEW100 24/20 Q1015 NOSIG=
202601262230 METAR VABB 262230Z 32005KT 1500 BR SCT100 24/20 Q1015 NOSIG=
202601262300 METAR VABB 262300Z 36005KT 1500 BR SCT100 24/20 Q1015 NOSIG=
202601262330 METAR VABB 262330Z 35004KT 1500 BR SCT100 24/20 Q1015 NOSIG=
202601270000 METAR VABB 270000Z 34005KT 1500 BR SCT100 24/20 Q1015 NOSIG=
202601270030 METAR VABB 270030Z 34006KT 1500 BR SCT100 24/20 Q1016 NOSIG=
202601270100 METAR VABB 270100Z 32005KT 1500 BR SCT100 24/20 Q1016 NOSIG=
202601270130 METAR VABB 270130Z 35006KT 1500 BR SCT100 24/20 Q1016 NOSIG=
202601270200 METAR VABB 270200Z 36005KT 1500 BR FEW020 SCT100 24/21 Q1017 NOSIG=
202601270230 METAR VABB 270230Z 35005KT 1500 BR FEW020 SCT100 24/21 Q1017 NOSIG=
202601270300 METAR VABB 270300Z 02005KT 1500 BR FEW020 SCT100 24/21 Q1018 NOSIG=
202601270330 METAR VABB 270330Z 35007KT 1500 BR FEW020 SCT100 25/20 Q1018 NOSIG=
202601270400 METAR VABB 270400Z 36008KT 1800 BR FEW020 SCT100 25/20 Q1019 NOSIG=
202601270430 METAR VABB 270430Z 01007KT 2100 HZ FEW020 SCT100 26/20 Q1019 NOSIG=
202601270500 METAR VABB 270500Z 31007KT 2100 HZ FEW020 SCT100 26/20 Q1019 NOSIG=
202601270530 METAR VABB 270530Z 01006KT 2100 HZ FEW020 SCT100 26/19 Q1019 NOSIG=
202601270600 METAR VABB 270600Z 30006KT 2500 HZ FEW020 SCT100 27/19 Q1019 NOSIG=
202601270630 METAR VABB 270630Z 33008KT 2500 HZ FEW020 SCT100 27/20 Q1018 NOSIG=
202601270700 METAR VABB 270700Z 29014KT 2500 HZ FEW020 SCT100 27/20 Q1018 NOSIG=
202601270730 METAR VABB 270730Z 30009G19KT 2500 HZ FEW100 27/20 Q1017 BECMG 3000 HZ=
202601270800 METAR VABB 270800Z 31010KT 3000 HZ FEW100 27/19 Q1017 NOSIG=
202601270830 METAR VABB 270830Z 31011KT 3000 HZ FEW100 27/19 Q1016 NOSIG=
202601270900 METAR VABB 270900Z 33011KT 3000 HZ FEW100 27/19 Q1016 NOSIG=
202601270930 METAR VABB 270930Z 33010KT 3500 FU FEW100 27/17 Q1016 NOSIG=
202601271000 METAR VABB 271000Z 32012KT 4000 FU FEW100 27/17 Q1015 NOSIG=
202601271030 METAR VABB 271030Z 33010KT 4000 FU FEW100 27/16 Q1015 NOSIG=
202601271100 METAR VABB 271100Z 33009KT 4000 FU NSC 27/17 Q1015 NOSIG=
202601271130 METAR VABB 271130Z 32010KT 4000 FU NSC 26/18 Q1015 NOSIG=
202601271200 METAR VABB 271200Z 31010KT 4000 FU NSC 26/17 Q1016 NOSIG=
202601271230 METAR VABB 271230Z 31009KT 4000 FU NSC 26/17 Q1016 NOSIG=
202601271300 METAR VABB 271300Z 32009KT 3500 HZ NSC 25/17 Q1016 NOSIG=
202601271330 METAR VABB 271330Z 32009KT 3500 HZ NSC 24/18 Q1016 NOSIG=
202601271400 METAR VABB 271400Z 34009KT 3500 HZ NSC 24/18 Q1017 NOSIG=
202601271430 METAR VABB 271430Z 34008KT 3500 HZ NSC 24/18 Q1017 NOSIG=
202601271500 METAR VABB 271500Z 36007KT 3500 HZ NSC 24/18 Q1018 NOSIG=
202601271530 METAR VABB 271530Z 36008KT 3000 HZ NSC 23/18 Q1018 NOSIG=
202601271600 METAR VABB 271600Z 36005KT 3000 HZ NSC 23/18 Q1018 NOSIG=
202601271630 METAR VABB 271630Z 35006KT 3000 HZ NSC 23/17 Q1018 NOSIG=
202601271700 METAR VABB 271700Z 01004KT 3000 HZ NSC 23/18 Q1018 NOSIG=
202601271730 METAR VABB 271730Z 02004KT 3000 HZ NSC 23/17 Q1018 NOSIG=
202601271800 METAR VABB 271800Z 01004KT 3000 HZ NSC 23/17 Q1018 NOSIG=
202601271830 METAR VABB 271830Z 02005KT 3000 HZ NSC 23/18 Q1018 NOSIG=
202601271900 METAR VABB 271900Z 04004KT 3000 HZ NSC 23/17 Q1017 NOSIG=
202601271930 METAR VABB 271930Z 03004KT 3000 HZ NSC 23/17 Q1017 NOSIG=
202601272000 METAR VABB 272000Z 03004KT 3000 HZ NSC 23/17 Q1017 NOSIG=
202601272030 METAR VABB 272030Z 01004KT 3000 HZ NSC 23/17 Q1017 NOSIG=
202601272100 METAR VABB 272100Z 02005KT 3000 HZ NSC 23/17 Q1017 NOSIG=
202601272130 METAR VABB 272130Z 04003KT 3000 HZ NSC 22/17 Q1016 NOSIG=
202601272200 METAR VABB 272200Z 02005KT 3000 HZ NSC 22/17 Q1016 NOSIG=
202601272230 METAR VABB 272230Z 01006KT 3000 HZ NSC 22/17 Q1016 NOSIG=
202601272300 METAR VABB 272300Z 03006KT 3000 HZ NSC 22/17 Q1016 NOSIG=
202601272330 METAR VABB 272330Z 04006KT 3000 HZ NSC 22/18 Q1016 NOSIG=
202601280000 METAR VABB 280000Z 07005KT 3000 HZ NSC 22/17 Q1016 NOSIG=
202601280030 METAR VABB 280030Z 06005KT 3000 HZ NSC 22/17 Q1016 NOSIG=
202601280100 METAR VABB 280100Z 02006KT 3000 HZ NSC 22/16 Q1017 NOSIG=
202601280130 METAR VABB 280130Z 03005KT 2500 HZ NSC 22/16 Q1017 NOSIG=
202601280200 METAR VABB 280200Z 03007KT 2500 HZ NSC 22/14 Q1017 NOSIG=
202601280230 METAR VABB 280230Z 06006KT 2500 FU NSC 22/13 Q1018 NOSIG=
202601280300 METAR VABB 280300Z 01005KT 2500 FU NSC 23/13 Q1018 NOSIG=
202601280330 METAR VABB 280330Z 04005KT 2500 FU FEW100 24/13 Q1018 NOSIG=
202601280400 METAR VABB 280400Z 06007KT 3000 FU FEW100 24/13 Q1019 NOSIG=
202601280430 METAR VABB 280430Z 07007KT 3000 FU FEW100 25/14 Q1019 NOSIG=
202601280500 METAR VABB 280500Z 06009KT 3000 FU FEW100 26/14 Q1019 NOSIG=
202601280530 METAR VABB 280530Z 05008KT 3000 FU FEW100 26/14 Q1018 NOSIG=
202601280600 METAR VABB 280600Z 07007KT 3500 FU NSC 27/14 Q1018 NOSIG=
202601280630 METAR VABB 280630Z 05008KT 3500 FU NSC 28/13 Q1017 NOSIG=
202601280700 METAR VABB 280700Z 03007KT 4000 FU NSC 29/12 Q1016 NOSIG=
202601280730 METAR VABB 280730Z 05006KT 4000 FU NSC 30/12 Q1016 NOSIG=
202601280800 METAR VABB 280800Z 06007KT 4000 FU NSC 30/11 Q1015 NOSIG=
202601280830 METAR VABB 280830Z 33006KT 4000 FU NSC 30/15 Q1015 NOSIG=
202601280900 METAR VABB 280900Z 29011KT 4000 FU NSC 29/15 Q1014 NOSIG=
202601280930 METAR VABB 280930Z 28011KT 4000 FU NSC 29/16 Q1014 NOSIG=
202601281000 METAR VABB 281000Z 30010KT 4000 FU NSC 29/15 Q1014 NOSIG=
202601281030 METAR VABB 281030Z 29010KT 4000 FU NSC 29/15 Q1014 NOSIG=
202601281100 METAR VABB 281100Z 31009KT 4000 FU NSC 28/16 Q1013 NOSIG=
202601281130 METAR VABB 281130Z 31009KT 4000 FU NSC 28/15 Q1013 NOSIG=
202601281200 METAR COR VABB 281200Z 32007KT 3500 FU NSC 28/15 Q1013 BECMG 3000 FU=
202601281230 METAR VABB 281230Z 32007KT 3000 FU FEW100 27/16 Q1014 NOSIG=
202601281300 METAR VABB 281300Z 33007KT 3000 FU FEW100 26/17 Q1014 NOSIG=
202601281330 METAR VABB 281330Z 33006KT 3000 FU FEW100 25/17 Q1014 NOSIG=
202601281400 METAR VABB 281400Z 33005KT 3000 FU FEW100 26/17 Q1014 NOSIG=
202601281430 METAR VABB 281430Z 35006KT 3000 FU NSC 25/16 Q1014 NOSIG=
202601281500 METAR VABB 281500Z 34008KT 3000 FU NSC 25/16 Q1015 NOSIG=
202601281530 METAR VABB 281530Z 36007KT 3000 FU NSC 25/15 Q1015 NOSIG=
202601281600 METAR VABB 281600Z 35006KT 3000 FU NSC 24/15 Q1015 NOSIG=
202601281630 METAR VABB 281630Z 35006KT 3000 FU NSC 24/15 Q1015 NOSIG=
202601281700 METAR VABB 281700Z 36005KT 3000 FU NSC 24/15 Q1016 NOSIG=
202601281730 METAR VABB 281730Z 01003KT 3000 FU NSC 23/15 Q1015 NOSIG=
202601281800 METAR VABB 281800Z 35004KT 3000 FU NSC 23/15 Q1015 NOSIG=
202601281830 METAR VABB 281830Z 35004KT 3000 FU NSC 23/15 Q1015 NOSIG=
202601281900 METAR VABB 281900Z 01004KT 3000 FU NSC 23/15 Q1015 NOSIG=
202601281930 METAR VABB 281930Z 01004KT 3000 FU NSC 23/14 Q1014 NOSIG=
202601282000 METAR VABB 282000Z 00000KT 3000 HZ NSC 22/14 Q1014 NOSIG=
202601282030 METAR VABB 282030Z 00000KT 3000 HZ NSC 22/14 Q1014 NOSIG=
202601282100 METAR VABB 282100Z 09003KT 3000 HZ NSC 23/15 Q1013 NOSIG=
202601282130 METAR VABB 282130Z 00000KT 3000 FU NSC 23/14 Q1013 NOSIG=
202601282200 METAR VABB 282200Z 09005KT 3000 FU NSC 22/13 Q1013 NOSIG=
202601282230 METAR VABB 282230Z 00000KT 3000 FU NSC 22/13 Q1012 NOSIG=
202601282300 METAR VABB 282300Z 05004KT 3000 FU NSC 23/12 Q1012 NOSIG=
202601282330 METAR VABB 282330Z 06004KT 3000 FU NSC 23/12 Q1012 NOSIG=
202601290000 METAR VABB 290000Z 19004KT 3000 FU NSC 23/13 Q1013 NOSIG=
202601290030 METAR VABB 290030Z 18005KT 3000 FU NSC 23/13 Q1013 NOSIG=
202601290100 METAR VABB 290100Z 11004KT 3000 FU NSC 22/13 Q1013 NOSIG=
202601290130 METAR VABB 290130Z 10006KT 2500 FU FEW100 23/13 Q1014 NOSIG=
202601290200 METAR VABB 290200Z 11004KT 2500 FU FEW100 23/13 Q1014 NOSIG=
202601290230 METAR VABB 290230Z 13003KT 2500 FU FEW100 23/13 Q1014 NOSIG=
202601290300 METAR VABB 290300Z 07003KT 2500 FU FEW100 24/13 Q1015 NOSIG=
202601290330 METAR VABB 290330Z 08004KT 2500 FU FEW100 25/14 Q1015 NOSIG=
202601290400 METAR VABB 290400Z 14004KT 2500 FU FEW100 26/14 Q1016 NOSIG=
202601290430 METAR VABB 290430Z 15003KT 2500 FU NSC 27/14 Q1016 NOSIG=
202601290500 METAR VABB 290500Z 11004KT 2500 FU NSC 28/14 Q1016 NOSIG=
202601290530 METAR VABB 290530Z 13003KT 2500 FU NSC 29/15 Q1015 BECMG 3000 FU=
202601290600 METAR VABB 290600Z 13004KT 3000 FU FEW100 30/15 Q1015 NOSIG=
202601290630 METAR VABB 290630Z 13006KT 3000 FU FEW100 30/16 Q1015 NOSIG=
202601290700 METAR VABB 290700Z 12008KT 3000 FU NSC 31/16 Q1014 NOSIG=
202601290730 METAR VABB 290730Z 12006KT 3000 FU NSC 32/16 Q1014 NOSIG=
202601290800 METAR VABB 290800Z 18004KT 3000 FU NSC 33/17 Q1013 NOSIG=
202601290830 METAR VABB 290830Z 27008KT 3000 FU NSC 32/18 Q1013 NOSIG=
202601290900 METAR VABB 290900Z 27008KT 3000 FU NSC 31/18 Q1012 NOSIG=
202601290930 METAR VABB 290930Z 27009KT 3000 FU NSC 31/17 Q1012 NOSIG=
202601291000 METAR VABB 291000Z 28009KT 3000 FU NSC 30/17 Q1011 NOSIG=
202601291030 METAR VABB 291030Z 28010KT 3000 FU NSC 30/18 Q1011 NOSIG=
202601291100 METAR VABB 291100Z 30008KT 3500 FU NSC 30/18 Q1012 NOSIG=
202601291130 METAR VABB 291130Z 30008KT 3500 FU FEW100 29/17 Q1012 NOSIG=
202601291200 METAR VABB 291200Z 31007KT 3000 FU FEW100 29/17 Q1012 NOSIG=
202601291230 METAR VABB 291230Z 33007KT 3000 FU FEW100 28/17 Q1013 NOSIG=
202601291300 METAR VABB 291300Z 32004KT 3000 FU FEW100 28/17 Q1013 NOSIG=
202601291330 METAR VABB 291330Z 34003KT 3000 FU FEW100 28/17 Q1013 NOSIG=
202601291400 METAR VABB 291400Z 33005KT 3000 FU FEW100 27/16 Q1013 NOSIG=
202601010000 METAR VABB NIL=
202601291430 METAR VABB 291430Z 34004KT 3000 FU FEW100 27/16 Q1014 NOSIG=
202601291500 METAR VABB 291500Z 01003KT 3000 FU FEW100 27/16 Q1014 NOSIG=
202601291530 METAR VABB 291530Z 00000KT 3000 FU FEW100 27/16 Q1015 NOSIG=
202601291600 METAR VABB 291600Z 00000KT 3000 FU FEW100 28/16 Q1015 NOSIG=
202601291630 METAR VABB 291630Z 02003KT 3000 FU FEW100 28/16 Q1015 NOSIG=
202601291700 METAR VABB 291700Z 00000KT 3000 FU FEW100 28/16 Q1015 NOSIG=
202601291730 METAR VABB 291730Z 13004KT 3000 FU FEW100 27/16 Q1015 NOSIG=
202601291800 METAR VABB 291800Z 14005KT 3000 FU FEW100 27/17 Q1015 NOSIG=
202601291830 METAR VABB 291830Z 15005KT 3000 FU FEW100 27/17 Q1015 NOSIG=
202601291900 METAR VABB 291900Z 13005KT 2500 FU FEW100 27/17 Q1014 NOSIG=
202601291930 METAR VABB 291930Z 11004KT 2500 FU FEW100 27/17 Q1014 NOSIG=
202601292000 METAR VABB 292000Z 12004KT 2500 FU FEW100 27/17 Q1014 NOSIG=
202601292030 METAR VABB 292030Z 14005KT 2200 FU FEW100 27/17 Q1014 NOSIG=
202601292100 METAR VABB 292100Z 13004KT 2200 FU FEW100 27/17 Q1013 NOSIG=
202601292130 METAR VABB 292130Z 15005KT 2200 FU FEW100 26/17 Q1013 NOSIG=
202601292200 METAR VABB 292200Z 13005KT 2200 FU FEW100 25/19 Q1013 NOSIG=
202601292230 METAR VABB 292230Z 11004KT 2200 FU FEW100 25/19 Q1013 NOSIG=
202601292300 METAR VABB 292300Z 10006KT 2200 HZ FEW100 26/18 Q1013 NOSIG=
202601292330 METAR VABB 292330Z 10004KT 2200 HZ FEW100 26/18 Q1013 NOSIG=
202601300000 METAR VABB 300000Z 00000KT 2200 HZ FEW100 26/17 Q1013 NOSIG=
202601300030 METAR VABB 300030Z 07004KT 2200 HZ FEW100 26/18 Q1013 NOSIG=
202601300100 METAR VABB 300100Z 08003KT 2100 HZ FEW100 26/18 Q1013 NOSIG=
202601300130 METAR VABB 300130Z 00000KT 1800 HZ SCT100 26/17 Q1014 NOSIG=
202601300200 METAR VABB 300200Z 17004KT 1800 HZ SCT100 26/18 Q1014 NOSIG=
202601300230 METAR VABB 300230Z 14005KT 1800 HZ SCT100 26/18 Q1014 NOSIG=
202601300300 METAR VABB 300300Z 17003KT 1800 HZ SCT100 27/18 Q1015 NOSIG=
202601300330 METAR VABB 300330Z 13005KT 1500 HZ SCT100 27/18 Q1015 NOSIG=
202601300400 METAR VABB 300400Z 12006KT 1500 HZ SCT100 28/18 Q1016 NOSIG=
202601300430 METAR VABB 300430Z 12006KT 1800 HZ FEW100 28/17 Q1016 NOSIG=
202601300500 METAR VABB 300500Z 10006KT 2100 FU FEW100 29/17 Q1016 NOSIG=
202601300530 METAR VABB 300530Z 12008KT 1800 FU FEW100 29/17 Q1016 NOSIG=
202601300600 METAR VABB 300600Z 13008KT 2100 HZ FEW100 30/17 Q1016 NOSIG=
202601300630 METAR VABB 300630Z 14007KT 2200 HZ FEW100 31/17 Q1015 NOSIG=
202601300700 METAR VABB 300700Z 14007KT 2200 HZ FEW100 32/17 Q1015 NOSIG=
202601300730 METAR VABB 300730Z 14006KT 2200 HZ FEW100 33/18 Q1014 NOSIG=
202601300800 METAR VABB 300800Z 23009G22KT 2200 FU FEW100 33/19 Q1014 NOSIG=
202601300830 METAR VABB 300830Z 26012KT 2200 FU FEW100 30/19 Q1013 NOSIG=
202601300900 METAR VABB 300900Z 23011KT 2200 FU FEW100 30/19 Q1013 NOSIG=
202601300930 METAR VABB 300930Z 24011KT 2200 FU FEW100 30/19 Q1013 NOSIG=
202601301000 METAR VABB 301000Z 24010KT 2200 FU FEW100 30/22 Q1013 NOSIG=
202601301030 METAR VABB 301030Z 26012KT 2200 HZ FEW100 29/21 Q1013 NOSIG=
202601301100 METAR VABB 301100Z 27012KT 2200 HZ FEW100 28/23 Q1013 NOSIG=
202601301130 METAR VABB 301130Z 27010KT 2200 HZ FEW100 28/23 Q1013 NOSIG=
202601301200 METAR VABB 301200Z 25007KT 2500 HZ FEW100 26/23 Q1013 NOSIG=
202601301230 METAR VABB 301230Z 28007KT 2500 HZ FEW100 27/22 Q1013 NOSIG=
202601301300 METAR VABB 301300Z 28007KT 2100 HZ NSC 27/23 Q1013 NOSIG=
202601301330 METAR VABB 301330Z 27006KT 2100 HZ NSC 26/23 Q1014 NOSIG=
202601301400 METAR VABB 301400Z 27006KT 2500 HZ NSC 26/23 Q1014 NOSIG=
202601301430 METAR VABB 301430Z 27004KT 2500 HZ NSC 26/23 Q1014 NOSIG=
202601301500 METAR VABB 301500Z 30004KT 2500 HZ NSC 26/23 Q1015 NOSIG=
202601010000 METAR VABB NIL=
202601301530 METAR VABB 301530Z 28003KT 2500 BR FEW020 26/23 Q1015 NOSIG=
202601301600 METAR VABB 301600Z 29004KT 2500 BR FEW020 SCT100 26/23 Q1016 NOSIG=
202601301630 METAR VABB 301630Z 29004KT 2500 BR FEW020 SCT100 26/23 Q1016 NOSIG=
202601301700 METAR VABB 301700Z 28003KT 2500 BR FEW020 SCT100 26/23 Q1016 NOSIG=
202601301730 METAR VABB 301730Z 28003KT 2500 BR FEW020 SCT100 26/22 Q1016 NOSIG=
202601301800 METAR VABB 301800Z 00000KT 2500 BR FEW020 SCT100 26/22 Q1016 NOSIG=
202601301830 METAR VABB 301830Z 03005KT 2500 BR FEW020 SCT100 26/23 Q1016 NOSIG=
202601301900 METAR VABB 301900Z 03004KT 2500 BR FEW020 SCT100 25/22 Q1015 NOSIG=
202601301930 METAR VABB 301930Z 04003KT 2500 BR FEW020 SCT100 25/22 Q1015 NOSIG=
202601302000 METAR VABB 302000Z 02003KT 2500 BR FEW020 SCT100 25/22 Q1015 NOSIG=
202601302030 METAR VABB 302030Z 00000KT 2500 BR FEW020 SCT100 25/22 Q1014 NOSIG=
202601302100 METAR VABB 302100Z 16003KT 2500 BR FEW100 25/22 Q1014 NOSIG=
202601302130 METAR VABB 302130Z 20003KT 2500 BR FEW100 25/22 Q1014 NOSIG=
202601302200 METAR VABB 302200Z 20004KT 2500 BR FEW100 25/22 Q1014 NOSIG=
202601302230 METAR VABB 302230Z 00000KT 2500 BR FEW100 25/22 Q1014 NOSIG=
202601302300 METAR VABB 302300Z 00000KT 2500 BR FEW100 25/22 Q1014 NOSIG=
202601302330 METAR VABB 302330Z 00000KT 2500 BR FEW100 25/21 Q1014 NOSIG=
202601310000 METAR VABB 310000Z 00000KT 2100 BR FEW100 25/22 Q1014 NOSIG=
