202510010000 METAR VABB 010000Z 15005KT 2100 -RA FEW012 SCT018 FEW025TCU BKN090 25/24 Q1003 TEMPO 1500 SHRA=
202510010030 METAR VABB 010030Z 16006KT 2500 BR FEW012 SCT018 FEW025TCU BKN090 25/24 Q1004 NOSIG=
202510010100 METAR VABB 010100Z 14004KT 2500 BR SCT018 FEW025TCU BKN100 25/24 Q1004 NOSIG=
202510010130 METAR VABB 010130Z 13003KT 2500 BR FEW018 SCT025 BKN100 25/24 Q1004 NOSIG=
202510010200 METAR VABB 010200Z 15004KT 2500 BR FEW018 SCT025 26/24 Q1005 NOSIG=
202510010230 METAR VABB 010230Z 15004KT 3000 BR FEW018 SCT025 26/24 Q1005 NOSIG=
202510010300 METAR VABB 010300Z 13005KT 3000 BR FEW018 SCT025 26/24 Q1005 NOSIG=
202510010330 METAR VABB 010330Z 15005KT 3000 VCSH FEW018 SCT025 27/24 Q1005 TEMPO 1500 SHRA=
202510010400 METAR VABB 010400Z 17012KT 3000 BR FEW018 SCT025 28/24 Q1005 NOSIG=
202510010430 METAR VABB 010430Z 17010G23KT 3000 BR FEW018 SCT025 29/25 Q1006 NOSIG=
202510010500 METAR VABB 010500Z 19011G27KT 3000 HZ FEW018 SCT025 29/24 Q1006 NOSIG=
202510010530 METAR VABB 010530Z 18014G28KT 3500 HZ FEW020 SCT025 BKN100 30/24 Q1005 NOSIG=
202510010600 METAR VABB 010600Z 19012G22KT 3500 HZ FEW020 SCT025 BKN100 29/25 Q1005 NOSIG=
202510010630 METAR VABB 010630Z 19015G27KT 4000 HZ FEW020 SCT025 BKN100 30/24 Q1005 NOSIG=
202510010700 METAR VABB 010700Z 19013G24KT 2500 -SHRA FEW018 SCT025 BKN100 29/25 Q1004 BECMG 3000 HZ=
202510010730 METAR VABB 010730Z 21010KT 3000 HZ FEW020 SCT025 30/24 Q1004 NOSIG=
202510010800 METAR VABB 010800Z 19013G23KT 3500 HZ FEW020 SCT025 30/25 Q1003 NOSIG=
202510010830 METAR VABB 010830Z 19014G26KT 3500 HZ FEW020 SCT025 29/25 Q1004 NOSIG=
202510010900 METAR VABB 010900Z 20010G23KT 3000 VCSH SCT018 FEW025TCU BKN090 29/25 Q1003 TEMPO 1500 SHRA=
202510010930 METAR VABB 010930Z 19010G22KT 3000 HZ SCT018 FEW025TCU BKN090 28/25 Q1003 NOSIG=
202510011000 METAR VABB 011000Z 18010G22KT 3000 HZ SCT018 FEW025TCU BKN090 28/25 Q1003 NOSIG=
202510011030 METAR VABB 011030Z 19011G24KT 3000 HZ SCT018 FEW025TCU BKN090 28/25 Q1003 NOSIG=
202510011100 METAR VABB 011100Z 18010G10KT 3000 BR SCT018 SCT025 BKN090 28/25 Q1003 NOSIG=
202510011130 METAR VABB 011130Z 19011G21KT 3000 BR SCT018 SCT025 BKN090 28/25 Q1003 NOSIG=
202510011200 METAR VABB 011200Z 19010G26KT 3000 BR SCT018 SCT025 BKN090 28/25 Q1003 NOSIG=
202510011230 METAR VABB 011230Z 18010KT 3000 BR SCT018 SCT025 BKN090 28/25 Q1004 NOSIG=
202510011300 METAR VABB 011300Z 18007KT 3000 BR SCT018 FEW025TCU BKN090 28/25 Q1004 TEMPO 1500 SHRA=
202510011330 METAR VABB 011330Z 19008KT 3000 -RA SCT018 FEW030CB BKN090 28/25 Q1004 TEMPO 1500 SHRA=
202510011400 METAR VABB 011400Z 23017KT 1500 R27/1800 +RA SCT018 FEW030CB BKN090 24/23 Q1005 TEMPO 0800 +RA=
202510011430 METAR VABB 011430Z 21004KT 3000 DZ SCT018 FEW030CB BKN090 25/24 Q1005 TEMPO 1500 RA=
202510011500 METAR VABB 011500Z 15005KT 2500 -DZ FEW012 SCT018 FEW030CB BKN090 25/23 Q1006 TEMPO 1500 SHRA=
202510011530 METAR VABB 011530Z 15008G18KT 2500 -DZ FEW012 SCT018 FEW030CB BKN090 25/23 Q1006 TEMPO 1500 SHRA=
202510011600 METAR VABB 011600Z 14003KT 2500 BR FEW012 SCT018 FEW025TCU BKN090 25/24 Q1006 NOSIG=
202510011630 METAR VABB 011630Z 12005KT 2500 BR SCT018 FEW025TCU BKN090 25/24 Q1006 NOSIG=
202510011700 METAR VABB 011700Z 14003KT 2500 BR SCT018 FEW025TCU BKN090 25/24 Q1006 NOSIG=
202510011730 METAR VABB 011730Z 17005KT 2500 BR SCT018 FEW025TCU BKN090 25/23 Q1006 NOSIG=
202510011800 METAR VABB 011800Z 16003KT 2500 BR SCT018 FEW025TCU BKN090 25/24 Q1006 NOSIG=
202510011830 METAR VABB 011830Z 12006KT 2500 BR SCT018 SCT025 BKN090 25/23 Q1006 NOSIG=
202510011900 METAR VABB 011900Z 11005KT 2500 BR SCT018 SCT025 BKN090 25/23 Q1005 NOSIG=
202510011930 METAR VABB 011930Z 11006KT 2500 BR SCT018 SCT025 BKN090 25/23 Q1005 NOSIG=
202510012000 METAR VABB 012000Z 12006KT 2500 BR SCT018 SCT025 BKN090 25/23 Q1005 NOSIG=
202510012030 METAR VABB 012030Z 12006KT 2500 BR SCT018 SCT025 BKN090 25/23 Q1004 NOSIG=
202510012100 METAR VABB 012100Z 12005KT 2500 BR SCT018 SCT025 BKN090 25/23 Q1004 NOSIG=
202510012130 METAR VABB 012130Z 12008G18KT 2500 BR SCT018 FEW025TCU BKN090 25/23 Q1004 NOSIG=
202510012200 METAR VABB 012200Z 12006KT 2500 BR SCT018 FEW030CB BKN090 25/23 Q1004 TEMPO 1500 SHRA=
202510012230 METAR VABB 012230Z 25013KT 2100 -RA FEW012 SCT018 FEW030CB OVC080 25/23 Q1004 TEMPO 1500 SHRA=
202510012300 METAR VABB 012300Z 24008G18KT 2100 -RA FEW012 SCT018 FEW025TCU OVC080 23/23 Q1005 TEMPO 1500 SHRA=
202510012330 METAR VABB 012330Z 26006KT 2500 DZ FEW012 SCT018 FEW025TCU OVC080 24/23 Q1005 TEMPO 1500 SHRA=
202510020000 METAR VABB 020000Z 24003KT 2500 BR SCT018 FEW025TCU BKN090 24/23 Q1005 TEMPO 1500 SHRA=
202510020030 METAR VABB 020030Z 00000KT 2500 BR FEW012 SCT018 FEW030CB BKN090 24/23 Q1005 TEMPO 1500 SHRA=
202510020100 METAR VABB 020100Z 26006KT 2100 -RA FEW012 SCT018 FEW030CB OVC080 24/23 Q1006 TEMPO 1500 SHRA=
202510020130 METAR VABB 020130Z 23003KT 2500 DZ FEW010 SCT018 FEW030CB OVC080 25/23 Q1006 TEMPO 1500 SHRA=
202510020200 METAR VABB 020200Z 17003KT 2500 DZ FEW010 SCT018 FEW030CB OVC080 25/24 Q1007 TEMPO 1500 SHRA=
202510020230 METAR VABB 020230Z 14003KT 2500 BR FEW010 SCT018 FEW025TCU BKN090 25/23 Q1007 TEMPO 1500 SHRA=
202510020300 METAR VABB 020300Z 11008KT 2500 BR FEW010 SCT018 FEW025TCU BKN090 25/24 Q1007 TEMPO 1500 SHRA=
202510020330 METAR VABB 020330Z 12007KT 2500 BR SCT018 FEW025TCU BKN090 26/24 Q1007 BECMG 3000 BR=
202510020400 METAR VABB 020400Z 13007KT 3000 BR SCT018 FEW025TCU BKN090 27/24 Q1008 NOSIG=
202510020430 METAR VABB 020430Z 15008G19KT 3000 BR SCT018 FEW025TCU BKN090 28/24 Q1008 NOSIG=
202510020500 METAR VABB 020500Z 15011KT 3500 HZ SCT018 FEW025TCU BKN090 29/24 Q1008 NOSIG=
202510020530 METAR VABB 020530Z 19011G26KT 4000 HZ SCT018 FEW025TCU BKN090 29/24 Q1008 NOSIG=
202510020600 METAR VABB 020600Z 18012G22KT 4000 HZ SCT018 SCT025 BKN100 29/24 Q1008 NOSIG=
202510020630 METAR VABB 020630Z 17011KT 4000 HZ FEW020 SCT025 BKN100 29/24 Q1007 NOSIG=
202510020700 METAR VABB 020700Z 20012KT 4000 HZ FEW020 SCT025 BKN100 30/24 Q1007 NOSIG=
202510020730 METAR VABB 020730Z 17013KT 4000 HZ FEW020 SCT025 BKN100 30/24 Q1007 NOSIG=
202510020800 METAR VABB 020800Z 17010KT 4000 HZ FEW020 SCT025 BKN100 30/24 Q1006 NOSIG=
202510020830 METAR VABB 020830Z 20011KT 4000 HZ SCT020 SCT025 BKN100 30/24 Q1006 NOSIG=
202510020900 METAR VABB 020900Z 19011KT 4000 HZ SCT020 FEW025TCU BKN100 30/24 Q1006 NOSIG=
202510020930 METAR VABB 020930Z 19012KT 4000 HZ SCT020 FEW025TCU BKN100 30/24 Q1005 NOSIG=
202510021000 METAR VABB 021000Z 18014KT 4000 HZ SCT020 FEW025TCU BKN100 29/25 Q1005 TEMPO 1500 SHRA=
202510021030 METAR VABB 021030Z 19011G22KT 4000 HZ SCT020 FEW025TCU BKN100 29/23 Q1005 NOSIG=
202510021100 METAR VABB 021100Z 19009KT 4000 -RA SCT020 FEW025TCU BKN100 28/25 Q1006 TEMPO 1500 SHRA=
202510021130 METAR VABB 021130Z 20010KT 3500 -RA FEW012 SCT018 FEW025TCU BKN100 28/25 Q1006 NOSIG=
202510021200 METAR VABB 021200Z 20008G22KT 3500 BR FEW012 SCT018 FEW025TCU BKN100 28/25 Q1006 TEMPO 1500 SHRA=
202510021230 METAR VABB 021230Z 23014KT 2500 -RA FEW012 SCT018 FEW030CB BKN100 26/24 Q1007 TEMPO 1500 SHRA=
202510021300 METAR VABB 021300Z 19009G19KT 2500 -RA FEW012 SCT018 FEW030CB BKN100 27/24 Q1007 TEMPO 1500 SHRA=
202510021330 METAR COR VABB 021330Z 18011KT 2500 -RA FEW012 SCT018 FEW025TCU BKN100 25/24 Q1008 TEMPO 1500 SHRA=
202510021400 METAR VABB 021400Z 18007KT 2500 -RA FEW012 SCT018 FEW025TCU BKN100 25/24 Q1008 NOSIG=
202510021430 METAR VABB 021430Z 16005KT 3000 DZ FEW012 SCT018 FEW025TCU BKN100 25/24 Q1008 NOSIG=
202510021500 METAR VABB 021500Z 16005KT 3000 DZ FEW012 SCT018 FEW025TCU BKN100 26/24 Q1009 NOSIG=
202510021530 METAR VABB 021530Z 13006KT 3000 BR FEW012 SCT018 FEW025TCU BKN100 26/24 Q1009 NOSIG=
202510021600 METAR VABB 021600Z 16006KT 3000 BR SCT018 FEW025TCU BKN100 26/24 Q1009 NOSIG=
202510021630 METAR VABB 021630Z 13005KT 3000 BR SCT018 FEW025TCU BKN100 26/24 Q1009 NOSIG=
202510021700 METAR VABB 021700Z 12005KT 3000 BR SCT018 FEW025TCU BKN100 26/24 Q1009 NOSIG=
202510021730 METAR VABB 021730Z 23006KT 3000 -SHRA SCT018 FEW025TCU BKN100 26/24 Q1009 NOSIG=
202510021800 METAR VABB 021800Z 14006KT 3000 BR SCT018 FEW025TCU BKN100 26/24 Q1009 NOSIG=
202510021830 METAR VABB 021830Z 11006KT 3000 BR SCT018 FEW025TCU BKN100 25/24 Q1008 NOSIG=
202510021900 METAR VABB 021900Z 13004KT 3000 BR FEW018 SCT025 BKN100 26/24 Q1008 NOSIG=
202510021930 METAR VABB 021930Z 12004KT 3000 BR FEW018 SCT025 BKN100 25/24 Q1008 NOSIG=
202510022000 METAR VABB 022000Z 12006KT 3000 BR FEW018 SCT025 BKN100 26/24 Q1008 NOSIG=
202510022030 METAR VABB 022030Z 13005KT 3000 BR FEW018 SCT025 BKN100 26/24 Q1008 NOSIG=
202510022100 METAR VABB 022100Z 11008KT 3000 BR FEW018 SCT025 BKN100 26/24 Q1008 NOSIG=
202510022130 METAR VABB 022130Z 11006KT 3000 BR FEW018 SCT025 BKN100 25/24 Q1008 NOSIG=
202510022200 METAR VABB 022200Z 10006KT 3000 BR FEW018 SCT025 BKN100 25/24 Q1007 NOSIG=
202510022230 METAR VABB 022230Z 12005KT 3000 BR FEW020 SCT025 BKN100 25/24 Q1007 NOSIG=
202510022300 METAR VABB 022300Z 12006KT 3000 BR FEW020 SCT025 BKN100 26/24 Q1007 NOSIG=
202510022330 METAR VABB 022330Z 11006KT 3000 BR FEW020 SCT025 BKN100 26/24 Q1007 NOSIG=
202510030000 METAR VABB 030000Z 12005KT 3000 BR FEW020 SCT025 BKN100 26/24 Q1008 NOSIG=
202510030030 METAR VABB 030030Z 16003KT 3000 BR FEW020 SCT025 BKN100 26/24 Q1008 TEMPO 1500 BR=
202510030100 METAR VABB 030100Z 14003KT 3000 BR FEW020 SCT025 BKN100 26/24 Q1009 NOSIG=
202510030130 METAR VABB 030130Z 11006KT 3000 BR FEW020 FEW025TCU BKN100 26/24 Q1009 NOSIG=
202510030200 METAR VABB 030200Z 12006KT 3000 BR FEW020 SCT025 FEW030CB BKN100 26/24 Q1009 NOSIG=
202510030230 METAR VABB 030230Z 15004KT 3000 BR FEW020 SCT025 FEW030CB BKN100 27/24 Q1010 NOSIG=
202510030300 METAR VABB 030300Z 17007KT 3000 BR FEW020 SCT025 BKN100 27/24 Q1010 NOSIG=
202510030330 METAR VABB 030330Z 20007KT 3000 BR FEW020 FEW025TCU BKN100 28/24 Q1010 NOSIG=
202510030400 METAR VABB 030400Z 17008KT 3000 BR FEW020 FEW025TCU BKN100 29/24 Q1010 NOSIG=
202510030430 METAR VABB 030430Z 19009G19KT 3500 BR FEW020 SCT025 BKN100 29/24 Q1010 NOSIG=
202510030500 METAR VABB 030500Z 19010G20KT 3500 HZ FEW020 SCT025 BKN100 29/24 Q1011 NOSIG=
202510030530 METAR VABB 030530Z 18011G21KT 3500 HZ SCT018 SCT025 BKN100 30/24 Q1011 NOSIG=
202510030600 METAR VABB 030600Z 19012KT 3500 HZ SCT018 SCT025 BKN100 30/24 Q1010 NOSIG=
202510030630 METAR VABB 030630Z 19012G22KT 3500 HZ SCT018 SCT025 BKN100 30/24 Q1010 NOSIG=
202510030700 METAR VABB 030700Z 18011G21KT 3500 HZ FEW020 SCT025 BKN100 30/24 Q1010 NOSIG=
202510030730 METAR VABB 030730Z 21008KT 4000 HZ SCT020 SCT025 BKN100 30/24 Q1010 NOSIG=
202510030800 METAR VABB 030800Z 21009KT 4000 HZ SCT020 SCT025 BKN100 30/24 Q1009 NOSIG=
202510030830 METAR VABB 030830Z 22010KT 4000 HZ SCT020 SCT025 BKN100 30/24 Q1009 NOSIG=
202510030900 METAR VABB 030900Z 24010KT 4000 HZ SCT020 SCT025 BKN100 30/23 Q1009 BECMG 5000 HZ=
202510030930 METAR VABB 030930Z 25010KT 5000 HZ SCT020 SCT025 BKN100 30/23 Q1009 NOSIG=
202510031000 METAR VABB 031000Z 24009KT 5000 HZ SCT020 FEW025TCU BKN100 30/24 Q1008 NOSIG=
202510031030 METAR VABB 031030Z 24010KT 5000 HZ SCT020 FEW025TCU BKN100 29/24 Q1009 NOSIG=
202510031100 METAR VABB 031100Z 24011KT 5000 HZ SCT020 FEW025TCU BKN100 29/24 Q1009 NOSIG=
202510031130 METAR VABB 031130Z 24009KT 5000 HZ SCT020 FEW025TCU BKN100 29/24 Q1009 NOSIG=
202510031200 METAR VABB 031200Z 23008KT 5000 HZ SCT020 FEW025TCU BKN100 29/24 Q1009 NOSIG=
202510031230 METAR VABB 031230Z 24006KT 5000 HZ FEW020 SCT025 BKN100 29/24 Q1009 NOSIG=
202510031300 METAR VABB 031300Z 24006KT 4000 HZ FEW020 SCT025 28/23 Q1009 NOSIG=
202510031330 METAR VABB 031330Z 22008KT 4000 HZ FEW020 SCT025 28/24 Q1009 NOSIG=
202510031400 METAR VABB 031400Z 23007KT 4000 HZ FEW020 SCT025 28/24 Q1010 NOSIG=
202510031430 METAR VABB 031430Z 22006KT 4000 HZ FEW020 SCT025 28/24 Q1010 BECMG 3000 BR=
202510031500 METAR VABB 031500Z 20006KT 4000 HZ FEW020 SCT025 28/24 Q1011 NOSIG=
202510031530 METAR VABB 031530Z 19005KT 3000 BR FEW020 SCT025 28/25 Q1011 NOSIG=
202510031600 METAR VABB 031600Z 20004KT 3000 BR FEW020 SCT025 28/25 Q1011 NOSIG=
202510031630 METAR VABB 031630Z 21003KT 3000 BR FEW020 SCT025 28/25 Q1012 NOSIG=
202510031700 METAR VABB 031700Z 22003KT 3000 BR FEW020 SCT025 28/25 Q1012 NOSIG=
202510031730 METAR VABB 031730Z 23004KT 3000 BR FEW020 SCT025 28/25 Q1011 NOSIG=
202510031800 METAR VABB 031800Z 22004KT 3000 BR FEW020 SCT025 28/25 Q1011 NOSIG=
202510031830 METAR VABB 031830Z 17006KT 3000 BR FEW020 SCT025 27/24 Q1011 NOSIG=
202510031900 METAR VABB 031900Z 15004KT 3000 BR FEW020 SCT025 27/25 Q1011 NOSIG=
202510031930 METAR VABB 031930Z 00000KT 3000 BR FEW020 SCT025 27/25 Q1011 NOSIG=
202510032000 METAR VABB 032000Z 12004KT 3000 BR FEW020 SCT025 27/25 Q1010 NOSIG=
202510032030 METAR VABB 032030Z 00000KT 3000 BR FEW018 FEW025TCU BKN100 27/25 Q1010 TEMPO 1500 SHRA=
202510032100 METAR VABB 032100Z 12004KT 2500 -RA FEW012 SCT018 FEW025TCU BKN100 27/25 Q1010 NOSIG=
202510032130 METAR VABB 032130Z 09005KT 2500 BR SCT018 FEW025TCU BKN100 27/25 Q1010 NOSIG=
202510032200 METAR VABB 032200Z 11005KT 2500 BR SCT018 SCT025 BKN100 27/25 Q1010 NOSIG=
202510032230 METAR VABB 032230Z 11005KT 2500 BR SCT018 SCT025 BKN100 26/25 Q1010 NOSIG=
202510032300 METAR VABB 032300Z 13006KT 2500 BR SCT018 SCT025 BKN100 26/24 Q1010 NOSIG=
202510032330 METAR VABB 032330Z 14004KT 2500 BR SCT018 SCT025 BKN100 26/24 Q1010 NOSIG=
202510040000 METAR VABB 040000Z 14003KT 2500 BR SCT018 SCT025 BKN100 26/24 Q1010 NOSIG=
202510040030 METAR VABB 040030Z 13003KT 2500 BR SCT018 SCT025 BKN100 26/24 Q1010 NOSIG=
202510040100 METAR VABB 040100Z 12004KT 2500 BR FEW018 BKN100 26/24 Q1011 NOSIG=
202510040130 METAR VABB 040130Z 12003KT 2500 BR FEW020 BKN100 26/24 Q1011 BECMG 3000 BR=
202510040200 METAR VABB 040200Z 13004KT 3000 BR FEW025 BKN100 26/25 Q1011 NOSIG=
202510040230 METAR VABB 040230Z 11006KT 3000 BR SCT025 BKN100 27/25 Q1012 NOSIG=
202510040300 METAR VABB 040300Z 14005KT 3000 BR SCT025 BKN100 27/25 Q1012 NOSIG=
202510040330 METAR VABB 040330Z 17005KT 3000 BR SCT020 BKN100 28/25 Q1012 NOSIG=
202510040400 METAR VABB 040400Z 19008KT 3500 HZ SCT025 BKN100 29/25 Q1013 NOSIG=
202510040430 METAR VABB 040430Z 20008KT 3500 HZ SCT025 BKN100 30/25 Q1013 NOSIG=
202510040500 METAR VABB 040500Z 18010KT 4000 HZ SCT025 BKN100 30/24 Q1013 NOSIG=
202510040530 METAR VABB 040530Z 20008G22KT 5000 HZ FEW020 SCT025 29/25 Q1012 NOSIG=
202510040600 METAR VABB 040600Z 19009G23KT 5000 HZ FEW020 SCT025 30/24 Q1012 NOSIG=
202510040630 METAR VABB 040630Z 24009KT 5000 HZ FEW020 SCT025 30/24 Q1011 NOSIG=
202510040700 METAR VABB 040700Z 25008KT 5000 HZ FEW020 SCT025 31/24 Q1011 NOSIG=
202510040730 METAR VABB 040730Z 26011KT 5000 HZ FEW025 SCT025 31/24 Q1010 NOSIG=
202510040800 METAR VABB 040800Z 26012KT 5000 HZ FEW025 SCT025 31/24 Q1010 NOSIG=
202510040830 METAR VABB 040830Z 26010KT 5000 HZ FEW025 SCT025 31/24 Q1010 NOSIG=
202510040900 METAR VABB 040900Z 25010KT 5000 HZ FEW025 SCT025 31/24 Q1009 NOSIG=
202510040930 METAR VABB 040930Z 25010KT 5000 HZ FEW025 SCT025 31/24 Q1009 NOSIG=
202510041000 METAR VABB 041000Z 25013KT 5000 HZ FEW025 SCT025 30/24 Q1008 NOSIG=
202510041030 METAR VABB 041030Z 25012KT 5000 HZ FEW020 SCT025 30/23 Q1008 NOSIG=
202510041100 METAR VABB 041100Z 25012KT 5000 HZ FEW020 SCT025 30/24 Q1008 NOSIG=
202510041130 METAR VABB 041130Z 24009KT 4000 HZ FEW020 SCT025 29/24 Q1009 NOSIG=
202510041200 METAR VABB 041200Z 24011KT 4000 HZ FEW020 SCT025 29/25 Q1009 NOSIG=
202510041230 METAR VABB 041230Z 26010KT 4000 HZ SCT020 FEW025TCU BKN100 28/24 Q1009 NOSIG=
202510041300 METAR VABB 041300Z 27011KT 3000 HZ SCT020 FEW025TCU BKN100 28/24 Q1010 NOSIG=
202510041330 METAR VABB 041330Z 27014KT 3000 HZ SCT020 FEW025TCU BKN100 26/23 Q1010 NOSIG=
202510041400 METAR VABB 041400Z 29014KT 3000 HZ SCT020 FEW025TCU BKN100 26/23 Q1011 NOSIG=
202510041430 METAR VABB 041430Z 34005KT 3000 HZ SCT020 FEW025TCU BKN100 26/22 Q1011 NOSIG=
202510041500 METAR VABB 041500Z 36006KT 3000 HZ SCT020 FEW025TCU BKN100 26/22 Q1011 NOSIG=
202510041530 METAR VABB 041530Z 01004KT 3000 HZ FEW020 SCT025 26/22 Q1012 NOSIG=
202510041600 METAR VABB 041600Z 00000KT 3000 HZ FEW020 SCT025 27/22 Q1012 NOSIG=
202510041630 METAR VABB 041630Z 23003KT 3000 HZ FEW020 SCT025 27/22 Q1012 NOSIG=
202510041700 METAR VABB 041700Z 16004KT 3000 HZ FEW020 SCT025 27/23 Q1012 NOSIG=
202510041730 METAR VABB 041730Z 15005KT 3000 HZ FEW020 SCT025 27/23 Q1012 NOSIG=
202510041800 METAR VABB 041800Z 15003KT 3000 HZ FEW020 SCT025 27/23 Q1012 NOSIG=
202510041830 METAR VABB 041830Z 14004KT 3000 HZ FEW020 SCT025 26/23 Q1011 NOSIG=
202510041900 METAR VABB 041900Z 15004KT 3000 HZ FEW020 SCT025 27/23 Q1011 NOSIG=
202510041930 METAR VABB 041930Z 15005KT 3000 HZ FEW020 SCT025 26/23 Q1011 NOSIG=
202510042000 METAR VABB 042000Z 16003KT 3000 HZ FEW020 SCT025 26/23 Q1011 NOSIG=
202510042030 METAR VABB 042030Z 00000KT 3000 HZ FEW020 SCT025 27/23 Q1010 NOSIG=
202510042100 METAR VABB 042100Z 12004KT 3000 BR FEW020 SCT025 26/23 Q1010 NOSIG=
202510042130 METAR VABB 042130Z 00000KT 3000 BR FEW020 SCT025 26/23 Q1010 NOSIG=
202510042200 METAR VABB 042200Z 12003KT 3000 BR FEW020 SCT025 26/23 Q1010 NOSIG=
202510042230 METAR VABB 042230Z 00000KT 3000 BR FEW020 SCT025 BKN100 26/24 Q1010 NOSIG=
202510042300 METAR VABB 042300Z 15003KT 3000 BR SCT020 FEW025TCU BKN100 26/24 Q1009 NOSIG=
202510042330 METAR VABB 042330Z 00000KT 3000 BR SCT020 FEW025TCU BKN100 26/24 Q1009 NOSIG=
202510050000 METAR VABB 050000Z 14003KT 3000 BR FEW020 SCT025 BKN100 26/24 Q1010 NOSIG=
202510050030 METAR VABB 050030Z 00000KT 3000 BR FEW020 SCT025 BKN100 26/24 Q1010 NOSIG=
202510050100 METAR VABB 050100Z 00000KT 2500 BR FEW020 SCT025 BKN100 26/24 Q1010 TEMPO 1500 BR=
202510050130 METAR VABB 050130Z 00000KT 2100 BR FEW020 SCT025 26/24 Q1011 NOSIG=
202510050200 METAR VABB 050200Z 11005KT 2100 BR SCT020 SCT025 26/24 Q1011 NOSIG=
202510050230 METAR VABB 050230Z 12005KT 2500 BR SCT018 SCT025 26/24 Q1011 NOSIG=
202510050300 METAR VABB 050300Z 14004KT 2500 BR SCT018 SCT025 27/24 Q1012 NOSIG=
202510050330 METAR VABB 050330Z 12005KT 2500 -RA SCT018 SCT025 26/24 Q1012 NOSIG=
202510050400 METAR VABB 050400Z 13005KT 2500 BR SCT018 SCT025 27/25 Q1013 NOSIG=
202510050430 METAR VABB 050430Z 00000KT 2500 BR SCT018 FEW025TCU BKN100 29/25 Q1012 NOSIG=
202510050500 METAR VABB 050500Z 18003KT 2500 BR SCT018 FEW025TCU BKN100 28/24 Q1012 NOSIG=
202510050530 METAR VABB 050530Z 27012KT 2500 -RA SCT018 FEW025TCU BKN100 28/23 Q1012 NOSIG=
202510050600 METAR VABB 050600Z 24010KT 2500 -RA SCT018 FEW025TCU BKN100 27/23 Q1012 NOSIG=
202510050630 METAR VABB 050630Z 23010KT 2500 -RA SCT018 FEW025TCU BKN100 26/23 Q1012 NOSIG=
202510050700 METAR VABB 050700Z 24005KT 3000 BR SCT018 FEW025TCU BKN100 27/22 Q1012 NOSIG=
202510050730 METAR VABB 050730Z 24005KT 3000 BR SCT018 FEW025TCU BKN100 28/22 Q1011 NOSIG=
202510050800 METAR VABB 050800Z 27005KT 3000 BR SCT018 FEW025TCU BKN100 29/23 Q1011 NOSIG=
202510050830 METAR VABB 050830Z 25007KT 3000 BR SCT018 FEW025TCU BKN100 29/24 Q1010 NOSIG=
202510050900 METAR VABB 050900Z 24007KT 3000 HZ SCT018 FEW025TCU BKN100 28/23 Q1010 NOSIG=
202510050930 METAR VABB 050930Z 24006KT 3000 HZ SCT018 SCT025 BKN100 28/23 Q1010 NOSIG=
202510051000 METAR VABB 051000Z 22005KT 4000 HZ SCT020 SCT025 BKN100 29/23 Q1009 NOSIG=
202510051030 METAR VABB 051030Z 27007KT 4000 HZ SCT020 SCT025 BKN100 29/23 Q1009 NOSIG=
202510051100 METAR VABB 051100Z 29007KT 4000 HZ SCT020 SCT025 BKN100 29/23 Q1009 NOSIG=
202510051130 METAR VABB 051130Z 27008KT 4000 HZ SCT020 SCT025 BKN100 29/24 Q1009 NOSIG=
202510051200 METAR VABB 051200Z 26007KT 4000 HZ SCT020 FEW025TCU BKN100 28/24 Q1009 BECMG 3000 HZ=
202510051230 METAR VABB 051230Z 27006KT 4000 HZ SCT020 FEW025TCU BKN100 28/23 Q1009 NOSIG=
202510051300 METAR VABB 051300Z 25006KT 3000 HZ SCT020 FEW025TCU BKN100 28/23 Q1010 NOSIG=
202510051330 METAR VABB 051330Z 24006KT 3000 HZ SCT020 FEW025TCU BKN100 28/24 Q1010 NOSIG=
202510051400 METAR VABB 051400Z 24006KT 3000 HZ SCT020 FEW025TCU BKN100 28/24 Q1010 NOSIG=
202510051430 METAR VABB 051430Z 25007KT 3000 HZ SCT020 FEW025TCU BKN100 28/24 Q1010 NOSIG=
202510051500 METAR VABB 051500Z 25007KT 3000 HZ FEW020 SCT025 BKN100 28/23 Q1011 NOSIG=
202510051530 METAR VABB 051530Z 23005KT 3000 HZ FEW020 SCT025 BKN100 28/24 Q1011 NOSIG=
202510051600 METAR VABB 051600Z 23004KT 3000 HZ FEW020 SCT025 BKN100 28/24 Q1012 NOSIG=
202510051630 METAR VABB 051630Z 23004KT 3000 HZ FEW020 SCT025 BKN100 28/24 Q1012 NOSIG=
202510051700 METAR VABB 051700Z 16003KT 3000 BR FEW020 SCT025 BKN100 27/24 Q1012 NOSIG=
202510051730 METAR VABB 051730Z 17003KT 3000 BR FEW020 SCT025 BKN100 27/25 Q1012 NOSIG=
202510051800 METAR VABB 051800Z 15004KT 3000 BR FEW020 SCT025 BKN100 27/24 Q1012 NOSIG=
202510051830 METAR VABB 051830Z 13003KT 3000 BR FEW020 SCT025 26/24 Q1012 NOSIG=
202510051900 METAR VABB 051900Z 12005KT 3000 BR FEW020 SCT025 26/24 Q1012 NOSIG=
202510051930 METAR VABB 051930Z 12005KT 3000 BR FEW020 SCT025 26/24 Q1012 NOSIG=
202510052000 METAR VABB 052000Z 00000KT 3000 BR FEW020 SCT025 26/24 Q1011 NOSIG=
202510052030 METAR VABB 052030Z 13005KT 3000 BR FEW020 SCT025 26/24 Q1011 NOSIG=
202510052100 METAR VABB 052100Z 12003KT 3000 BR FEW020 SCT025 26/24 Q1011 NOSIG=
202510052130 METAR VABB 052130Z 12003KT 3000 BR FEW020 SCT025 26/24 Q1010 NOSIG=
202510052200 METAR VABB 052200Z 13004KT 3000 -RA FEW018 SCT025 25/24 Q1010 NOSIG=
202510052230 METAR VABB 052230Z 00000KT 3000 BR FEW018 SCT025 25/24 Q1010 NOSIG=
202510052300 METAR VABB 052300Z 13003KT 3000 BR FEW018 SCT025 26/24 Q1010 NOSIG=
202510052330 METAR VABB 052330Z 12005KT 3000 BR FEW018 SCT025 25/24 Q1010 NOSIG=
202510060000 METAR VABB 060000Z 12004KT 3000 BR FEW018 SCT025 25/24 Q1010 NOSIG=
202510060030 METAR VABB 060030Z 10005KT 3000 BR FEW018 SCT025 25/24 Q1011 NOSIG=
202510060100 METAR VABB 060100Z 11004KT 3000 -RA FEW018 SCT025 25/24 Q1011 NOSIG=
202510060130 METAR VABB 060130Z 12006KT 3000 BR FEW018 SCT025 25/24 Q1011 NOSIG=
202510060200 METAR VABB 060200Z 12006KT 2500 BR FEW018 SCT025 25/24 Q1012 NOSIG=
202510060230 METAR VABB 060230Z 12006KT 3000 BR FEW018 SCT025 26/24 Q1012 NOSIG=
202510060300 METAR VABB 060300Z 12006KT 3000 BR FEW020 SCT025 26/24 Q1013 NOSIG=
202510060330 METAR VABB 060330Z 11005KT 3000 BR FEW020 SCT025 27/24 Q1013 NOSIG=
202510060400 METAR VABB 060400Z 13004KT 3000 BR FEW020 SCT025 28/24 Q1013 NOSIG=
202510060430 METAR COR VABB 060430Z 15005KT 3000 BR FEW020 SCT025 28/24 Q1013 NOSIG=
202510060500 METAR VABB 060500Z 14006KT 3000 BR FEW020 SCT025 29/24 Q1013 NOSIG=
202510060530 METAR VABB 060530Z 19005KT 3500 HZ FEW020 SCT025 29/23 Q1013 NOSIG=
202510060600 METAR VABB 060600Z 24005KT 3500 HZ FEW020 FEW025TCU 30/23 Q1013 NOSIG=
202510060630 METAR VABB 060630Z 23008KT 3500 HZ FEW020 FEW025TCU 30/22 Q1012 NOSIG=
202510060700 METAR VABB 060700Z 23008KT 4000 HZ FEW020 SCT025 30/22 Q1012 NOSIG=
202510060730 METAR VABB 060730Z 23008KT 4000 HZ FEW020 SCT025 30/23 Q1011 NOSIG=
202510060800 METAR VABB 060800Z 22010G22KT 4000 HZ FEW020 SCT025 30/22 Q1011 BECMG 5000 HZ=
202510060830 METAR VABB 060830Z 24010KT 5000 HZ FEW020 SCT025 31/22 Q1011 NOSIG=
202510060900 METAR VABB 060900Z 22009KT 5000 HZ FEW020 SCT025 31/22 Q1010 NOSIG=
202510060930 METAR VABB 060930Z 23009KT 5000 HZ FEW020 SCT025 31/23 Q1010 NOSIG=
202510061000 METAR VABB 061000Z 25009KT 5000 HZ FEW020 SCT025 30/23 Q1010 NOSIG=
202510061030 METAR VABB 061030Z 25009KT 6000 FEW020 SCT025 30/24 Q1009 NOSIG=
202510061100 METAR VABB 061100Z 25011KT 6000 FEW020 SCT025 29/23 Q1010 NOSIG=
202510061130 METAR VABB 061130Z 23011KT 6000 FEW020 SCT025 BKN100 29/23 Q1010 NOSIG=
202510061200 METAR VABB 061200Z 25010KT 6000 FEW020 SCT025 BKN100 29/23 Q1010 NOSIG=
202510061230 METAR VABB 061230Z 24009KT 6000 FEW020 SCT025 28/23 Q1010 BECMG 5000 HZ=
202510061300 METAR VABB 061300Z 24008KT 5000 HZ FEW020 SCT025 28/23 Q1010 NOSIG=
202510061330 METAR VABB 061330Z 24008KT 4000 HZ FEW020 SCT025 BKN100 28/24 Q1010 NOSIG=
202510061400 METAR VABB 061400Z 19006KT 4000 HZ FEW020 SCT025 BKN100 27/24 Q1011 NOSIG=
202510010000 METAR VABB NIL=
202510061430 METAR VABB 061430Z 24008KT 4000 HZ FEW020 SCT025 28/24 Q1011 NOSIG=
202510061500 METAR VABB 061500Z 24007KT 4000 HZ FEW020 SCT025 28/23 Q1012 NOSIG=
202510061530 METAR VABB 061530Z 23006KT 4000 HZ FEW020 SCT025 28/24 Q1012 NOSIG=
202510061600 METAR VABB 061600Z 24006KT 4000 HZ FEW020 SCT025 28/23 Q1012 NOSIG=
202510061630 METAR VABB 061630Z 25006KT 4000 HZ FEW020 SCT025 28/23 Q1012 BECMG 3000 HZ=
202510061700 METAR VABB 061700Z 22004KT 3000 HZ FEW020 SCT025 27/23 Q1012 NOSIG=
202510061730 METAR VABB 061730Z 24003KT 3000 BR FEW020 SCT025 27/24 Q1012 NOSIG=
202510061800 METAR VABB 061800Z 24005KT 3000 BR FEW020 SCT025 27/23 Q1012 NOSIG=
202510061830 METAR VABB 061830Z 23004KT 3000 BR FEW020 SCT025 27/23 Q1012 NOSIG=
202510061900 METAR VABB 061900Z 20003KT 3000 BR FEW020 SCT025 27/24 Q1012 NOSIG=
202510061930 METAR VABB 061930Z 14005KT 3000 BR FEW020 SCT025 27/25 Q1011 NOSIG=
202510062000 METAR VABB 062000Z 17006KT 3000 BR FEW020 SCT025 26/23 Q1011 NOSIG=
202510062030 METAR VABB 062030Z 16005KT 3000 BR FEW020 SCT025 26/22 Q1011 NOSIG=
202510062100 METAR VABB 062100Z 16005KT 3000 BR FEW020 SCT025 26/23 Q1011 NOSIG=
202510062130 METAR VABB 062130Z 12004KT 3000 BR FEW020 SCT025 26/24 Q1011 NOSIG=
202510062200 METAR VABB 062200Z 00000KT 3000 -RA SCT018 SCT025 26/24 Q1010 NOSIG=
202510062230 METAR VABB 062230Z 00000KT 3000 BR SCT018 SCT025 25/24 Q1010 NOSIG=
202510062300 METAR VABB 062300Z 16003KT 3000 BR FEW018 SCT025 26/23 Q1010 NOSIG=
202510062330 METAR VABB 062330Z 13005KT 3000 BR FEW018 SCT025 26/24 Q1010 NOSIG=
202510070000 METAR VABB 070000Z 00000KT 3000 BR FEW020 SCT025 26/24 Q1010 NOSIG=
202510070030 METAR VABB 070030Z 12006KT 3000 BR FEW020 SCT025 26/24 Q1011 NOSIG=
202510070100 METAR VABB 070100Z 13004KT 3000 BR FEW020 SCT025 25/24 Q1011 TEMPO 1500 BR=
202510070130 METAR VABB 070130Z 12004KT 3000 BR FEW020 SCT025 BKN100 26/24 Q1012 NOSIG=
202510070200 METAR VABB 070200Z 12005KT 3000 BR FEW020 SCT025 BKN100 26/24 Q1012 NOSIG=
202510070230 METAR VABB 070230Z 13005KT 2500 BR FEW020 SCT025 BKN100 26/24 Q1012 NOSIG=
202510070300 METAR VABB 070300Z 14005KT 2500 BR FEW020 SCT025 BKN100 27/24 Q1013 NOSIG=
202510070330 METAR VABB 070330Z 12003KT 2500 BR FEW020 SCT025 BKN100 28/24 Q1013 BECMG 3000 BR=
202510070400 METAR VABB 070400Z 16003KT 3000 BR FEW020 SCT025 BKN100 28/24 Q1013 NOSIG=
202510070430 METAR VABB 070430Z 13006KT 3000 VCSH FEW020 SCT025 BKN100 28/24 Q1013 NOSIG=
202510070500 METAR VABB 070500Z 17005KT 3000 VCSH SCT018 FEW025TCU BKN090 28/24 Q1013 TEMPO 1500 SHRA=
202510070530 METAR VABB 070530Z 11003KT 3000 -RA SCT018 FEW025TCU BKN090 28/24 Q1013 TEMPO 1500 SHRA=
202510070600 METAR VABB 070600Z 15003KT 3000 VCSH SCT018 FEW025TCU BKN090 28/24 Q1013 TEMPO 1500 SHRA=
202510070630 METAR VABB 070630Z 16004KT 2500 BR SCT018 SCT025 BKN090 29/24 Q1012 NOSIG=
202510070700 METAR VABB 070700Z 27009KT 2800 HZ SCT018 FEW025TCU BKN090 30/24 Q1012 BECMG 3000 HZ=
202510070730 METAR VABB 070730Z 25009KT 3000 HZ SCT018 FEW025TCU BKN090 31/23 Q1011 NOSIG=
202510070800 METAR VABB 070800Z 28008KT 4000 HZ SCT018 FEW025TCU BKN090 30/23 Q1011 NOSIG=
202510070830 METAR VABB 070830Z 28011KT 4000 HZ FEW020 SCT025 BKN090 30/24 Q1011 NOSIG=
202510070900 METAR VABB 070900Z 26009KT 4000 HZ FEW020 SCT025 BKN090 30/24 Q1010 NOSIG=
202510070930 METAR VABB 070930Z 28011KT 4000 HZ FEW020 SCT025 BKN100 30/24 Q1010 NOSIG=
202510071000 METAR VABB 071000Z 27009KT 4000 HZ FEW020 SCT025 BKN100 30/25 Q1010 BECMG 5000 HZ=
202510071030 METAR VABB 071030Z 28011KT 5000 HZ FEW020 SCT025 BKN100 30/25 Q1010 NOSIG=
202510071100 METAR VABB 071100Z 28009KT 5000 HZ FEW020 SCT025 BKN100 30/24 Q1010 NOSIG=
202510071130 METAR VABB 071130Z 29010KT 5000 HZ FEW020 SCT025 BKN100 30/24 Q1010 NOSIG=
202510071200 METAR VABB 071200Z 29010KT 5000 HZ FEW020 SCT025 BKN100 29/24 Q1010 BECMG 3000 HZ=
202510071230 METAR VABB 071230Z 30008KT 5000 HZ FEW020 SCT025 BKN100 29/24 Q1010 NOSIG=
202510071300 METAR VABB 071300Z 31007KT 4000 HZ FEW020 SCT025 BKN100 28/23 Q1010 NOSIG=
202510071330 METAR VABB 071330Z 29007KT 4000 HZ FEW020 SCT025 BKN100 28/24 Q1011 NOSIG=
202510071400 METAR VABB 071400Z 32006KT 4000 HZ FEW020 SCT025 BKN100 28/24 Q1011 NOSIG=
202510071430 METAR VABB 071430Z 34003KT 4000 HZ FEW020 SCT025 BKN100 28/24 Q1011 NOSIG=
202510071500 METAR VABB 071500Z 01004KT 4000 HZ FEW020 SCT025 BKN100 28/24 Q1012 NOSIG=
202510071530 METAR VABB 071530Z 34003KT 4000 HZ FEW020 SCT025 BKN100 28/24 Q1012 NOSIG=
202510071600 METAR VABB 071600Z 00000KT 4000 HZ FEW020 SCT100 28/24 Q1012 NOSIG=
202510071630 METAR VABB 071630Z 35003KT 4000 HZ FEW020 SCT100 28/24 Q1012 NOSIG=
202510071700 METAR VABB 071700Z 36003KT 4000 HZ FEW020 SCT100 28/24 Q1012 NOSIG=
202510071730 METAR VABB 071730Z 01004KT 4000 HZ FEW020 SCT100 28/24 Q1012 NOSIG=
202510071800 METAR VABB 071800Z 00000KT 3500 HZ FEW020 SCT100 27/24 Q1012 NOSIG=
202510071830 METAR VABB 071830Z 03003KT 3500 BR FEW020 SCT100 27/24 Q1012 NOSIG=
202510071900 METAR VABB 071900Z 00000KT 3500 BR FEW020 SCT100 27/24 Q1012 NOSIG=
202510071930 METAR VABB 071930Z 17003KT 3500 BR FEW020 SCT100 27/24 Q1011 NOSIG=
202510072000 METAR VABB 072000Z 00000KT 3500 BR FEW020 SCT100 27/24 Q1011 BECMG 3000 BR=
202510072030 METAR VABB 072030Z 04004KT 3000 BR FEW020 SCT100 27/24 Q1011 NOSIG=
202510072100 METAR VABB 072100Z 05003KT 3000 BR FEW020 SCT100 27/24 Q1011 NOSIG=
202510072130 METAR VABB 072130Z 06004KT 3000 BR FEW020 SCT100 27/24 Q1011 NOSIG=
202510072200 METAR VABB 072200Z 06003KT 3000 BR FEW020 SCT100 27/24 Q1011 NOSIG=
202510072230 METAR VABB 072230Z 06004KT 3000 BR FEW020 SCT100 26/24 Q1011 NOSIG=
202510072300 METAR VABB 072300Z 06004KT 3000 BR FEW020 SCT100 26/24 Q1011 NOSIG=
202510072330 METAR VABB 072330Z 08004KT 3000 BR FEW020 SCT100 26/24 Q1011 NOSIG=
202510080000 METAR VABB 080000Z 13005KT 3000 BR FEW020 SCT100 26/24 Q1011 NOSIG=
202510080030 METAR VABB 080030Z 12004KT 3000 BR FEW020 SCT100 26/24 Q1011 NOSIG=
202510080100 METAR VABB 080100Z 10005KT 2500 BR FEW020 SCT100 25/24 Q1011 TEMPO 1500 BR=
202510080125 METAR VABB 080125Z 10005KT 1500 R27/P2000 BR FEW020 SCT100 25/24 Q1012 TEMPO 0800 BR=
202510080200 METAR VABB 080200Z 08006KT 1500 R27/P2000 BR FEW020 SCT100 26/24 Q1012 NOSIG=
202510080230 METAR VABB 080230Z 07007KT 2500 BR FEW020 27/24 Q1012 NOSIG=
202510080300 METAR VABB 080300Z 07006KT 2500 BR FEW020 SCT025 28/24 Q1012 BECMG 3000 BR=
202510080330 METAR VABB 080330Z 07006KT 3000 BR FEW020 SCT025 29/24 Q1013 NOSIG=
202510080400 METAR VABB 080400Z 06006KT 3500 BR SCT020 SCT025 30/24 Q1013 NOSIG=
202510080430 METAR VABB 080430Z 03005KT 3500 HZ SCT020 SCT025 29/24 Q1013 NOSIG=
202510080500 METAR VABB 080500Z 04005KT 4000 HZ SCT020 SCT025 30/24 Q1013 NOSIG=
202510080530 METAR VABB 080530Z 35004KT 4500 HZ FEW020 SCT025 31/23 Q1013 BECMG 5000 HZ=
202510080600 METAR VABB 080600Z 08004KT 5000 HZ FEW020 SCT025 32/23 Q1012 NOSIG=
202510080630 METAR VABB 080630Z 28008KT 5000 HZ FEW020 SCT025 31/24 Q1012 NOSIG=
202510080700 METAR VABB 080700Z 28009KT 5000 HZ FEW020 SCT025 31/25 Q1011 NOSIG=
202510080730 METAR VABB 080730Z 28009KT 5000 HZ FEW020 SCT025 31/25 Q1011 NOSIG=
202510080800 METAR VABB 080800Z 28011KT 5000 HZ FEW020 SCT025 31/24 Q1010 NOSIG=
202510080830 METAR VABB 080830Z 28012KT 5000 HZ FEW020 SCT025 31/24 Q1010 NOSIG=
202510080900 METAR VABB 080900Z 30012KT 5000 HZ FEW020 SCT025 32/24 Q1009 NOSIG=
202510080930 METAR VABB 080930Z 30013KT 5000 HZ FEW020 SCT025 31/24 Q1009 NOSIG=
202510081000 METAR VABB 081000Z 31011KT 5000 HZ FEW020 SCT025 31/23 Q1009 NOSIG=
202510081030 METAR VABB 081030Z 31007G17KT 6000 FEW020 SCT025 31/24 Q1009 NOSIG=
202510081100 METAR VABB 081100Z 32012KT 6000 FEW020 SCT025 31/24 Q1009 NOSIG=
202510081130 METAR VABB 081130Z 30012KT 6000 FEW020 SCT025 30/25 Q1009 NOSIG=
202510081200 METAR VABB 081200Z 31011KT 6000 FEW020 30/25 Q1009 BECMG 5000 HZ=
202510081230 METAR VABB 081230Z 32011KT 5000 HZ FEW020 29/24 Q1009 BECMG 3000 HZ=
202510081300 METAR VABB 081300Z 33010KT 4000 HZ FEW020 29/24 Q1009 NOSIG=
202510081330 METAR VABB 081330Z 34008KT 4000 HZ FEW020 29/24 Q1010 NOSIG=
202510081400 METAR VABB 081400Z 35006KT 4000 HZ FEW020 29/24 Q1010 NOSIG=
202510081430 METAR VABB 081430Z 36008KT 4000 HZ FEW020 29/25 Q1011 NOSIG=
202510081500 METAR VABB 081500Z 35007KT 3500 HZ FEW020 29/24 Q1011 NOSIG=
202510081530 METAR VABB 081530Z 35007KT 3500 HZ FEW020 29/24 Q1012 NOSIG=
202510081600 METAR VABB 081600Z 35005KT 3500 HZ FEW020 29/24 Q1012 NOSIG=
202510081630 METAR VABB 081630Z 35003KT 3500 HZ FEW020 29/24 Q1012 NOSIG=
202510081700 METAR VABB 081700Z 01005KT 3500 HZ FEW020 28/24 Q1012 NOSIG=
202510081730 METAR VABB 081730Z 01005KT 3000 HZ FEW020 28/24 Q1012 NOSIG=
202510081800 METAR VABB 081800Z 03004KT 3000 HZ FEW020 28/24 Q1012 NOSIG=
202510081830 METAR VABB 081830Z 05006KT 3000 HZ FEW020 28/24 Q1012 NOSIG=
202510081900 METAR VABB 081900Z 01005KT 3000 HZ FEW020 28/24 Q1012 NOSIG=
202510081930 METAR VABB 081930Z 02005KT 3000 HZ FEW020 28/23 Q1012 NOSIG=
202510082000 METAR VABB 082000Z 03005KT 3000 HZ FEW020 28/23 Q1011 NOSIG=
202510082030 METAR VABB 082030Z 03004KT 3000 HZ FEW020 27/23 Q1011 NOSIG=
202510082100 METAR VABB 082100Z 03004KT 3000 HZ FEW020 27/23 Q1011 NOSIG=
202510082130 METAR VABB 082130Z 01003KT 3000 HZ FEW020 27/23 Q1011 NOSIG=
202510082200 METAR VABB 082200Z 35004KT 3000 HZ FEW020 27/24 Q1011 NOSIG=
202510082230 METAR VABB 082230Z 35003KT 3000 HZ FEW020 27/24 Q1011 NOSIG=
202510082300 METAR VABB 082300Z 05003KT 3000 HZ FEW020 27/24 Q1011 NOSIG=
202510082330 METAR VABB 082330Z 02004KT 3000 HZ FEW020 27/24 Q1011 NOSIG=
202510090000 METAR VABB 090000Z 02003KT 3000 HZ FEW020 27/23 Q1011 NOSIG=
202510090030 METAR VABB 090030Z 07003KT 3000 BR FEW020 27/23 Q1011 NOSIG=
202510090100 METAR VABB 090100Z 08004KT 3000 BR SCT100 27/23 Q1011 NOSIG=
202510090130 METAR VABB 090130Z 00000KT 3000 BR SCT100 27/23 Q1012 NOSIG=
202510090200 METAR VABB 090200Z 06003KT 3000 BR FEW100 27/23 Q1012 NOSIG=
202510090230 METAR VABB 090230Z 06005KT 3000 HZ FEW100 28/23 Q1012 NOSIG=
202510090300 METAR VABB 090300Z 06006KT 3000 HZ FEW100 29/22 Q1013 NOSIG=
202510090330 METAR VABB 090330Z 10005KT 3000 HZ FEW100 30/23 Q1013 NOSIG=
202510090400 METAR VABB 090400Z 10005KT 3000 HZ FEW100 30/22 Q1013 NOSIG=
202510090430 METAR VABB 090430Z 12005KT 3000 HZ FEW100 30/22 Q1013 NOSIG=
202510090500 METAR VABB 090500Z 01004KT 3000 HZ FEW100 31/22 Q1013 NOSIG=
202510090530 METAR VABB 090530Z 01006KT 3000 HZ FEW100 32/23 Q1013 NOSIG=
202510090600 METAR VABB 090600Z 27007KT 3000 HZ FEW100 32/23 Q1013 NOSIG=
202510090630 METAR VABB 090630Z 26009KT 3000 HZ FEW100 32/23 Q1012 NOSIG=
202510090700 METAR VABB 090700Z 27009KT 3000 FU FEW100 32/23 Q1012 NOSIG=
202510090730 METAR VABB 090730Z 27009KT 3000 FU FEW100 31/23 Q1011 NOSIG=
202510090800 METAR VABB 090800Z 26008KT 3000 FU FEW100 31/22 Q1011 NOSIG=
202510090830 METAR VABB 090830Z 28007KT 3000 FU FEW100 32/22 Q1011 NOSIG=
202510090900 METAR VABB 090900Z 29008KT 3000 FU FEW100 32/22 Q1010 NOSIG=
202510090930 METAR VABB 090930Z 27009KT 3000 FU FEW020 SCT100 31/22 Q1010 NOSIG=
202510091000 METAR VABB 091000Z 30008KT 3000 FU FEW020 SCT100 32/22 Q1010 NOSIG=
202510091030 METAR VABB 091030Z 30009KT 3000 FU FEW020 SCT100 32/22 Q1010 NOSIG=
202510091100 METAR VABB 091100Z 29009KT 3000 FU FEW020 SCT100 32/22 Q1009 NOSIG=
202510091130 METAR VABB 091130Z 34008KT 3000 FU FEW020 SCT100 31/22 Q1010 NOSIG=
202510091200 METAR VABB 091200Z 31008KT 3000 FU FEW020 SCT100 31/23 Q1010 NOSIG=
202510091230 METAR VABB 091230Z 32008KT 3000 FU FEW020 SCT100 31/22 Q1009 NOSIG=
202510091300 METAR VABB 091300Z 32007KT 2500 FU FEW020 SCT100 30/23 Q1010 NOSIG=
202510091330 METAR VABB 091330Z 33005KT 2500 HZ FEW100 30/23 Q1010 NOSIG=
202510091400 METAR VABB 091400Z 34005KT 2500 HZ FEW100 30/23 Q1010 NOSIG=
202510091430 METAR VABB 091430Z 36006KT 2500 HZ FEW100 30/23 Q1011 BECMG 3000 HZ=
202510091500 METAR VABB 091500Z 36005KT 3000 HZ FEW100 29/23 Q1011 NOSIG=
202510091530 METAR VABB 091530Z 01005KT 3000 HZ FEW100 29/23 Q1011 NOSIG=
202510091600 METAR VABB 091600Z 01005KT 3000 HZ FEW100 29/23 Q1011 NOSIG=
202510091630 METAR VABB 091630Z 01006KT 3000 HZ FEW100 29/23 Q1011 NOSIG=
202510091700 METAR VABB 091700Z 36005KT 3000 HZ FEW100 29/23 Q1011 NOSIG=
202510091730 METAR VABB 091730Z 02004KT 3000 HZ FEW100 29/22 Q1011 NOSIG=
202510091800 METAR VABB 091800Z 00000KT 3000 HZ FEW100 29/21 Q1011 NOSIG=
202510091830 METAR VABB 091830Z 09003KT 3000 HZ FEW100 28/21 Q1011 NOSIG=
202510091900 METAR VABB 091900Z 06004KT 3000 HZ FEW100 29/21 Q1011 NOSIG=
202510091930 METAR VABB 091930Z 04005KT 3000 HZ FEW100 29/20 Q1011 NOSIG=
202510092000 METAR VABB 092000Z 00000KT 3000 HZ FEW100 28/20 Q1010 NOSIG=
202510092030 METAR VABB 092030Z 01003KT 3000 HZ FEW100 28/20 Q1010 NOSIG=
202510092100 METAR VABB 092100Z 00000KT 3000 HZ FEW100 28/21 Q1010 NOSIG=
202510092130 METAR VABB 092130Z 00000KT 3000 HZ FEW100 28/21 Q1009 NOSIG=
202510092200 METAR VABB 092200Z 10003KT 3000 HZ FEW100 27/22 Q1009 NOSIG=
202510092230 METAR VABB 092230Z 11004KT 3000 HZ FEW100 26/22 Q1009 NOSIG=
202510092300 METAR VABB 092300Z 11005KT 3000 HZ FEW100 27/21 Q1009 NOSIG=
202510092330 METAR VABB 092330Z 12008KT 3000 HZ FEW100 27/21 Q1010 NOSIG=
202510100000 METAR VABB 100000Z 11006KT 3000 HZ FEW100 27/21 Q1010 NOSIG=
202510100030 METAR VABB 100030Z 10005KT 3000 HZ FEW100 27/21 Q1010 NOSIG=
202510100100 METAR VABB 100100Z 11006KT 3000 HZ FEW100 27/21 Q1010 NOSIG=
202510100130 METAR VABB 100130Z 12004KT 3000 HZ FEW100 27/21 Q1011 NOSIG=
202510100200 METAR VABB 100200Z 08004KT 3000 HZ NSC 27/21 Q1011 NOSIG=
202510100230 METAR VABB 100230Z 08004KT 3000 HZ FEW100 28/21 Q1011 NOSIG=
202510100300 METAR VABB 100300Z 15004KT 2500 HZ FEW100 28/21 Q1011 NOSIG=
202510100330 METAR VABB 100330Z 12007KT 2500 HZ FEW100 29/21 Q1012 NOSIG=
202510100400 METAR VABB 100400Z 12007KT 2500 HZ FEW100 30/22 Q1012 NOSIG=
202510100430 METAR VABB 100430Z 14006KT 2500 FU FEW100 30/21 Q1012 NOSIG=
202510100500 METAR VABB 100500Z 14005KT 2500 FU FEW100 31/21 Q1012 BECMG 3000 FU=
202510100530 METAR VABB 100530Z 13005KT 3000 FU FEW100 32/20 Q1012 NOSIG=
202510100600 METAR VABB 100600Z 18005KT 3000 FU FEW100 33/20 Q1011 NOSIG=
202510100630 METAR VABB 100630Z 26007KT 3000 FU FEW100 33/22 Q1011 NOSIG=
202510100700 METAR VABB 100700Z 27007KT 3000 FU FEW100 34/23 Q1010 NOSIG=
202510100730 METAR VABB 100730Z 26010KT 3000 FU FEW100 33/23 Q1010 NOSIG=
202510100800 METAR VABB 100800Z 26009KT 3000 FU FEW020 33/21 Q1009 NOSIG=
202510100830 METAR VABB 100830Z 29010KT 3000 FU FEW020 33/22 Q1009 NOSIG=
202510100900 METAR VABB 100900Z 29009KT 3000 FU FEW020 33/22 Q1009 NOSIG=
202510100930 METAR VABB 100930Z 29010KT 3000 FU FEW020 33/22 Q1008 NOSIG=
202510101000 METAR VABB 101000Z 30010KT 3000 FU FEW020 33/20 Q1008 NOSIG=
202510101030 METAR VABB 101030Z 29009KT 3000 FU FEW020 32/21 Q1008 NOSIG=
202510101100 METAR VABB 101100Z 29009KT 3000 FU FEW020 32/21 Q1008 NOSIG=
202510101130 METAR VABB 101130Z 29009KT 3000 FU FEW020 32/22 Q1008 NOSIG=
202510101200 METAR VABB 101200Z 32008KT 3000 FU FEW020 31/22 Q1008 NOSIG=
202510101230 METAR VABB 101230Z 32007KT 3000 FU FEW020 31/22 Q1009 NOSIG=
202510101300 METAR VABB 101300Z 32004KT 3000 FU FEW100 31/22 Q1009 NOSIG=
202510101330 METAR VABB 101330Z 32005KT 3000 FU FEW100 30/20 Q1009 NOSIG=
202510101400 METAR VABB 101400Z 32004KT 3000 FU FEW100 30/20 Q1009 NOSIG=
202510101430 METAR VABB 101430Z 01005KT 3000 FU FEW100 30/21 Q1009 NOSIG=
202510101500 METAR VABB 101500Z 36004KT 3000 FU FEW100 30/21 Q1010 NOSIG=
202510101530 METAR VABB 101530Z 05006KT 3000 FU FEW100 30/22 Q1010 NOSIG=
202510101559 METAR VABB 101559Z 01005KT 3000 FU NSC 29/22 Q1010 NOSIG=
202510101600 METAR VABB 101600Z 01005KT 3000 FU NSC 29/22 Q1010 NOSIG=
202510101630 METAR VABB 101630Z 03004KT 3000 FU NSC 29/22 Q1010 NOSIG=
202510101700 METAR VABB 101700Z 01003KT 3000 FU NSC 29/22 Q1010 NOSIG=
202510101730 METAR VABB 101730Z 06003KT 3000 FU NSC 30/22 Q1010 NOSIG=
202510101800 METAR VABB 101800Z 06004KT 3000 FU NSC 29/21 Q1010 NOSIG=
202510101830 METAR VABB 101830Z 06004KT 3000 FU NSC 29/20 Q1010 NOSIG=
202510101900 METAR VABB 101900Z 04003KT 3000 FU NSC 28/19 Q1010 NOSIG=
202510101930 METAR VABB 101930Z 04003KT 3000 FU NSC 28/19 Q1010 NOSIG=
202510102000 METAR VABB 102000Z 04005KT 3000 FU NSC 29/19 Q1009 NOSIG=
202510102030 METAR VABB 102030Z 12003KT 3000 FU NSC 28/19 Q1009 NOSIG=
202510102100 METAR VABB 102100Z 00000KT 3000 FU NSC 28/20 Q1009 NOSIG=
202510102130 METAR VABB 102130Z 00000KT 3000 FU NSC 27/20 Q1009 NOSIG=
202510102200 METAR VABB 102200Z 12003KT 3000 FU FEW100 27/20 Q1009 NOSIG=
202510102230 METAR VABB 102230Z 11004KT 3000 FU FEW100 27/21 Q1009 NOSIG=
202510102300 METAR VABB 102300Z 14004KT 3000 FU FEW100 27/20 Q1009 NOSIG=
202510102330 METAR VABB 102330Z 12005KT 3000 FU FEW100 27/20 Q1009 NOSIG=
202510110000 METAR VABB 110000Z 09003KT 3000 FU FEW100 27/21 Q1009 NOSIG=
202510110030 METAR VABB 110030Z 08004KT 3000 FU FEW100 27/21 Q1009 NOSIG=
202510110100 METAR VABB 110100Z 08004KT 3000 FU FEW100 27/21 Q1010 NOSIG=
202510110130 METAR VABB 110130Z 06005KT 3000 FU FEW100 27/21 Q1010 NOSIG=
202510110200 METAR VABB 110200Z 08004KT 3000 FU NSC 27/21 Q1010 NOSIG=
202510110230 METAR VABB 110230Z 00000KT 3000 FU NSC 28/22 Q1011 NOSIG=
202510110300 METAR VABB 110300Z 08003KT 3000 FU FEW100 29/21 Q1011 NOSIG=
202510110330 METAR VABB 110330Z 12004KT 3000 FU FEW100 30/21 Q1011 NOSIG=
202510110400 METAR VABB 110400Z 12005KT 3000 FU FEW100 30/21 Q1011 NOSIG=
202510110430 METAR VABB 110430Z 11004KT 3000 FU FEW100 30/19 Q1012 NOSIG=
202510110500 METAR VABB 110500Z 11005KT 3000 FU FEW100 32/19 Q1011 NOSIG=
202510110530 METAR VABB 110530Z 14005KT 3000 FU FEW100 32/19 Q1011 NOSIG=
202510110600 METAR VABB 110600Z 15005KT 3000 FU FEW100 33/20 Q1011 NOSIG=
202510110630 METAR VABB 110630Z 07004KT 3000 FU FEW100 33/19 Q1010 NOSIG=
202510110700 METAR VABB 110700Z 28007KT 3000 FU FEW100 34/22 Q1010 NOSIG=
202510110730 METAR VABB 110730Z 26010KT 3000 FU FEW100 33/21 Q1009 NOSIG=
202510110800 METAR VABB 110800Z 27010KT 3500 FU FEW100 33/22 Q1009 NOSIG=
202510110830 METAR VABB 110830Z 27010KT 3500 FU FEW100 33/21 Q1009 NOSIG=
202510110900 METAR VABB 110900Z 28010KT 3500 FU FEW100 33/22 Q1009 NOSIG=
202510110930 METAR VABB 110930Z 27010KT 3500 FU FEW100 33/20 Q1008 BECMG 3000 FU=
202510111000 METAR VABB 111000Z 30009KT 3000 FU FEW100 33/20 Q1008 NOSIG=
202510111030 METAR VABB 111030Z 30010KT 3000 FU FEW100 32/21 Q1008 NOSIG=
202510111100 METAR VABB 111100Z 30011KT 3000 FU FEW100 32/21 Q1008 NOSIG=
202510111130 METAR VABB 111130Z 32010KT 3000 FU FEW100 32/20 Q1008 NOSIG=
202510111200 METAR VABB 111200Z 32007KT 3000 FU FEW100 31/20 Q1008 NOSIG=
202510111230 METAR VABB 111230Z 30008KT 3000 FU FEW100 31/21 Q1008 NOSIG=
202510111300 METAR VABB 111300Z 31007KT 3000 FU FEW100 31/21 Q1009 NOSIG=
202510111330 METAR VABB 111330Z 31007KT 3000 FU FEW100 30/21 Q1009 NOSIG=
202510111400 METAR VABB 111400Z 31005KT 3000 FU FEW100 30/22 Q1009 NOSIG=
202510111430 METAR VABB 111430Z 33004KT 3000 FU FEW100 30/22 Q1009 NOSIG=
202510111500 METAR VABB 111500Z 32005KT 3000 HZ FEW100 30/22 Q1010 NOSIG=
202510111530 METAR VABB 111530Z 01004KT 3000 HZ FEW100 29/21 Q1010 NOSIG=
202510111600 METAR VABB 111600Z 03004KT 3000 HZ FEW100 29/22 Q1010 NOSIG=
202510111630 METAR VABB 111630Z 36006KT 3000 HZ FEW100 29/22 Q1010 NOSIG=
202510111700 METAR VABB 111700Z 01006KT 3000 HZ FEW100 29/21 Q1010 NOSIG=
202510111730 METAR VABB 111730Z 03005KT 3000 HZ FEW100 29/21 Q1010 NOSIG=
202510111800 METAR VABB 111800Z 01005KT 3000 HZ FEW100 28/21 Q1010 NOSIG=
202510111830 METAR VABB 111830Z 02003KT 3000 HZ FEW100 28/21 Q1010 NOSIG=
202510111900 METAR VABB 111900Z 03005KT 3000 HZ FEW100 28/21 Q1009 NOSIG=
202510111930 METAR VABB 111930Z 02003KT 3000 HZ FEW100 28/22 Q1009 NOSIG=
202510112000 METAR VABB 112000Z 06005KT 3000 HZ FEW100 28/22 Q1009 NOSIG=
202510112030 METAR VABB 112030Z 03003KT 3000 HZ FEW100 28/21 Q1009 NOSIG=
202510112100 METAR VABB 112100Z 11003KT 3000 HZ FEW100 27/21 Q1009 NOSIG=
202510112130 METAR VABB 112130Z 12004KT 3000 HZ FEW100 27/21 Q1009 NOSIG=
202510112200 METAR VABB 112200Z 10004KT 3000 HZ FEW100 26/21 Q1009 NOSIG=
202510112230 METAR VABB 112230Z 11004KT 3000 HZ FEW100 26/21 Q1009 NOSIG=
202510112300 METAR VABB 112300Z 07003KT 3000 HZ FEW100 27/20 Q1009 NOSIG=
202510112330 METAR VABB 112330Z 06005KT 3000 HZ FEW100 27/21 Q1009 NOSIG=
202510120000 METAR VABB 120000Z 00000KT 3000 HZ FEW100 27/21 Q1009 NOSIG=
202510120030 METAR VABB 120030Z 08003KT 3000 HZ FEW100 27/21 Q1009 NOSIG=
202510120100 METAR VABB 120100Z 19003KT 3000 HZ FEW100 27/21 Q1010 NOSIG=
202510120130 METAR VABB 120130Z 12003KT 3000 HZ NSC 26/21 Q1010 NOSIG=
202510120200 METAR VABB 120200Z 00000KT 3000 HZ NSC 27/21 Q1010 NOSIG=
202510120230 METAR VABB 120230Z 12003KT 3000 HZ NSC 28/21 Q1011 NOSIG=
202510120300 METAR VABB 120300Z 08004KT 3000 HZ NSC 29/21 Q1011 NOSIG=
202510120330 METAR VABB 120330Z 10007KT 3000 HZ NSC 29/21 Q1011 NOSIG=
202510120400 METAR VABB 120400Z 09006KT 3000 FU NSC 30/21 Q1011 NOSIG=
202510120430 METAR VABB 120430Z 10006KT 3000 FU NSC 31/19 Q1011 NOSIG=
202510120500 METAR VABB 120500Z 12008KT 3500 FU NSC 32/18 Q1011 NOSIG=
202510120530 METAR VABB 120530Z 11005KT 3500 FU NSC 32/18 Q1010 NOSIG=
202510120600 METAR VABB 120600Z 11005KT 3500 FU NSC 33/19 Q1010 NOSIG=
202510120630 METAR VABB 120630Z 14005KT 3500 FU NSC 33/18 Q1009 NOSIG=
202510120700 METAR VABB 120700Z 10005KT 3500 FU NSC 34/20 Q1009 NOSIG=
202510120730 METAR VABB 120730Z 05005KT 3500 FU NSC 35/19 Q1008 NOSIG=
202510120800 METAR VABB 120800Z 02003KT 3500 FU NSC 35/20 Q1008 NOSIG=
202510120830 METAR VABB 120830Z 26009KT 3500 FU NSC 33/20 Q1008 NOSIG=
202510120900 METAR VABB 120900Z 27009KT 3500 FU FEW020 33/21 Q1007 NOSIG=
202510120930 METAR VABB 120930Z 27010KT 3500 FU FEW020 34/20 Q1007 NOSIG=
202510121000 METAR VABB 121000Z 30008KT 3500 FU FEW020 33/21 Q1007 NOSIG=
202510121030 METAR VABB 121030Z 28010KT 3500 FU FEW020 33/22 Q1007 NOSIG=
202510121100 METAR VABB 121100Z 30008KT 3500 FU FEW020 33/22 Q1007 NOSIG=
202510121130 METAR VABB 121130Z 32009KT 3500 FU FEW020 32/22 Q1007 NOSIG=
202510121200 METAR VABB 121200Z 32008KT 3500 FU FEW020 32/22 Q1007 NOSIG=
202510121230 METAR VABB 121230Z 33006KT 3500 FU FEW020 31/22 Q1008 BECMG 3000 FU=
202510121300 METAR VABB 121300Z 33007KT 3000 HZ FEW020 31/23 Q1008 NOSIG=
202510121330 METAR VABB 121330Z 35006KT 3000 HZ NSC 30/20 Q1008 NOSIG=
202510121400 METAR VABB 121400Z 35007KT 3000 HZ NSC 30/20 Q1009 NOSIG=
202510121430 METAR VABB 121430Z 01007KT 3000 HZ NSC 31/20 Q1009 NOSIG=
202510121500 METAR VABB 121500Z 36006KT 3000 FU NSC 30/21 Q1009 NOSIG=
202510121530 METAR VABB 121530Z 01007KT 3000 FU NSC 30/20 Q1009 NOSIG=
202510121600 METAR VABB 121600Z 36006KT 3000 HZ NSC 30/21 Q1010 NOSIG=
202510121630 METAR VABB 121630Z 05005KT 3000 HZ NSC 29/21 Q1010 NOSIG=
202510121700 METAR VABB 121700Z 03006KT 3000 HZ NSC 29/22 Q1010 NOSIG=
202510121730 METAR VABB 121730Z 01006KT 3000 HZ NSC 29/22 Q1010 NOSIG=
202510121800 METAR VABB 121800Z 00000KT 3000 HZ NSC 29/21 Q1010 NOSIG=
202510121830 METAR VABB 121830Z 14006KT 3000 HZ NSC 29/22 Q1010 NOSIG=
202510121900 METAR VABB 121900Z VRB03KT 3000 HZ NSC 28/21 Q1010 NOSIG=
202510121930 METAR VABB 121930Z 17005KT 3000 HZ NSC 28/21 Q1010 NOSIG=
202510122000 METAR VABB 122000Z 15004KT 3000 HZ NSC 29/21 Q1010 NOSIG=
202510122030 METAR VABB 122030Z 00000KT 3000 HZ NSC 29/21 Q1009 NOSIG=
202510122100 METAR VABB 122100Z 16005KT 3000 HZ NSC 28/21 Q1009 NOSIG=
202510122130 METAR VABB 122130Z 09004KT 3000 HZ NSC 27/21 Q1009 NOSIG=
202510122200 METAR VABB 122200Z 00000KT 3000 HZ NSC 27/21 Q1009 NOSIG=
202510122230 METAR VABB 122230Z 00000KT 3000 HZ NSC 26/22 Q1009 NOSIG=
202510122300 METAR VABB 122300Z 13004KT 3000 HZ NSC 27/21 Q1009 NOSIG=
202510122330 METAR VABB 122330Z 10004KT 3000 HZ NSC 27/21 Q1009 NOSIG=
202510130000 METAR VABB 130000Z 00000KT 3000 HZ NSC 27/21 Q1009 NOSIG=
202510130030 METAR VABB 130030Z 00000KT 3000 HZ NSC 27/21 Q1010 NOSIG=
202510130100 METAR VABB 130100Z 00000KT 2500 HZ NSC 27/21 Q1010 NOSIG=
202510130130 METAR VABB 130130Z 00000KT 2500 HZ NSC 27/21 Q1010 NOSIG=
202510130200 METAR VABB 130200Z 09005KT 2500 HZ NSC 27/21 Q1011 NOSIG=
202510130230 METAR VABB 130230Z 12005KT 2500 HZ NSC 28/21 Q1011 NOSIG=
202510130300 METAR VABB 130300Z 11005KT 2500 FU NSC 30/20 Q1011 NOSIG=
202510130330 METAR VABB 130330Z 11006KT 2500 FU NSC 30/20 Q1011 NOSIG=
202510130400 METAR VABB 130400Z 11007KT 2500 FU NSC 31/20 Q1011 NOSIG=
202510130430 METAR VABB 130430Z 11007KT 2500 FU NSC 31/19 Q1011 NOSIG=
202510130500 METAR VABB 130500Z 12006KT 2500 FU NSC 32/19 Q1011 BECMG 3000 FU=
202510130530 METAR VABB 130530Z 13005KT 3000 FU NSC 33/18 Q1011 NOSIG=
202510130600 METAR VABB 130600Z 13005KT 3000 FU NSC 33/18 Q1011 NOSIG=
202510130630 METAR VABB 130630Z 28005KT 3000 FU NSC 34/21 Q1010 NOSIG=
202510130700 METAR VABB 130700Z 26010KT 3000 FU NSC 33/21 Q1010 NOSIG=
202510130730 METAR VABB 130730Z 27010KT 3000 FU NSC 34/21 Q1009 NOSIG=
202510130800 METAR VABB 130800Z 26012KT 3000 FU NSC 34/21 Q1009 NOSIG=
202510130830 METAR VABB 130830Z 28012KT 3000 FU NSC 33/21 Q1008 NOSIG=
202510130900 METAR VABB 130900Z 27011KT 3000 FU NSC 33/21 Q1008 NOSIG=
202510130930 METAR VABB 130930Z 29013KT 4000 FU NSC 33/20 Q1008 NOSIG=
202510131000 METAR VABB 131000Z 30012KT 4000 FU FEW020 33/19 Q1008 NOSIG=
202510131030 METAR VABB 131030Z 30011KT 4000 FU FEW020 33/19 Q1008 BECMG 5000 FU=
202510131100 METAR VABB 131100Z 30011KT 5000 FU NSC 33/20 Q1008 NOSIG=
202510131130 METAR VABB 131130Z 30010KT 5000 FU NSC 33/19 Q1008 NOSIG=
202510131200 METAR VABB 131200Z 33008KT 5000 FU NSC 32/20 Q1008 NOSIG=
202510131230 METAR VABB 131230Z 35005KT 5000 FU FEW100 32/20 Q1008 NOSIG=
202510131300 METAR VABB 131300Z 33006KT 5000 FU FEW100 31/20 Q1008 NOSIG=
202510131330 METAR VABB 131330Z 33006KT 4000 FU FEW100 31/19 Q1009 NOSIG=
202510131400 METAR VABB 131400Z 36007KT 4000 FU FEW100 31/19 Q1009 NOSIG=
202510131430 METAR VABB 131430Z 34006KT 4000 FU NSC 30/19 Q1009 NOSIG=
202510131500 METAR VABB 131500Z 36006KT 4000 FU NSC 30/20 Q1010 NOSIG=
202510131530 METAR VABB 131530Z 02004KT 4000 FU NSC 30/22 Q1010 NOSIG=
202510131600 METAR VABB 131600Z 01005KT 4000 FU NSC 29/22 Q1010 NOSIG=
202510131630 METAR VABB 131630Z 01006KT 4000 FU NSC 29/21 Q1010 NOSIG=
202510131700 METAR VABB 131700Z 01006KT 4000 FU NSC 29/21 Q1009 NOSIG=
202510131730 METAR VABB 131730Z 01005KT 4000 FU NSC 29/21 Q1009 NOSIG=
202510131800 METAR VABB 131800Z 04003KT 4000 FU NSC 29/21 Q1009 NOSIG=
202510131830 METAR VABB 131830Z 00000KT 4000 FU NSC 28/21 Q1009 NOSIG=
202510131900 METAR VABB 131900Z 16004KT 4000 FU NSC 28/21 Q1009 NOSIG=
202510131930 METAR VABB 131930Z 19004KT 4000 HZ NSC 28/22 Q1008 NOSIG=
202510132000 METAR VABB 132000Z 18003KT 4000 HZ NSC 28/21 Q1008 NOSIG=
202510132030 METAR VABB 132030Z 16003KT 4000 HZ NSC 28/21 Q1007 NOSIG=
202510132100 METAR VABB 132100Z 10004KT 4000 HZ NSC 27/21 Q1007 NOSIG=
202510132130 METAR VABB 132130Z 00000KT 4000 HZ NSC 27/21 Q1007 NOSIG=
202510132200 METAR VABB 132200Z 00000KT 4000 HZ NSC 26/21 Q1007 NOSIG=
202510132230 METAR VABB 132230Z 10004KT 4000 HZ NSC 26/21 Q1007 NOSIG=
202510132300 METAR VABB 132300Z 10005KT 4000 HZ NSC 27/19 Q1007 NOSIG=
202510132330 METAR VABB 132330Z 08003KT 4000 HZ NSC 27/19 Q1007 NOSIG=
202510140000 METAR VABB 140000Z 07005KT 4000 HZ NSC 27/19 Q1007 NOSIG=
202510140030 METAR VABB 140030Z 14004KT 4000 HZ NSC 26/19 Q1008 NOSIG=
202510140100 METAR VABB 140100Z 00000KT 4000 HZ NSC 27/19 Q1008 NOSIG=
202510140130 METAR VABB 140130Z 10004KT 4000 HZ NSC 26/19 Q1008 NOSIG=
202510140200 METAR VABB 140200Z 06005KT 4000 HZ NSC 27/19 Q1009 NOSIG=
202510140230 METAR VABB 140230Z 09003KT 4000 HZ NSC 28/19 Q1009 NOSIG=
202510140300 METAR VABB 140300Z 10003KT 3500 FU NSC 29/19 Q1009 BECMG 3000 FU=
202510140330 METAR VABB 140330Z 08003KT 3000 FU NSC 30/19 Q1010 NOSIG=
202510140400 METAR VABB 140400Z 11008KT 3000 FU NSC 31/18 Q1010 NOSIG=
202510140430 METAR VABB 140430Z 10008KT 3000 FU NSC 31/17 Q1010 NOSIG=
202510140500 METAR VABB 140500Z 09007KT 3000 FU NSC 32/18 Q1009 NOSIG=
202510140530 METAR VABB 140530Z 10006KT 3000 FU NSC 32/18 Q1009 NOSIG=
202510140600 METAR VABB 140600Z 14005KT 3000 FU NSC 33/19 Q1009 NOSIG=
202510140630 METAR VABB 140630Z 12006KT 4000 FU NSC 33/20 Q1008 NOSIG=
202510140700 METAR VABB 140700Z 12004KT 4000 FU NSC 33/20 Q1008 NOSIG=
202510140730 METAR VABB 140730Z 12006KT 4000 FU NSC 34/19 Q1007 NOSIG=
202510140800 METAR VABB 140800Z 11004KT 4000 FU FEW020 34/18 Q1007 NOSIG=
202510140830 METAR VABB 140830Z 23007KT 4000 FU FEW020 34/21 Q1007 NOSIG=
202510140900 METAR VABB 140900Z 27009KT 4000 FU FEW020 34/20 Q1006 NOSIG=
202510140930 METAR VABB 140930Z 27009KT 4000 FU FEW020 33/21 Q1006 NOSIG=
202510141001 METAR VABB 141001Z 26010KT 4000 FU FEW020 33/20 Q1006 NOSIG=
202510141030 METAR VABB 141030Z 28009KT 4000 FU FEW020 33/21 Q1006 NOSIG=
202510141100 METAR VABB 141100Z 29008KT 4000 FU FEW020 32/22 Q1006 NOSIG=
202510141130 METAR VABB 141130Z 29009KT 4000 FU FEW020 32/22 Q1006 NOSIG=
202510141200 METAR VABB 141200Z 31009KT 4000 FU FEW020 31/21 Q1006 NOSIG=
202510141230 METAR VABB 141230Z 30008KT 4000 FU FEW020 31/21 Q1006 BECMG 3000 FU=
202510141300 METAR VABB 141300Z 31007KT 3000 HZ FEW020 30/22 Q1007 NOSIG=
202510141330 METAR VABB 141330Z 31006KT 3000 HZ FEW020 30/22 Q1007 NOSIG=
202510141400 METAR VABB 141400Z 32006KT 3000 HZ FEW020 30/21 Q1007 NOSIG=
202510141430 METAR VABB 141430Z 32005KT 3000 HZ FEW020 30/21 Q1007 NOSIG=
202510141500 METAR VABB 141500Z 31005KT 3000 HZ NSC 30/21 Q1007 NOSIG=
202510141530 METAR VABB 141530Z 36003KT 3000 HZ NSC 30/21 Q1008 NOSIG=
202510141600 METAR VABB 141600Z 33003KT 3000 HZ NSC 30/21 Q1008 NOSIG=
202510141630 METAR VABB 141630Z 02003KT 3000 HZ NSC 30/21 Q1008 NOSIG=
202510141700 METAR VABB 141700Z 06004KT 3000 HZ NSC 29/21 Q1008 NOSIG=
202510141730 METAR VABB 141730Z 07004KT 3000 HZ NSC 30/20 Q1008 NOSIG=
202510141800 METAR VABB 141800Z 11004KT 3000 HZ NSC 29/21 Q1008 NOSIG=
202510141830 METAR VABB 141830Z 11003KT 3000 HZ NSC 28/22 Q1008 NOSIG=
202510141900 METAR VABB 141900Z 16004KT 3000 HZ NSC 28/22 Q1007 NOSIG=
202510141930 METAR VABB 141930Z 15004KT 3000 HZ NSC 29/22 Q1007 NOSIG=
202510142000 METAR VABB 142000Z 00000KT 3000 HZ NSC 28/22 Q1007 NOSIG=
202510142030 METAR VABB 142030Z 19003KT 3000 HZ NSC 28/22 Q1006 NOSIG=
202510142100 METAR VABB 142100Z 21004KT 3000 HZ NSC 28/22 Q1006 NOSIG=
202510142130 METAR VABB 142130Z 06003KT 3000 HZ NSC 27/22 Q1006 NOSIG=
202510142200 METAR VABB 142200Z 08004KT 3000 HZ NSC 27/23 Q1006 NOSIG=
202510142230 METAR VABB 142230Z 12004KT 3000 HZ NSC 26/22 Q1006 NOSIG=
202510142300 METAR VABB 142300Z 10004KT 3000 HZ NSC 27/21 Q1006 NOSIG=
202510142330 METAR VABB 142330Z 14004KT 3000 HZ NSC 27/20 Q1006 NOSIG=
202510150000 METAR VABB 150000Z 16003KT 3000 HZ NSC 26/21 Q1006 NOSIG=
202510150030 METAR VABB 150030Z 16003KT 3000 HZ NSC 26/21 Q1007 NOSIG=
202510150100 METAR VABB 150100Z 15004KT 2500 HZ NSC 26/20 Q1007 NOSIG=
202510150130 METAR VABB 150130Z 12003KT 2500 HZ NSC 27/19 Q1007 NOSIG=
202510150200 METAR VABB 150200Z 11004KT 2500 HZ NSC 28/19 Q1008 NOSIG=
202510150230 METAR VABB 150230Z 05006KT 2500 HZ NSC 28/19 Q1008 NOSIG=
202510150300 METAR VABB 150300Z 09004KT 2500 FU FEW100 29/19 Q1008 BECMG 3000 FU=
202510150330 METAR VABB 150330Z 05008KT 3000 FU FEW100 30/18 Q1008 NOSIG=
202510150400 METAR VABB 150400Z 06007KT 3500 FU NSC 31/18 Q1009 NOSIG=
202510150430 METAR VABB 150430Z 06007KT 4000 FU NSC 32/18 Q1009 NOSIG=
202510150500 METAR VABB 150500Z 08008KT 4000 FU NSC 32/18 Q1008 NOSIG=
202510150530 METAR VABB 150530Z 09008KT 4000 FU NSC 33/19 Q1008 NOSIG=
202510150600 METAR VABB 150600Z 09007KT 4000 FU NSC 33/19 Q1008 NOSIG=
202510150630 METAR VABB 150630Z 13009KT 4000 FU NSC 33/20 Q1008 NOSIG=
202510150700 METAR VABB 150700Z 13005KT 4000 FU NSC 34/21 Q1007 NOSIG=
202510150730 METAR VABB 150730Z 16005KT 4000 FU NSC 33/21 Q1007 NOSIG=
202510150800 METAR VABB 150800Z 14005KT 4000 FU FEW100 34/21 Q1006 NOSIG=
202510150830 METAR VABB 150830Z 12004KT 4000 FU FEW100 33/21 Q1006 NOSIG=
202510150930 METAR VABB 150930Z 26009KT 3000 FU SCT020 BKN100 32/23 Q1006 NOSIG=
202510151000 METAR VABB 151000Z 27007KT 3000 FU SCT020 BKN100 32/22 Q1005 NOSIG=
202510151030 METAR VABB 151030Z 30007KT 3500 FU SCT020 BKN100 33/23 Q1005 NOSIG=
202510151100 METAR VABB 151100Z 32006KT 3500 FU FEW020 SCT100 32/22 Q1005 NOSIG=
202510151130 METAR VABB 151130Z 32009KT 3500 FU FEW020 SCT100 32/22 Q1005 NOSIG=
202510151200 METAR VABB 151200Z 30006KT 3500 HZ FEW020 SCT100 31/23 Q1006 BECMG 3000 HZ=
202510151230 METAR VABB 151230Z 31005KT 3000 HZ FEW020 SCT100 31/23 Q1006 NOSIG=
202510151300 METAR VABB 151300Z 31004KT 3000 HZ FEW020 SCT100 31/23 Q1006 NOSIG=
202510151330 METAR VABB 151330Z 32004KT 3000 HZ FEW020 SCT100 31/23 Q1006 NOSIG=
202510151400 METAR VABB 151400Z 36003KT 3000 HZ FEW020 SCT100 31/22 Q1007 NOSIG=
202510151430 METAR VABB 151430Z 04005KT 3000 HZ FEW020 SCT100 32/22 Q1008 NOSIG=
202510151500 METAR VABB 151500Z 18003KT 3000 HZ FEW020 SCT100 31/23 Q1008 NOSIG=
202510151530 METAR VABB 151530Z 17010G20KT 3000 HZ FEW020 SCT100 30/24 Q1009 NOSIG=
202510151600 METAR VABB 151600Z 17008G18KT 3000 HZ FEW020 SCT100 29/23 Q1009 NOSIG=
202510151630 METAR VABB 151630Z 15004KT 3000 HZ FEW020 SCT100 29/24 Q1008 NOSIG=
202510151700 METAR VABB 151700Z 20004KT 3000 HZ FEW020 SCT100 28/24 Q1008 NOSIG=
202510151730 METAR VABB 151730Z 20004KT 3000 HZ FEW020 SCT100 28/23 Q1008 NOSIG=
202510151800 METAR VABB 151800Z 00000KT 3000 HZ FEW020 SCT100 28/23 Q1008 NOSIG=
202510151830 METAR VABB 151830Z 00000KT 3000 HZ FEW020 SCT100 29/23 Q1007 NOSIG=
202510151900 METAR VABB 151900Z 00000KT 3000 HZ FEW020 SCT100 28/23 Q1007 NOSIG=
202510151930 METAR VABB 151930Z 19003KT 3000 HZ FEW020 SCT100 29/24 Q1007 NOSIG=
202510152000 METAR VABB 152000Z 14005KT 2500 BR FEW020 SCT100 28/24 Q1007 NOSIG=
202510152030 METAR VABB 152030Z 13005KT 2500 BR FEW020 SCT100 28/24 Q1007 NOSIG=
202510152100 METAR VABB 152100Z 16004KT 2500 BR FEW020 SCT100 28/24 Q1006 NOSIG=
202510152130 METAR VABB 152130Z 18003KT 2500 BR FEW020 SCT100 28/24 Q1006 NOSIG=
202510152200 METAR VABB 152200Z 14004KT 2500 BR FEW020 SCT100 28/24 Q1006 NOSIG=
202510152230 METAR VABB 152230Z 08004KT 2500 BR FEW020 28/24 Q1006 NOSIG=
202510152300 METAR VABB 152300Z 10006KT 2500 BR FEW020 27/24 Q1006 NOSIG=
202510152330 METAR VABB 152330Z 12005KT 2500 BR FEW020 28/24 Q1006 NOSIG=
202510160000 METAR VABB 160000Z 10005KT 2500 BR FEW020 28/24 Q1006 NOSIG=
202510160030 METAR VABB 160030Z 16004KT 2500 BR FEW020 28/24 Q1007 NOSIG=
202510160100 METAR VABB 160100Z 11006KT 2500 BR FEW020 SCT100 28/24 Q1007 NOSIG=
202510160130 METAR VABB 160130Z 11005KT 2100 BR FEW020 SCT100 28/24 Q1007 NOSIG=
202510160200 METAR VABB 160200Z 12005KT 1800 BR FEW020 SCT100 28/24 Q1008 NOSIG=
202510160230 METAR VABB 160230Z 10005KT 1800 HZ FEW020 SCT100 29/24 Q1008 NOSIG=
202510160300 METAR VABB 160300Z 11005KT 1800 HZ FEW100 30/24 Q1008 NOSIG=
202510160330 METAR VABB 160330Z 12006KT 2500 HZ FEW100 30/23 Q1009 NOSIG=
202510160400 METAR VABB 160400Z 10008KT 3000 HZ FEW100 31/23 Q1009 NOSIG=
202510160430 METAR VABB 160430Z 09008KT 3000 HZ FEW100 32/23 Q1009 NOSIG=
202510160500 METAR VABB 160500Z 11007KT 3000 FU FEW100 33/24 Q1009 NOSIG=
202510160530 METAR VABB 160530Z 12008KT 3500 FU FEW100 33/23 Q1008 NOSIG=
202510160600 METAR VABB 160600Z 12008KT 3500 FU FEW100 33/23 Q1008 NOSIG=
202510160630 METAR VABB 160630Z 13006KT 3500 FU FEW100 34/23 Q1008 NOSIG=
202510160700 METAR VABB 160700Z 08006KT 4000 FU FEW020 SCT100 34/23 Q1007 NOSIG=
202510160730 METAR VABB 160730Z 14005KT 4000 FU FEW020 SCT100 34/23 Q1007 NOSIG=
202510160800 METAR VABB 160800Z 16005KT 4000 FU FEW020 SCT100 35/24 Q1006 NOSIG=
202510160830 METAR VABB 160830Z 24005KT 4000 FU FEW020 SCT100 34/25 Q1006 NOSIG=
202510160900 METAR VABB 160900Z 28009KT 3500 HZ FEW020 SCT025 34/26 Q1006 BECMG 3000 HZ=
202510160930 METAR VABB 160930Z 28010KT 3000 HZ FEW020 SCT025 33/25 Q1006 NOSIG=
202510161000 METAR VABB 161000Z 28011KT 3000 HZ FEW020 SCT025 33/25 Q1005 NOSIG=
202510161030 METAR VABB 161030Z 29011KT 3000 HZ FEW020 SCT025 33/24 Q1006 NOSIG=
202510161100 METAR VABB 161100Z 28010KT 3000 HZ FEW020 SCT025 33/24 Q1006 NOSIG=
202510161130 METAR VABB 161130Z 28009KT 3000 HZ FEW020 SCT025 32/24 Q1006 NOSIG=
202510161200 METAR VABB 161200Z 29010KT 3000 HZ FEW020 FEW025TCU SCT100 32/24 Q1006 NOSIG=
202510161230 METAR VABB 161230Z 33008KT 3000 HZ FEW020 SCT025 FEW030CB 32/24 Q1007 BECMG 1500 HZ=
202510161300 METAR VABB 161300Z 06009KT 3000 TS SCT018 SCT025 FEW030CB BKN090 29/21 Q1008 TEMPO 1500 TSRA=
202510161330 METAR VABB 161330Z 07009KT 3000 TS SCT018 SCT025 FEW030CB BKN090 29/21 Q1009 TEMPO 1500 TSRA=
202510161400 METAR VABB 161400Z 04011KT 3000 -TSRA SCT018 SCT025 FEW030CB BKN090 28/23 Q1009 TEMPO 1500 TSRA=
202510161430 METAR VABB 161430Z 02004KT 3000 -TSRA SCT018 SCT025 FEW030CB BKN090 28/23 Q1009 TEMPO 1500 TSRA=
202510161500 METAR VABB 161500Z 03004KT 3000 HZ SCT018 FEW030CB BKN090 29/22 Q1009 NOSIG=
202510161530 METAR VABB 161530Z 03007KT 3000 HZ SCT018 FEW030CB BKN090 29/22 Q1010 NOSIG=
202510161600 METAR VABB 161600Z 03006KT 3000 HZ SCT018 FEW025TCU BKN090 29/22 Q1010 NOSIG=
202510161630 METAR VABB 161630Z 10007KT 3000 HZ SCT018 FEW025TCU BKN090 28/23 Q1010 NOSIG=
202510161700 METAR VABB 161700Z 10007KT 3000 HZ SCT018 FEW025TCU BKN090 27/22 Q1010 NOSIG=
202510161730 METAR VABB 161730Z 10008KT 3000 HZ SCT018 FEW025TCU BKN090 27/22 Q1010 NOSIG=
202510161800 METAR VABB 161800Z 07008KT 3000 HZ FEW018 SCT025 BKN100 28/22 Q1009 NOSIG=
202510161830 METAR VABB 161830Z 05009KT 3000 HZ FEW018 SCT025 BKN100 28/22 Q1009 NOSIG=
202510161900 METAR VABB 161900Z 06004KT 3000 HZ FEW020 SCT025 BKN100 28/22 Q1009 NOSIG=
202510010000 METAR VABB NIL=
202510161930 METAR VABB 161930Z 04007KT 3000 HZ FEW020 SCT025 BKN100 28/22 Q1009 NOSIG=
202510162000 METAR VABB 162000Z 05008KT 3000 HZ FEW020 SCT100 28/22 Q1008 NOSIG=
202510162030 METAR VABB 162030Z 05004KT 3000 HZ SCT100 28/22 Q1008 NOSIG=
202510162100 METAR VABB 162100Z 04007KT 3000 HZ SCT100 28/22 Q1008 NOSIG=
202510162130 METAR VABB 162130Z 07008KT 3000 HZ SCT100 28/22 Q1008 NOSIG=
202510162200 METAR VABB 162200Z 07008KT 3000 HZ SCT100 28/23 Q1008 NOSIG=
202510162230 METAR VABB 162230Z 07010KT 3000 HZ SCT100 28/23 Q1008 NOSIG=
202510162300 METAR VABB 162300Z 08007KT 3000 HZ SCT100 28/22 Q1008 NOSIG=
202510162330 METAR VABB 162330Z 07006KT 3000 HZ SCT100 28/22 Q1008 NOSIG=
202510170000 METAR VABB 170000Z 07007KT 3000 HZ SCT100 28/22 Q1008 NOSIG=
202510170030 METAR VABB 170030Z 06008KT 3000 HZ SCT100 28/23 Q1009 NOSIG=
202510170100 METAR VABB 170100Z 18003KT 3000 HZ FEW020 SCT100 28/23 Q1009 NOSIG=
202510170130 METAR VABB 170130Z 09003KT 3000 HZ FEW020 SCT100 28/23 Q1009 NOSIG=
202510170200 METAR VABB 170200Z 07006KT 3000 HZ FEW020 SCT100 29/23 Q1010 NOSIG=
202510170230 METAR VABB 170230Z 13005KT 3000 HZ FEW020 SCT100 29/23 Q1010 NOSIG=
202510170300 METAR VABB 170300Z 11007KT 3000 HZ FEW100 29/23 Q1011 NOSIG=
202510170330 METAR VABB 170330Z 09008KT 3000 HZ FEW100 30/23 Q1011 NOSIG=
202510170400 METAR VABB 170400Z 09006KT 3000 HZ FEW100 31/24 Q1011 NOSIG=
202510170430 METAR VABB 170430Z 12007KT 3000 HZ NSC 32/23 Q1011 NOSIG=
202510170500 METAR VABB 170500Z 09007KT 3500 FU NSC 33/23 Q1011 NOSIG=
202510170530 METAR VABB 170530Z 12006KT 3500 FU NSC 33/23 Q1011 NOSIG=
202510170600 METAR VABB 170600Z 14006KT 3500 FU NSC 34/23 Q1010 NOSIG=
202510170630 METAR VABB 170630Z 14009KT 3500 FU NSC 35/23 Q1009 NOSIG=
202510170700 METAR VABB 170700Z 13009KT 3500 FU NSC 34/22 Q1009 NOSIG=
202510170730 METAR VABB 170730Z 12009KT 3500 FU FEW020 35/23 Q1008 NOSIG=
202510170800 METAR VABB 170800Z 14008KT 4000 FU FEW020 35/21 Q1008 NOSIG=
202510170830 METAR VABB 170830Z 07008KT 4000 FU SCT020 36/21 Q1007 NOSIG=
202510170900 METAR VABB 170900Z 07005KT 4000 FU SCT020 36/22 Q1007 NOSIG=
202510170930 METAR VABB 170930Z 25009KT 4000 FU SCT020 35/23 Q1007 NOSIG=
202510171000 METAR VABB 171000Z 28012KT 4000 FU SCT020 34/23 Q1007 NOSIG=
202510171030 METAR VABB 171030Z 27011KT 4000 FU SCT020 34/24 Q1007 NOSIG=
202510171100 METAR VABB 171100Z 27010KT 4000 FU FEW020 33/25 Q1006 NOSIG=
202510171130 METAR VABB 171130Z 27009KT 4000 FU FEW020 33/26 Q1007 NOSIG=
202510171200 METAR VABB 171200Z 30007KT 4000 HZ FEW020 33/26 Q1007 NOSIG=
202510171230 METAR VABB 171230Z 32005KT 3500 HZ FEW020 33/25 Q1007 NOSIG=
202510171300 METAR VABB 171300Z 34007KT 3500 HZ FEW020 33/24 Q1007 BECMG 3000 HZ=
202510171330 METAR VABB 171330Z 36007KT 3000 HZ FEW020 32/24 Q1008 NOSIG=
202510171400 METAR VABB 171400Z 36007KT 3000 HZ FEW020 32/24 Q1008 NOSIG=
202510171430 METAR VABB 171430Z 36008KT 3000 HZ FEW020 32/24 Q1008 NOSIG=
202510171500 METAR VABB 171500Z 36005KT 3000 HZ FEW020 32/24 Q1009 NOSIG=
202510171530 METAR VABB 171530Z 01006KT 3000 HZ NSC 32/24 Q1009 NOSIG=
202510171600 METAR VABB 171600Z 02005KT 3000 HZ NSC 32/24 Q1009 NOSIG=
202510171630 METAR VABB 171630Z 04007KT 3000 HZ NSC 31/24 Q1009 NOSIG=
202510171700 METAR VABB 171700Z 01006KT 3000 HZ FEW100 31/24 Q1009 NOSIG=
202510171730 METAR VABB 171730Z 05004KT 3000 HZ FEW100 31/24 Q1009 NOSIG=
202510171800 METAR VABB 171800Z 11003KT 3000 HZ FEW100 31/24 Q1009 NOSIG=
202510171830 METAR VABB 171830Z 06005KT 3000 HZ FEW100 32/22 Q1009 NOSIG=
202510171900 METAR VABB 171900Z 06005KT 3000 HZ FEW100 31/22 Q1009 NOSIG=
202510171930 METAR VABB 171930Z 07006KT 3000 HZ FEW100 31/22 Q1009 NOSIG=
202510172000 METAR VABB 172000Z 09003KT 3000 HZ FEW100 30/23 Q1008 NOSIG=
202510172030 METAR VABB 172030Z 13003KT 3000 HZ FEW100 30/22 Q1008 NOSIG=
202510172100 METAR VABB 172100Z 11003KT 3000 HZ FEW100 30/22 Q1008 NOSIG=
202510172130 METAR VABB 172130Z 11005KT 3000 HZ FEW100 29/21 Q1008 NOSIG=
202510172200 METAR VABB 172200Z 07004KT 3000 HZ FEW100 30/21 Q1008 NOSIG=
202510172230 METAR VABB 172230Z 00000KT 3000 HZ FEW100 29/21 Q1008 NOSIG=
202510172300 METAR VABB 172300Z 15004KT 3000 HZ FEW100 29/21 Q1008 NOSIG=
202510172330 METAR VABB 172330Z 12005KT 3000 HZ FEW100 29/21 Q1008 NOSIG=
202510180000 METAR VABB 180000Z 09003KT 3000 HZ FEW100 29/22 Q1008 NOSIG=
202510180030 METAR VABB 180030Z 00000KT 3000 HZ FEW100 29/21 Q1008 NOSIG=
202510180100 METAR VABB 180100Z 00000KT 3000 HZ FEW100 29/22 Q1009 NOSIG=
202510180130 METAR VABB 180130Z 00000KT 3000 HZ FEW100 30/22 Q1009 NOSIG=
202510180200 METAR VABB 180200Z 00000KT 3000 HZ FEW100 29/22 Q1009 NOSIG=
202510180230 METAR VABB 180230Z 14003KT 3000 HZ NSC 30/23 Q1010 NOSIG=
202510180300 METAR VABB 180300Z 07005KT 2500 HZ FEW100 30/22 Q1010 NOSIG=
202510180330 METAR VABB 180330Z 10004KT 2500 FU FEW100 31/23 Q1010 NOSIG=
202510180400 METAR VABB 180400Z 12007KT 2500 FU FEW100 31/22 Q1011 NOSIG=
202510180430 METAR VABB 180430Z 13005KT 2500 FU FEW100 32/22 Q1011 NOSIG=
202510180500 METAR VABB 180500Z 14005KT 2500 FU FEW100 33/22 Q1011 NOSIG=
202510180530 METAR VABB 180530Z 14005KT 2500 FU NSC 34/21 Q1010 BECMG 3000 FU=
202510180600 METAR VABB 180600Z 15005KT 3000 FU NSC 34/23 Q1010 NOSIG=
202510180630 METAR VABB 180630Z 16004KT 3000 FU NSC 35/23 Q1009 NOSIG=
202510180700 METAR VABB 180700Z 16004KT 3000 FU NSC 35/21 Q1009 NOSIG=
202510180730 METAR VABB 180730Z 27007KT 3000 FU NSC 35/23 Q1008 NOSIG=
202510180800 METAR VABB 180800Z 27009KT 3000 FU FEW020 34/23 Q1008 NOSIG=
202510180830 METAR VABB 180830Z 28010KT 3000 FU FEW020 35/23 Q1007 NOSIG=
202510180900 METAR VABB 180900Z 28010KT 3000 FU FEW020 34/22 Q1007 NOSIG=
202510180930 METAR VABB 180930Z 27009KT 3000 FU SCT020 34/22 Q1007 NOSIG=
202510181000 METAR VABB 181000Z 28009KT 3000 FU SCT020 34/22 Q1006 NOSIG=
202510181030 METAR VABB 181030Z 29009KT 3000 FU SCT020 34/22 Q1006 NOSIG=
202510181100 METAR VABB 181100Z 29010KT 3000 FU SCT020 33/22 Q1007 NOSIG=
202510181130 METAR VABB 181130Z 31008KT 3000 FU SCT020 33/22 Q1007 NOSIG=
202510181200 METAR VABB 181200Z 30008KT 3000 FU SCT020 32/22 Q1007 NOSIG=
202510181230 METAR VABB 181230Z 32007KT 3000 FU FEW020 SCT100 32/23 Q1007 NOSIG=
202510181300 METAR VABB 181300Z 32006KT 3000 FU FEW020 SCT025 32/22 Q1007 NOSIG=
202510181330 METAR VABB 181330Z 33006KT 3000 FU FEW020 SCT025 31/22 Q1007 NOSIG=
202510181400 METAR VABB 181400Z 01006KT 3000 FU FEW020 SCT100 31/23 Q1008 NOSIG=
202510181430 METAR VABB 181430Z 34005KT 3000 FU FEW020 SCT100 31/22 Q1008 NOSIG=
202510181500 METAR VABB 181500Z 01003KT 3000 FU FEW020 SCT100 31/21 Q1008 NOSIG=
202510181530 METAR VABB 181530Z 01004KT 3000 FU FEW020 SCT100 31/21 Q1009 NOSIG=
202510181600 METAR VABB 181600Z 03006KT 3000 FU FEW020 31/22 Q1009 NOSIG=
202510181630 METAR VABB 181630Z 04005KT 3000 FU FEW020 30/21 Q1009 NOSIG=
202510181700 METAR VABB 181700Z 05007KT 3000 FU FEW020 30/22 Q1009 NOSIG=
202510181730 METAR VABB 181730Z 08005KT 3000 FU FEW020 30/23 Q1009 NOSIG=
202510181800 METAR VABB 181800Z 06004KT 3000 FU FEW020 30/23 Q1009 NOSIG=
202510181830 METAR VABB 181830Z 08005KT 3000 FU FEW020 30/23 Q1008 NOSIG=
202510181900 METAR VABB 181900Z 06004KT 3000 FU FEW020 30/23 Q1008 NOSIG=
202510181930 METAR VABB 181930Z 06005KT 3000 FU FEW020 30/22 Q1008 NOSIG=
202510182000 METAR VABB 182000Z 09003KT 3000 FU FEW020 29/23 Q1007 NOSIG=
202510182030 METAR VABB 182030Z 07003KT 3000 FU FEW020 29/22 Q1007 NOSIG=
202510182100 METAR VABB 182100Z 11004KT 3000 FU FEW020 29/23 Q1007 NOSIG=
202510182130 METAR VABB 182130Z 09007KT 3000 FU FEW020 29/23 Q1007 NOSIG=
202510182200 METAR VABB 182200Z 08004KT 3000 HZ FEW020 28/23 Q1006 NOSIG=
202510182230 METAR VABB 182230Z 07003KT 3000 HZ FEW020 28/23 Q1006 NOSIG=
202510182300 METAR VABB 182300Z 06005KT 3000 HZ FEW020 28/23 Q1007 NOSIG=
202510182330 METAR VABB 182330Z 12006KT 3000 HZ FEW020 28/23 Q1007 NOSIG=
202510190000 METAR VABB 190000Z 11006KT 3000 HZ FEW020 28/22 Q1007 NOSIG=
202510190030 METAR VABB 190030Z 12005KT 3000 HZ FEW020 28/22 Q1007 TEMPO 1500 HZ=
202510190100 METAR VABB 190100Z 15004KT 2200 HZ FEW100 28/22 Q1008 NOSIG=
202510190130 METAR VABB 190130Z 10003KT 2200 HZ FEW100 28/22 Q1008 NOSIG=
202510190200 METAR VABB 190200Z 09005KT 2200 HZ FEW100 29/22 Q1008 NOSIG=
202510190230 METAR VABB 190230Z 10005KT 2200 HZ FEW100 29/22 Q1009 NOSIG=
202510190300 METAR VABB 190300Z 11005KT 2200 HZ FEW100 30/22 Q1009 NOSIG=
202510190330 METAR VABB 190330Z 09006KT 2500 HZ FEW100 31/22 Q1009 BECMG 3000 HZ=
202510190400 METAR VABB 190400Z 10008KT 2500 HZ FEW100 31/22 Q1009 NOSIG=
202510190430 METAR VABB 190430Z 10008KT 2500 HZ FEW100 32/22 Q1009 NOSIG=
202510190500 METAR VABB 190500Z 10006KT 2500 HZ NSC 32/22 Q1009 NOSIG=
202510190530 METAR VABB 190530Z 13007KT 2500 FU NSC 33/22 Q1009 NOSIG=
202510190600 METAR VABB 190600Z 11008KT 2500 HZ NSC 33/22 Q1009 NOSIG=
202510190630 METAR VABB 190630Z 12006KT 2500 HZ NSC 33/22 Q1008 NOSIG=
202510190700 METAR VABB 190700Z 14007KT 2500 HZ NSC 34/22 Q1007 BECMG 3000 HZ=
202510190730 METAR VABB 190730Z 13007KT 3000 HZ NSC 34/21 Q1007 NOSIG=
202510190800 METAR VABB 190800Z 12007KT 3000 HZ NSC 35/20 Q1007 NOSIG=
202510190830 METAR VABB 190830Z 11005KT 3000 HZ NSC 35/21 Q1006 NOSIG=
202510190900 METAR VABB 190900Z 28007KT 3000 HZ SCT020 34/22 Q1006 NOSIG=
202510190930 METAR VABB 190930Z 26010KT 3000 FU SCT020 34/22 Q1005 NOSIG=
202510191000 METAR VABB 191000Z 27009KT 3000 FU SCT020 34/22 Q1005 NOSIG=
202510191030 METAR VABB 191030Z 30009KT 3000 FU SCT020 33/23 Q1005 NOSIG=
202510191100 METAR VABB 191100Z 29010KT 3000 FU FEW020 33/23 Q1005 NOSIG=
202510191130 METAR VABB 191130Z 29009KT 3000 FU FEW020 33/23 Q1005 NOSIG=
202510191200 METAR VABB 191200Z 33007KT 3000 FU FEW020 32/22 Q1006 NOSIG=
202510191230 METAR VABB 191230Z 31008KT 2500 FU FEW020 32/22 Q1006 NOSIG=
202510191300 METAR VABB 191300Z 32007KT 2500 FU FEW020 31/23 Q1006 NOSIG=
202510191330 METAR VABB 191330Z 32006KT 2500 HZ FEW020 31/23 Q1006 NOSIG=
202510191400 METAR VABB 191400Z 30005KT 2500 HZ FEW020 31/23 Q1006 NOSIG=
202510191430 METAR VABB 191430Z 33004KT 2500 HZ FEW020 31/23 Q1007 NOSIG=
202510191500 METAR VABB 191500Z 31003KT 2500 HZ FEW020 31/23 Q1007 NOSIG=
202510191530 METAR VABB 191530Z 32004KT 2500 HZ FEW020 31/24 Q1007 NOSIG=
202510191600 METAR VABB 191600Z 32003KT 2500 HZ FEW020 31/24 Q1008 NOSIG=
202510191630 METAR VABB 191630Z 33003KT 2500 HZ FEW020 30/24 Q1008 NOSIG=
202510191700 METAR VABB 191700Z 01004KT 2500 HZ NSC 30/24 Q1008 NOSIG=
202510191730 METAR VABB 191730Z 01003KT 2500 HZ NSC 30/24 Q1008 NOSIG=
202510191800 METAR VABB 191800Z 00000KT 2500 HZ NSC 30/24 Q1008 NOSIG=
202510191830 METAR VABB 191830Z 35003KT 2500 HZ NSC 30/23 Q1008 NOSIG=
202510191900 METAR VABB 191900Z 04003KT 2500 HZ NSC 30/24 Q1007 NOSIG=
202510191930 METAR VABB 191930Z 07004KT 2500 HZ NSC 30/24 Q1007 NOSIG=
202510192000 METAR VABB 192000Z 13005KT 2500 HZ NSC 30/23 Q1007 NOSIG=
202510192030 METAR VABB 192030Z 00000KT 2500 HZ NSC 29/23 Q1006 NOSIG=
202510192100 METAR VABB 192100Z 07004KT 2500 HZ NSC 29/24 Q1006 NOSIG=
202510192130 METAR VABB 192130Z 00000KT 2500 HZ NSC 29/24 Q1006 NOSIG=
202510192200 METAR VABB 192200Z 10003KT 2500 HZ NSC 28/24 Q1006 NOSIG=
202510192230 METAR VABB 192230Z 08004KT 2500 HZ NSC 28/24 Q1006 NOSIG=
202510192300 METAR VABB 192300Z 12004KT 2500 HZ NSC 28/25 Q1006 NOSIG=
202510192330 METAR VABB 192330Z 14005KT 2500 BR NSC 28/24 Q1006 NOSIG=
202510200000 METAR VABB 200000Z 11004KT 2500 BR NSC 28/24 Q1006 NOSIG=
202510200030 METAR VABB 200030Z 05005KT 2500 BR NSC 28/24 Q1006 NOSIG=
202510200100 METAR VABB 200100Z 13003KT 2100 BR NSC 28/24 Q1007 BECMG 1500 BR=
202510200130 METAR VABB 200130Z 13006KT 1500 R27/2000 BR NSC 28/23 Q1007 NOSIG=
202510200200 METAR VABB 200200Z 11006KT 1500 R27/2000 BR NSC 29/23 Q1008 NOSIG=
202510200230 METAR VABB 200230Z 11008KT 1500 R27/2000 HZ NSC 29/23 Q1008 NOSIG=
202510200300 METAR VABB 200300Z 10007KT 2100 HZ NSC 29/23 Q1008 NOSIG=
202510200330 METAR VABB 200330Z 10006KT 2100 HZ NSC 31/23 Q1009 NOSIG=
202510200400 METAR VABB 200400Z 10008KT 2100 HZ NSC 31/21 Q1009 NOSIG=
202510200430 METAR VABB 200430Z 12007KT 2100 FU NSC 32/22 Q1009 NOSIG=
202510200500 METAR VABB 200500Z 13010KT 2100 FU NSC 32/21 Q1009 NOSIG=
202510200530 METAR VABB 200530Z 08008KT 2500 FU NSC 33/21 Q1009 NOSIG=
202510200600 METAR VABB 200600Z 12009KT 2500 FU NSC 33/21 Q1008 BECMG 3000 FU=
202510200630 METAR VABB 200630Z 11007KT 3000 FU NSC 34/20 Q1008 NOSIG=
202510200700 METAR VABB 200700Z 11008KT 3500 FU NSC 35/20 Q1007 NOSIG=
202510200730 METAR VABB 200730Z 14007KT 3500 FU NSC 34/20 Q1006 NOSIG=
202510200800 METAR VABB 200800Z 15005KT 3500 FU NSC 35/20 Q1006 NOSIG=
202510200830 METAR VABB 200830Z 11006KT 3500 FU NSC 35/20 Q1005 NOSIG=
202510200900 METAR VABB 200900Z 10007KT 3500 FU NSC 36/19 Q1005 NOSIG=
202510200929 METAR VABB 200929Z 07005KT 3500 FU NSC 36/20 Q1004 NOSIG=
202510200930 METAR VABB 200930Z 07005KT 3500 FU NSC 36/20 Q1004 NOSIG=
202510201000 METAR VABB 201000Z 06007KT 3500 FU NSC 34/25 Q1004 NOSIG=
202510201030 METAR VABB 201030Z 07003KT 3500 FU NSC 35/19 Q1004 NOSIG=
202510201100 METAR VABB 201100Z 04005KT 3500 FU NSC 35/19 Q1004 NOSIG=
202510201130 METAR VABB 201130Z 32009KT 3500 FU NSC 33/24 Q1004 BECMG 3000 FU=
202510201200 METAR VABB 201200Z 33009KT 3000 FU NSC 33/24 Q1004 NOSIG=
202510201230 METAR VABB 201230Z 34006KT 2500 FU NSC 32/24 Q1005 NOSIG=
202510201300 METAR VABB 201300Z 01006KT 2500 FU NSC 32/24 Q1005 NOSIG=
202510201330 METAR VABB 201330Z 35005KT 2500 FU NSC 32/24 Q1005 NOSIG=
202510201400 METAR VABB 201400Z 36007KT 2500 HZ NSC 31/24 Q1006 NOSIG=
202510201430 METAR VABB 201430Z 35006KT 2500 HZ NSC 31/24 Q1006 NOSIG=
202510201500 METAR VABB 201500Z 01005KT 2500 HZ NSC 31/24 Q1007 NOSIG=
202510201530 METAR VABB 201530Z 05008KT 2500 HZ NSC 31/24 Q1007 NOSIG=
202510201600 METAR VABB 201600Z 13005KT 2500 HZ NSC 30/24 Q1008 NOSIG=
202510201630 METAR VABB 201630Z 08003KT 2500 HZ NSC 31/24 Q1008 NOSIG=
202510201700 METAR VABB 201700Z 00000KT 2500 HZ NSC 30/24 Q1008 NOSIG=
202510201730 METAR VABB 201730Z 00000KT 2500 HZ NSC 30/24 Q1008 NOSIG=
202510201800 METAR VABB 201800Z 00000KT 2500 HZ NSC 30/24 Q1007 NOSIG=
202510201830 METAR VABB 201830Z 00000KT 2500 HZ NSC 30/23 Q1007 NOSIG=
202510201900 METAR VABB 201900Z 00000KT 2100 HZ NSC 30/24 Q1007 NOSIG=
202510201930 METAR VABB 201930Z 06004KT 2500 HZ NSC 30/23 Q1007 NOSIG=
202510202000 METAR VABB 202000Z 00000KT 2500 HZ NSC 30/22 Q1007 NOSIG=
202510202030 METAR VABB 202030Z 08003KT 2500 HZ NSC 30/22 Q1007 NOSIG=
202510202100 METAR VABB 202100Z 09005KT 2500 HZ NSC 30/22 Q1007 NOSIG=
202510202130 METAR VABB 202130Z 09006KT 2500 HZ NSC 29/22 Q1007 NOSIG=
202510202200 METAR VABB 202200Z 07006KT 2500 HZ NSC 29/22 Q1007 NOSIG=
202510202230 METAR VABB 202230Z 04006KT 2500 HZ NSC 29/22 Q1007 NOSIG=
202510202300 METAR VABB 202300Z VRB03KT 2500 HZ NSC 29/21 Q1007 NOSIG=
202510202330 METAR VABB 202330Z 09005KT 2500 HZ NSC 30/20 Q1007 NOSIG=
202510210000 METAR VABB 210000Z 13007KT 2500 HZ NSC 29/20 Q1007 NOSIG=
202510210030 METAR VABB 210030Z 14005KT 2500 HZ NSC 29/21 Q1007 NOSIG=
202510210100 METAR VABB 210100Z 14004KT 2100 BR FEW100 29/21 Q1007 TEMPO 1500 BR=
202510210130 METAR VABB 210130Z 10004KT 2200 BR FEW100 28/21 Q1008 NOSIG=
202510210200 METAR VABB 210200Z 10004KT 2500 BR NSC 29/21 Q1008 NOSIG=
202510210230 METAR VABB 210230Z 09005KT 2500 BR NSC 29/20 Q1009 NOSIG=
202510210300 METAR VABB 210300Z 09005KT 2100 HZ NSC 30/20 Q1009 NOSIG=
202510210330 METAR VABB 210330Z 11005KT 2100 FU NSC 31/20 Q1009 NOSIG=
202510210400 METAR VABB 210400Z 11005KT 2100 FU NSC 32/20 Q1009 NOSIG=
202510210430 METAR VABB 210430Z 11005KT 2100 FU NSC 33/20 Q1009 NOSIG=
202510210500 METAR VABB 210500Z 14005KT 2500 FU NSC 34/21 Q1009 NOSIG=
202510210530 METAR VABB 210530Z 14005KT 2500 FU NSC 33/22 Q1009 NOSIG=
202510210600 METAR VABB 210600Z 15004KT 2500 FU NSC 34/21 Q1009 NOSIG=
202510210630 METAR VABB 210630Z 18004KT 2500 FU NSC 34/22 Q1008 NOSIG=
202510210700 METAR VABB 210700Z 26004KT 2500 FU NSC 34/22 Q1008 NOSIG=
202510210730 METAR VABB 210730Z 30004KT 2500 FU NSC 34/22 Q1007 NOSIG=
202510210800 METAR VABB 210800Z 27008KT 2500 FU NSC 35/22 Q1007 BECMG 3000 FU=
202510210830 METAR VABB 210830Z 27011KT 3000 FU NSC 34/22 Q1006 NOSIG=
202510210900 METAR VABB 210900Z 27012KT 3000 FU NSC 34/21 Q1006 NOSIG=
202510210930 METAR VABB 210930Z 29011KT 3000 FU NSC 34/21 Q1006 NOSIG=
202510211000 METAR VABB 211000Z 29013KT 3000 FU NSC 34/21 Q1005 NOSIG=
202510211030 METAR VABB 211030Z 29013KT 3000 FU FEW020 FEW030CB 34/21 Q1005 NOSIG=
202510211100 METAR VABB 211100Z 32011KT 3000 FU FEW020 FEW030CB 33/20 Q1005 NOSIG=
202510211130 METAR VABB 211130Z 30011KT 3000 FU FEW020 FEW030CB 33/20 Q1006 NOSIG=
202510211200 METAR VABB 211200Z 29010KT 3000 FU FEW020 FEW030CB 33/21 Q1006 NOSIG=
202510211230 METAR VABB 211230Z 16009KT 2500 TS FEW020 FEW030CB SCT100 31/21 Q1007 TEMPO 1500 TSRA=
202510211300 METAR VABB 211300Z 13018KT 2500 TS SCT020 FEW030CB SCT090 27/22 Q1008 TEMPO 1500 TSRA=
202510211330 METAR VABB 211330Z 09009KT 2500 -TSRA SCT015 FEW030CB SCT090 26/24 Q1008 TEMPO 1500 TSRA=
202510211400 METAR VABB 211400Z 05009KT 2500 -TSRA SCT015 FEW030CB SCT090 26/24 Q1009 NOSIG=
202510211430 METAR VABB 211430Z 05009KT 2500 RA SCT018 FEW025TCU SCT090 27/23 Q1009 NOSIG=
202510211500 METAR VABB 211500Z 03011KT 2500 -TSRA FEW012 SCT018 FEW030CB OVC080 27/23 Q1009 TEMPO 1500 TSRA=
202510211530 METAR VABB 211530Z 06014KT 2500 -TSRA FEW012 SCT018 FEW030CB OVC080 27/23 Q1009 TEMPO 1500 TSRA=
202510211600 METAR VABB 211600Z 08010KT 2500 BR SCT018 FEW030CB BKN090 27/23 Q1009 NOSIG=
202510211630 METAR VABB 211630Z 07008KT 2500 BR SCT018 FEW030CB BKN090 27/23 Q1009 NOSIG=
202510211700 METAR VABB 211700Z 08010KT 2500 BR SCT018 FEW030CB BKN090 27/23 Q1009 NOSIG=
202510211730 METAR VABB 211730Z 08009KT 2500 BR SCT018 FEW025TCU BKN090 27/23 Q1009 NOSIG=
202510211800 METAR VABB 211800Z 12011KT 2500 BR SCT018 FEW025TCU BKN090 26/23 Q1009 NOSIG=
202510211830 METAR VABB 211830Z 11012KT 2500 BR SCT020 SCT025 BKN100 26/24 Q1009 NOSIG=
202510211900 METAR VABB 211900Z 09007KT 2500 BR SCT020 SCT025 BKN100 26/23 Q1009 NOSIG=
202510211930 METAR VABB 211930Z 10008KT 2500 BR FEW020 SCT025 BKN100 26/23 Q1008 NOSIG=
202510212000 METAR VABB 212000Z 06005KT 2500 BR FEW020 SCT100 26/23 Q1008 NOSIG=
202510212030 METAR VABB 212030Z 07005KT 2500 BR FEW020 SCT100 27/23 Q1008 NOSIG=
202510212100 METAR VABB 212100Z 05004KT 2500 BR FEW020 SCT100 26/23 Q1008 NOSIG=
202510212130 METAR VABB 212130Z 09003KT 2500 BR FEW020 27/23 Q1007 NOSIG=
202510212200 METAR VABB 212200Z 16003KT 2500 BR FEW020 26/23 Q1007 NOSIG=
202510212230 METAR VABB 212230Z 11003KT 2500 BR FEW020 26/24 Q1007 NOSIG=
202510212300 METAR VABB 212300Z 11003KT 2500 BR FEW020 SCT100 27/23 Q1007 NOSIG=
202510212330 METAR VABB 212330Z 10005KT 2500 BR FEW020 SCT100 28/23 Q1007 NOSIG=
202510220000 METAR VABB 220000Z 14004KT 2500 BR FEW020 SCT100 27/23 Q1007 NOSIG=
202510220030 METAR VABB 220030Z 12005KT 2500 BR FEW020 SCT100 28/23 Q1008 NOSIG=
202510220100 METAR VABB 220100Z 11003KT 2100 BR FEW020 SCT100 27/23 Q1008 NOSIG=
202510220130 METAR VABB 220130Z 12003KT 2100 BR FEW020 SCT100 27/23 Q1009 NOSIG=
202510220200 METAR VABB 220200Z 12003KT 2100 BR SCT100 28/23 Q1009 NOSIG=
202510220230 METAR VABB 220230Z 14004KT 2100 BR FEW100 28/23 Q1010 NOSIG=
202510220300 METAR VABB 220300Z 13005KT 2100 HZ FEW100 29/24 Q1010 NOSIG=
202510220330 METAR VABB 220330Z 10005KT 2500 HZ FEW020 SCT100 30/24 Q1010 NOSIG=
202510220400 METAR VABB 220400Z 08003KT 2500 HZ FEW100 31/24 Q1010 NOSIG=
202510220430 METAR VABB 220430Z 11005KT 2500 HZ FEW100 32/24 Q1010 NOSIG=
202510220500 METAR VABB 220500Z 15004KT 2500 FU FEW020 SCT100 32/23 Q1010 BECMG 3000 FU=
202510220530 METAR VABB 220530Z 15005KT 3000 FU FEW020 SCT100 33/23 Q1010 NOSIG=
202510220600 METAR VABB 220600Z 13006KT 3000 FU FEW020 SCT100 33/23 Q1010 NOSIG=
202510220630 METAR VABB 220630Z 14005KT 3000 FU FEW100 33/22 Q1009 NOSIG=
202510220700 METAR VABB 220700Z 14006KT 3500 FU FEW020 33/23 Q1009 NOSIG=
202510220730 METAR VABB 220730Z 12006KT 4000 FU FEW020 34/23 Q1008 NOSIG=
202510220800 METAR VABB 220800Z 10006KT 4000 FU SCT020 34/23 Q1008 NOSIG=
202510220830 METAR VABB 220830Z 08007KT 4000 FU SCT020 34/23 Q1007 NOSIG=
202510220900 METAR VABB 220900Z 28009KT 4000 FU FEW020 SCT025 34/24 Q1007 NOSIG=
202510220930 METAR VABB 220930Z 29011KT 4000 HZ SCT020 33/25 Q1006 NOSIG=
202510221000 METAR VABB 221000Z 29010KT 4000 FU FEW020 SCT025 33/23 Q1006 NOSIG=
202510221030 METAR VABB 221030Z 28010KT 4000 FU FEW020 SCT025 33/24 Q1006 NOSIG=
202510221100 METAR VABB 221100Z 28009KT 4000 FU FEW020 SCT025 33/23 Q1006 NOSIG=
202510010000 METAR VABB NIL=
202510221130 METAR VABB 221130Z 29009KT 4000 FU FEW020 SCT025 33/23 Q1006 NOSIG=
202510221200 METAR VABB 221200Z 32008KT 4000 HZ FEW020 SCT025 32/24 Q1006 NOSIG=
202510221230 METAR VABB 221230Z 32008KT 4000 HZ FEW020 FEW025TCU 31/23 Q1007 BECMG 3000 HZ=
202510221300 METAR VABB 221300Z 36008KT 3000 HZ SCT020 FEW025TCU 31/23 Q1007 TEMPO 1500 SHRA=
202510221330 METAR VABB 221330Z 35008KT 3000 HZ SCT020 SCT025 31/24 Q1007 NOSIG=
202510221400 METAR VABB 221400Z 35007KT 3000 HZ FEW020 SCT025 31/24 Q1007 NOSIG=
202510221430 METAR VABB 221430Z 01005KT 3000 HZ FEW020 SCT025 31/24 Q1008 NOSIG=
202510221500 METAR VABB 221500Z 05006KT 3000 HZ FEW020 SCT025 31/24 Q1008 NOSIG=
202510221530 METAR VABB 221530Z 04006KT 3000 HZ FEW020 SCT025 31/24 Q1008 NOSIG=
202510221600 METAR VABB 221600Z 03006KT 3000 HZ FEW020 30/23 Q1008 NOSIG=
202510221630 METAR VABB 221630Z 36006KT 3000 HZ FEW020 30/24 Q1008 NOSIG=
202510221700 METAR VABB 221700Z 15004KT 3000 HZ FEW020 30/24 Q1008 NOSIG=
202510221730 METAR VABB 221730Z 16003KT 3000 HZ FEW020 30/25 Q1008 NOSIG=
202510221800 METAR VABB 221800Z 14005KT 2500 HZ FEW020 29/24 Q1008 NOSIG=
202510221830 METAR VABB 221830Z 06007KT 2500 HZ FEW020 30/24 Q1008 NOSIG=
202510221900 METAR VABB 221900Z 11006KT 2500 HZ FEW020 29/24 Q1008 NOSIG=
202510221930 METAR VABB 221930Z 09006KT 2500 HZ FEW020 29/24 Q1008 NOSIG=
202510222000 METAR VABB 222000Z 08005KT 2500 HZ FEW020 29/24 Q1007 NOSIG=
202510222030 METAR VABB 222030Z 05006KT 2500 HZ FEW020 29/24 Q1007 NOSIG=
202510222100 METAR VABB 222100Z 05005KT 2500 HZ FEW020 29/24 Q1007 NOSIG=
202510222130 METAR VABB 222130Z 06006KT 2500 HZ FEW020 29/24 Q1007 NOSIG=
202510222200 METAR VABB 222200Z 05007KT 2500 HZ FEW020 28/24 Q1006 NOSIG=
202510222230 METAR VABB 222230Z 05004KT 2500 HZ FEW020 28/24 Q1006 NOSIG=
202510222300 METAR VABB 222300Z 09003KT 2500 HZ FEW020 29/24 Q1007 NOSIG=
202510222330 METAR VABB 222330Z 08003KT 2500 HZ FEW020 29/23 Q1007 NOSIG=
202510230000 METAR VABB 230000Z 07005KT 2500 HZ FEW020 29/23 Q1007 NOSIG=
202510230030 METAR VABB 230030Z 04005KT 2500 HZ FEW020 29/23 Q1007 NOSIG=
202510230100 METAR VABB 230100Z 08004KT 2500 HZ FEW020 SCT100 28/23 Q1007 NOSIG=
202510230130 METAR VABB 230130Z 10006KT 2500 HZ FEW020 SCT100 29/23 Q1008 NOSIG=
202510230200 METAR VABB 230200Z 12005KT 2500 HZ FEW020 SCT100 29/23 Q1008 NOSIG=
202510230230 METAR VABB 230230Z 13007KT 2500 HZ FEW020 SCT100 29/23 Q1008 NOSIG=
202510230300 METAR VABB 230300Z 11006KT 2500 HZ FEW020 SCT100 30/23 Q1009 NOSIG=
202510230330 METAR VABB 230330Z 08006KT 2500 HZ FEW020 SCT100 31/23 Q1009 BECMG 3000 HZ=
202510230400 METAR VABB 230400Z 11007KT 3000 HZ SCT100 32/23 Q1009 NOSIG=
202510230430 METAR VABB 230430Z 10007KT 3000 HZ SCT100 33/23 Q1009 NOSIG=
202510230500 METAR VABB 230500Z 12008KT 3000 HZ SCT100 33/23 Q1009 NOSIG=
202510230530 METAR VABB 230530Z 10009KT 3000 FU FEW100 34/23 Q1008 BECMG 5000 FU=
202510230600 METAR VABB 230600Z 12007KT 4000 FU FEW100 34/24 Q1008 NOSIG=
202510230630 METAR VABB 230630Z 11007KT 5000 FU FEW020 SCT025 34/23 Q1008 NOSIG=
202510230700 METAR VABB 230700Z 12007KT 5000 FU FEW020 SCT025 35/23 Q1007 NOSIG=
202510230730 METAR VABB 230730Z 07009KT 5000 FU FEW020 SCT025 35/23 Q1006 NOSIG=
202510230800 METAR VABB 230800Z 12006KT 5000 FU FEW020 SCT025 35/23 Q1006 NOSIG=
202510230830 METAR VABB 230830Z 10006KT 5000 FU FEW020 SCT025 35/23 Q1005 NOSIG=
202510230900 METAR VABB 230900Z 11009KT 5000 FU FEW020 SCT025 36/23 Q1005 NOSIG=
202510230930 METAR VABB 230930Z 09008KT 5000 FU FEW020 SCT025 36/23 Q1004 NOSIG=
202510231000 METAR VABB 231000Z 02006KT 5000 FU FEW020 SCT025 36/23 Q1004 NOSIG=
202510231030 METAR VABB 231030Z 05007KT 5000 FU FEW020 SCT025 36/23 Q1004 NOSIG=
202510231100 METAR VABB 231100Z 02008KT 5000 FU FEW020 SCT025 36/23 Q1004 NOSIG=
202510231130 METAR VABB 231130Z 33009KT 5000 FU FEW020 34/24 Q1004 NOSIG=
202510231200 METAR VABB 231200Z 33008KT 4000 HZ FEW020 SCT100 33/25 Q1004 NOSIG=
202510231230 METAR VABB 231230Z 33007KT 4000 HZ FEW020 SCT100 32/25 Q1005 BECMG 3000 HZ=
202510231300 METAR VABB 231300Z 33008KT 3000 HZ FEW020 SCT100 32/24 Q1005 NOSIG=
202510231330 METAR VABB 231330Z 35009KT 3000 HZ FEW020 SCT100 32/25 Q1005 NOSIG=
202510231400 METAR VABB 231400Z 09005KT 3000 TS SCT020 FEW030CB SCT100 32/25 Q1006 NOSIG=
202510231430 METAR VABB 231430Z 20006KT 3000 TS SCT020 FEW030CB SCT100 30/25 Q1006 NOSIG=
202510231500 METAR VABB 231500Z 17007G17KT 3000 TS SCT020 FEW030CB SCT100 29/25 Q1007 NOSIG=
202510231530 METAR VABB 231530Z 17006KT 3000 HZ SCT020 FEW030CB SCT100 30/24 Q1007 NOSIG=
202510231600 METAR VABB 231600Z 20006KT 3000 HZ SCT020 FEW030CB SCT100 29/24 Q1007 NOSIG=
202510231630 METAR VABB 231630Z 20006KT 3000 -DZ SCT018 FEW030CB SCT100 29/24 Q1007 NOSIG=
202510231700 METAR VABB 231700Z 18004KT 3000 HZ SCT020 FEW030CB SCT100 30/24 Q1007 NOSIG=
202510231730 METAR VABB 231730Z 17005KT 3000 HZ SCT020 FEW030CB SCT100 30/23 Q1007 NOSIG=
202510231800 METAR VABB 231800Z 16004KT 3000 HZ SCT020 FEW030CB SCT100 29/24 Q1007 NOSIG=
202510231830 METAR VABB 231830Z 16004KT 3000 HZ SCT020 FEW030CB SCT100 29/24 Q1007 NOSIG=
202510231900 METAR VABB 231900Z 16007KT 3000 HZ SCT020 FEW030CB SCT100 29/23 Q1007 NOSIG=
202510231930 METAR VABB 231930Z 15005KT 3000 HZ SCT020 FEW030CB SCT100 30/23 Q1007 NOSIG=
202510232000 METAR VABB 232000Z 18004KT 3000 HZ SCT020 FEW030CB SCT100 29/24 Q1007 NOSIG=
202510232030 METAR VABB 232030Z 16004KT 3000 HZ FEW020 FEW025TCU SCT100 29/23 Q1007 NOSIG=
202510232100 METAR VABB 232100Z 14003KT 3000 HZ FEW020 FEW030CB SCT100 29/23 Q1006 NOSIG=
202510232130 METAR VABB 232130Z 13003KT 3000 HZ FEW020 FEW030CB SCT100 30/23 Q1006 NOSIG=
202510232200 METAR VABB 232200Z 13005KT 3000 HZ FEW020 FEW030CB SCT100 29/23 Q1006 NOSIG=
202510232230 METAR VABB 232230Z 19007KT 3000 HZ FEW020 FEW030CB SCT100 29/25 Q1007 NOSIG=
202510232300 METAR VABB 232300Z 21004KT 3000 HZ FEW020 FEW030CB SCT100 29/25 Q1007 NOSIG=
202510232330 METAR VABB 232330Z 20004KT 3000 BR FEW020 FEW030CB SCT100 29/25 Q1007 NOSIG=
202510240000 METAR VABB 240000Z 19003KT 3000 BR FEW020 FEW025TCU SCT100 28/25 Q1007 NOSIG=
202510240030 METAR VABB 240030Z 00000KT 2500 BR FEW020 SCT100 29/25 Q1007 NOSIG=
202510240100 METAR VABB 240100Z 00000KT 2500 BR FEW020 SCT100 29/25 Q1007 NOSIG=
202510240130 METAR VABB 240130Z 14003KT 2500 HZ FEW020 SCT100 29/24 Q1008 NOSIG=
202510240200 METAR VABB 240200Z 09005KT 2500 HZ FEW020 SCT100 29/24 Q1008 NOSIG=
202510240230 METAR VABB 240230Z 08005KT 3000 HZ FEW020 SCT100 29/24 Q1008 NOSIG=
202510240300 METAR VABB 240300Z 12005KT 3000 HZ FEW020 SCT100 29/24 Q1008 NOSIG=
202510240330 METAR VABB 240330Z 13004KT 3000 HZ FEW020 SCT100 31/24 Q1008 BECMG 5000 FU=
202510240400 METAR VABB 240400Z 13006KT 4000 FU SCT100 32/24 Q1008 NOSIG=
202510240430 METAR VABB 240430Z 10006KT 4000 HZ FEW020 SCT025 BKN100 32/24 Q1008 NOSIG=
202510240500 METAR VABB 240500Z 14008KT 4000 HZ FEW020 SCT025 BKN100 33/24 Q1008 NOSIG=
202510240530 METAR VABB 240530Z 08011KT 4500 FU FEW020 SCT025 BKN100 34/24 Q1008 NOSIG=
202510240600 METAR VABB 240600Z 12010G20KT 4500 FU FEW020 SCT025 BKN100 33/23 Q1008 BECMG 5000 FU=
202510240630 METAR VABB 240630Z 12008KT 5000 FU FEW020 SCT025 BKN100 33/23 Q1007 NOSIG=
202510240700 METAR VABB 240700Z 11009G20KT 5000 FU FEW020 SCT025 BKN100 33/23 Q1007 NOSIG=
202510240730 METAR VABB 240730Z 11008G20KT 5000 FU FEW020 SCT025 BKN100 33/23 Q1006 NOSIG=
202510240800 METAR VABB 240800Z 08008G20KT 5000 FU FEW020 SCT025 BKN100 33/23 Q1006 NOSIG=
202510240830 METAR VABB 240830Z 10008G20KT 5000 FU FEW020 SCT025 BKN100 33/23 Q1006 NOSIG=
202510240900 METAR VABB 240900Z 11006KT 5000 FU FEW020 SCT025 BKN100 34/23 Q1005 NOSIG=
202510240930 METAR VABB 240930Z 10008KT 5000 FU FEW020 SCT025 BKN100 34/22 Q1004 NOSIG=
202510241000 METAR VABB 241000Z 09009KT 5000 FU FEW020 SCT025 BKN100 35/22 Q1004 NOSIG=
202510241030 METAR VABB 241030Z 09008KT 5000 FU FEW020 SCT025 BKN100 35/22 Q1004 NOSIG=
202510241100 METAR VABB 241100Z 10008KT 5000 FU FEW020 SCT025 BKN100 35/22 Q1004 NOSIG=
202510241130 METAR VABB 241130Z 35006KT 4000 FU FEW020 SCT025 BKN100 34/22 Q1004 NOSIG=
202510241200 METAR VABB 241200Z 33010KT 4000 HZ FEW020 SCT025 BKN100 33/25 Q1004 NOSIG=
202510241230 METAR VABB 241230Z 36008KT 4000 HZ FEW020 SCT025 BKN100 33/25 Q1004 NOSIG=
202510241300 METAR VABB 241300Z 01006KT 3500 HZ FEW020 SCT025 BKN100 32/25 Q1005 BECMG 3000 HZ=
202510241330 METAR VABB 241330Z 36006KT 3000 TS FEW020 FEW030CB BKN100 32/26 Q1004 NOSIG=
202510241400 METAR VABB 241400Z 30009KT 3000 TS FEW020 FEW030CB SCT100 31/25 Q1006 NOSIG=
202510241430 METAR VABB 241430Z 06012KT 3000 -TSRA SCT020 FEW030CB BKN090 29/24 Q1006 TEMPO 1500 TSRA=
202510241500 METAR VABB 241500Z 14011KT 3000 -TSRA SCT018 FEW030CB BKN090 28/24 Q1007 TEMPO 1500 TSRA=
202510241530 METAR VABB 241530Z 16008KT 3000 -TSRA SCT018 FEW030CB BKN090 27/24 Q1007 TEMPO 1500 TSRA=
202510241600 METAR VABB 241600Z 20008KT 3000 -TSRA SCT018 FEW030CB BKN090 27/25 Q1007 TEMPO 1500 TSRA=
202510241630 METAR VABB 241630Z 20003KT 3000 BR SCT018 FEW025TCU BKN090 27/24 Q1007 NOSIG=
202510241700 METAR VABB 241700Z 18006KT 3000 BR SCT018 FEW025TCU BKN090 27/24 Q1008 NOSIG=
202510241730 METAR VABB 241730Z 19006KT 3000 BR SCT018 FEW025TCU BKN090 27/24 Q1008 NOSIG=
202510241800 METAR VABB 241800Z 18006KT 3000 -RA SCT018 FEW025TCU BKN090 27/24 Q1007 TEMPO 1500 SHRA=
202510241830 METAR VABB 241830Z 18005KT 3000 -RA SCT018 FEW025TCU BKN090 27/24 Q1007 NOSIG=
202510241900 METAR VABB 241900Z 19006KT 3000 -RA SCT018 FEW025TCU BKN090 27/25 Q1007 NOSIG=
202510241930 METAR VABB 241930Z 18004KT 3000 -RA SCT018 FEW025TCU BKN090 27/25 Q1007 NOSIG=
202510242000 METAR VABB 242000Z 13003KT 3000 BR SCT018 FEW025TCU BKN090 27/25 Q1006 NOSIG=
202510242030 METAR VABB 242030Z 14004KT 3000 BR SCT018 FEW025TCU BKN090 27/24 Q1006 NOSIG=
202510242100 METAR VABB 242100Z 13004KT 3000 BR SCT018 FEW025TCU BKN090 27/24 Q1006 NOSIG=
202510242130 METAR VABB 242130Z 00000KT 3000 BR FEW020 SCT025 BKN100 27/24 Q1005 NOSIG=
202510242200 METAR VABB 242200Z 00000KT 3000 BR FEW020 SCT025 BKN100 27/24 Q1005 NOSIG=
202510242230 METAR VABB 242230Z 06003KT 3000 BR FEW020 SCT025 BKN100 27/24 Q1005 NOSIG=
202510242300 METAR VABB 242300Z 00000KT 3000 BR FEW020 SCT025 BKN100 27/24 Q1005 NOSIG=
202510242330 METAR VABB 242330Z 16003KT 3000 BR FEW020 SCT025 BKN100 27/24 Q1005 NOSIG=
202510250000 METAR VABB 250000Z 06003KT 3000 BR FEW020 SCT025 BKN100 28/24 Q1005 NOSIG=
202510250030 METAR VABB 250030Z 06007KT 3000 BR FEW020 SCT025 BKN100 28/24 Q1005 NOSIG=
202510250100 METAR VABB 250100Z 05007KT 3000 BR FEW020 SCT025 BKN100 28/24 Q1006 NOSIG=
202510250130 METAR VABB 250130Z 11003KT 3000 BR SCT020 BKN100 28/24 Q1006 NOSIG=
202510250200 METAR VABB 250200Z 11005KT 3000 BR SCT020 BKN100 28/24 Q1007 NOSIG=
202510250230 METAR VABB 250230Z 12004KT 3000 HZ FEW020 SCT100 29/25 Q1007 NOSIG=
202510250300 METAR VABB 250300Z 11008KT 3000 HZ FEW020 SCT100 29/24 Q1007 NOSIG=
202510250330 METAR VABB 250330Z 10006KT 3000 HZ FEW020 SCT100 30/24 Q1007 NOSIG=
202510250400 METAR VABB 250400Z 13005KT 4000 HZ FEW020 SCT100 31/23 Q1007 NOSIG=
202510250430 METAR VABB 250430Z 11008KT 4500 HZ FEW020 SCT025 BKN100 31/23 Q1008 NOSIG=
202510250500 METAR VABB 250500Z 20011KT 4500 HZ FEW020 SCT025 BKN100 30/25 Q1008 BECMG 5000 HZ=
202510250530 METAR VABB 250530Z 17006KT 5000 HZ FEW020 SCT025 BKN100 31/25 Q1008 NOSIG=
202510250600 METAR VABB 250600Z 17009KT 5000 HZ FEW020 SCT025 BKN100 31/23 Q1007 NOSIG=
202510250630 METAR VABB 250630Z 18011G21KT 5000 HZ FEW020 SCT025 BKN100 31/24 Q1007 NOSIG=
202510250700 METAR VABB 250700Z 18012KT 5000 HZ FEW020 SCT025 BKN100 30/24 Q1007 NOSIG=
202510250730 METAR VABB 250730Z 19011G24KT 4000 HZ SCT018 FEW030CB BKN090 31/23 Q1006 TEMPO 1500 TSRA=
202510250800 METAR VABB 250800Z 19012G26KT 4000 HZ SCT018 FEW030CB BKN090 31/23 Q1006 TEMPO 1500 TSRA=
202510250830 METAR VABB 250830Z 18011KT 4000 HZ SCT018 FEW030CB BKN090 31/23 Q1005 TEMPO 1500 TSRA=
202510250900 METAR VABB 250900Z 18009G19KT 4000 HZ FEW020 FEW030CB BKN090 31/23 Q1005 NOSIG=
202510250930 METAR VABB 250930Z 19009G19KT 4000 HZ FEW020 FEW030CB BKN100 32/24 Q1004 NOSIG=
202510251000 METAR VABB 251000Z 19008G19KT 4000 HZ FEW020 FEW030CB BKN100 32/24 Q1004 NOSIG=
202510251030 METAR VABB 251030Z 19008G19KT 4000 HZ FEW020 FEW030CB BKN100 32/24 Q1004 BECMG 5000 HZ=
202510251100 METAR VABB 251100Z 19008KT 5000 HZ SCT020 FEW030CB BKN100 31/24 Q1004 NOSIG=
202510251130 METAR VABB 251130Z 23009KT 5000 VCSH SCT018 FEW030CB BKN090 30/25 Q1004 TEMPO 3000 SHRA=
202510251200 METAR VABB 251200Z 21008G18KT 4000 -RA FEW012 SCT018 FEW030CB BKN090 29/25 Q1005 NOSIG=
202510251230 METAR VABB 251230Z 23007KT 3500 BR SCT018 FEW030CB BKN090 29/25 Q1005 NOSIG=
202510251300 METAR VABB 251300Z 20008G18KT 3500 BR SCT020 FEW030CB BKN100 29/25 Q1006 NOSIG=
202510251330 METAR VABB 251330Z 20008G18KT 3500 BR SCT020 FEW030CB BKN100 29/25 Q1006 TEMPO 3000 BR=
202510251400 METAR VABB 251400Z 19006KT 3000 BR SCT020 FEW030CB BKN100 29/25 Q1006 NOSIG=
202510251430 METAR VABB 251430Z 19006KT 3000 BR SCT020 FEW030CB BKN100 29/24 Q1006 NOSIG=
202510251500 METAR VABB 251500Z 18007KT 3000 BR SCT020 FEW030CB BKN100 29/24 Q1007 NOSIG=
202510251530 METAR VABB 251530Z 13007KT 3000 BR SCT020 FEW030CB BKN100 29/24 Q1008 NOSIG=
202510251600 METAR VABB 251600Z 11008KT 3000 HZ SCT020 FEW030CB BKN100 29/24 Q1008 NOSIG=
202510251630 METAR VABB 251630Z 09008KT 3000 HZ FEW020 FEW025TCU BKN100 28/24 Q1008 NOSIG=
202510251700 METAR VABB 251700Z 10007KT 3000 HZ FEW020 FEW025TCU BKN100 28/23 Q1008 NOSIG=
202510251730 METAR VABB 251730Z 12007KT 3000 HZ FEW020 FEW025TCU BKN100 28/23 Q1007 NOSIG=
202510251800 METAR VABB 251800Z 11006KT 3000 HZ FEW020 FEW030CB BKN100 28/23 Q1007 NOSIG=
202510251830 METAR VABB 251830Z 11007KT 3000 HZ FEW020 FEW030CB BKN100 28/23 Q1007 NOSIG=
202510251900 METAR VABB 251900Z 12005KT 3000 HZ FEW020 FEW025TCU BKN100 28/24 Q1007 NOSIG=
202510251930 METAR VABB 251930Z 10007KT 3000 HZ FEW020 FEW025TCU BKN100 28/24 Q1006 NOSIG=
202510252000 METAR VABB 252000Z 10006KT 3000 BR FEW020 FEW025TCU BKN100 28/24 Q1006 NOSIG=
202510252030 METAR VABB 252030Z 11007KT 3000 BR FEW020 SCT025 BKN100 28/24 Q1006 NOSIG=
202510252100 METAR VABB 252100Z 11004KT 3000 BR FEW020 SCT025 BKN100 27/24 Q1006 NOSIG=
202510252130 METAR VABB 252130Z 11005KT 3000 BR FEW020 SCT025 BKN100 27/24 Q1006 NOSIG=
202510252200 METAR VABB 252200Z 10004KT 3000 BR FEW020 SCT025 BKN100 27/24 Q1006 NOSIG=
202510252230 METAR VABB 252230Z 07007KT 3000 BR FEW020 SCT025 BKN100 27/24 Q1006 NOSIG=
202510252300 METAR VABB 252300Z 09007KT 3000 BR FEW020 SCT025 BKN100 27/24 Q1006 NOSIG=
202510252330 METAR VABB 252330Z 11006KT 3000 BR FEW020 SCT025 BKN100 27/24 Q1006 NOSIG=
202510260000 METAR VABB 260000Z 10007KT 3000 BR FEW020 FEW025TCU BKN100 26/24 Q1006 NOSIG=
202510260030 METAR VABB 260030Z 10005KT 3000 BR FEW020 FEW025TCU BKN100 27/24 Q1007 NOSIG=
202510260100 METAR VABB 260100Z 12005KT 3000 BR FEW020 FEW025TCU BKN100 27/24 Q1007 NOSIG=
202510260130 METAR VABB 260130Z 11006KT 3000 BR FEW020 SCT100 27/24 Q1007 NOSIG=
202510260200 METAR VABB 260200Z 10008KT 3500 HZ FEW020 BKN100 28/23 Q1007 NOSIG=
202510260230 METAR VABB 260230Z 10006KT 4000 HZ FEW020 BKN100 28/24 Q1007 NOSIG=
202510260300 METAR VABB 260300Z 09007KT 4000 BR FEW020 SCT025 BKN100 28/24 Q1007 NOSIG=
202510260330 METAR VABB 260330Z 11007KT 4500 BR FEW020 SCT025 BKN100 28/24 Q1008 NOSIG=
202510260400 METAR VABB 260400Z 11007KT 4500 HZ FEW020 SCT025 BKN100 29/24 Q1008 NOSIG=
202510260430 METAR VABB 260430Z 11007KT 4500 HZ FEW020 SCT025 BKN100 30/23 Q1008 BECMG 5000 HZ=
202510260500 METAR VABB 260500Z 13008KT 5000 HZ FEW020 SCT025 BKN100 30/23 Q1008 NOSIG=
202510260530 METAR VABB 260530Z 13006KT 4000 HZ SCT018 FEW025TCU BKN090 30/23 Q1007 NOSIG=
202510260600 METAR VABB 260600Z 13007G17KT 3500 -RA SCT018 FEW025TCU BKN090 30/23 Q1007 TEMPO 1500 SHRA=
202510260630 METAR VABB 260630Z 12007G17KT 4000 VCSH SCT018 SCT025 BKN090 30/24 Q1007 TEMPO 3000 -SHRA=
202510260700 METAR VABB 260700Z 14009G19KT 5000 HZ SCT018 FEW025TCU BKN100 31/23 Q1006 NOSIG=
202510260730 METAR VABB 260730Z 12011KT 5000 HZ SCT018 FEW030CB BKN090 31/23 Q1006 NOSIG=
202510260800 METAR VABB 260800Z 13009KT 5000 HZ SCT018 FEW030CB BKN090 31/23 Q1005 NOSIG=
202510260830 METAR VABB 260830Z 20011G28KT 4000 VCSH SCT018 FEW030CB BKN090 31/23 Q1005 TEMPO 3000 -TSRA=
202510260902 METAR VABB 260902Z 22010KT 3000 -DZ FEW012 SCT018 FEW030CB OVC080 27/25 Q1005 NOSIG=
202510260930 METAR VABB 260930Z 22007KT 3000 -DZ FEW012 SCT018 FEW030CB OVC090 27/24 Q1005 NOSIG=
202510261000 METAR VABB 261000Z 20008KT 2500 -RA FEW012 SCT018 FEW030CB OVC090 27/25 Q1005 TEMPO 1500 SHRA=
202510261030 METAR VABB 261030Z 16008KT 3000 -RA FEW012 SCT018 FEW030CB BKN090 26/25 Q1005 NOSIG=
202510261100 METAR VABB 261100Z 16003KT 3000 -RA FEW012 SCT018 FEW030CB BKN090 26/24 Q1005 TEMPO 1500 SHRA=
202510261130 METAR VABB 261130Z 00000KT 3000 VCSH FEW012 SCT018 FEW030CB BKN090 27/24 Q1005 TEMPO 1500 SHRA=
202510261200 METAR VABB 261200Z 14004KT 1500 +RA FEW010 SCT015 FEW030CB OVC080 26/25 Q1006 TEMPO 0800 +SHRA=
202510261230 METAR VABB 261230Z 15007KT 1500 +RA SCT010 SCT015 FEW030CB OVC080 26/25 Q1006 TEMPO 0800 +SHRA=
202510261300 METAR VABB 261300Z 15006KT 3000 -RA FEW010 SCT015 FEW030CB OVC080 26/24 Q1006 NOSIG=
202510261330 METAR VABB 261330Z 17008KT 3000 -RA FEW010 SCT015 FEW030CB OVC080 26/24 Q1006 TEMPO 1500 SHRA=
202510261400 METAR VABB 261400Z 14005KT 3000 -RA FEW010 SCT015 FEW030CB OVC080 26/24 Q1007 TEMPO 1500 SHRA=
202510261430 METAR VABB 261430Z 13004KT 3000 BR FEW010 SCT015 FEW030CB OVC080 26/25 Q1007 NOSIG=
202510261500 METAR VABB 261500Z 11005KT 2500 -RA SCT012 SCT018 FEW030CB OVC080 26/25 Q1007 TEMPO 1500 SHRA=
202510261530 METAR VABB 261530Z 10005KT 2500 -RA SCT012 SCT018 FEW030CB OVC080 26/25 Q1007 TEMPO 1500 SHRA=
202510261600 METAR VABB 261600Z 09006KT 2500 DZ FEW012 SCT018 FEW030CB OVC080 26/25 Q1007 TEMPO 1500 SHRA=
202510261630 METAR VABB 261630Z 11006KT 2500 -RA FEW012 SCT018 FEW030CB OVC080 26/25 Q1007 TEMPO 1500 SHRA=
202510261700 METAR VABB 261700Z 16004KT 2100 RA SCT010 SCT015 FEW030CB OVC080 26/24 Q1007 TEMPO 1500 SHRA=
202510261730 METAR VABB 261730Z 00000KT 2100 RA SCT010 SCT015 FEW030CB OVC080 26/25 Q1007 TEMPO 1500 SHRA=
202510261800 METAR VABB 261800Z 12005KT 2100 -RA SCT012 SCT018 FEW030CB OVC080 26/24 Q1007 TEMPO 1500 SHRA=
202510261830 METAR VABB 261830Z 09007KT 2500 -RA FEW012 SCT018 FEW030CB OVC080 26/24 Q1006 TEMPO 1500 SHRA=
202510261900 METAR VABB 261900Z 11006KT 2500 -DZ FEW012 SCT018 FEW030CB OVC080 26/24 Q1006 TEMPO 1500 SHRA=
202510261930 METAR VABB 261930Z 10006KT 2500 BR FEW012 SCT018 FEW030CB OVC080 26/24 Q1006 NOSIG=
202510262000 METAR VABB 262000Z 10004KT 2500 BR SCT018 FEW030CB OVC080 26/24 Q1005 NOSIG=
202510262030 METAR VABB 262030Z 00000KT 2500 BR SCT018 FEW030CB BKN090 26/24 Q1005 NOSIG=
202510262100 METAR VABB 262100Z 10008KT 2500 BR SCT018 FEW030CB BKN090 26/24 Q1005 NOSIG=
202510262130 METAR VABB 262130Z 11004KT 2500 BR SCT018 FEW025TCU BKN090 26/24 Q1005 NOSIG=
202510262200 METAR VABB 262200Z 10005KT 2500 BR SCT018 FEW025TCU BKN090 26/24 Q1005 NOSIG=
202510262230 METAR VABB 262230Z 10005KT 2500 BR SCT018 FEW025TCU BKN090 26/24 Q1004 NOSIG=
202510262300 METAR VABB 262300Z 10005KT 2500 BR SCT018 FEW025TCU BKN090 26/24 Q1004 NOSIG=
202510262330 METAR VABB 262330Z 10009KT 2500 BR SCT018 FEW025TCU BKN090 26/24 Q1004 NOSIG=
202510270000 METAR VABB 270000Z 10006KT 2500 BR SCT018 FEW025TCU BKN090 26/24 Q1005 NOSIG=
202510270030 METAR VABB 270030Z 09006KT 2500 DZ SCT018 FEW025TCU BKN090 26/24 Q1005 NOSIG=
202510270100 METAR VABB 270100Z 10005KT 2500 BR SCT018 FEW025TCU BKN090 26/24 Q1005 NOSIG=
202510270130 METAR VABB 270130Z 09006KT 2500 BR SCT018 FEW025TCU OVC090 26/24 Q1006 NOSIG=
202510270200 METAR VABB 270200Z 12006KT 2500 BR SCT018 FEW025TCU OVC090 27/24 Q1006 NOSIG=
202510270230 METAR VABB 270230Z 12007KT 2500 BR SCT018 FEW025TCU BKN090 27/25 Q1006 NOSIG=
202510270300 METAR VABB 270300Z 13005KT 2500 BR FEW020 SCT025 BKN100 28/25 Q1006 BECMG 3000 BR=
202510270330 METAR VABB 270330Z 16008KT 3000 BR FEW020 SCT025 BKN100 28/24 Q1007 NOSIG=
202510270400 METAR VABB 270400Z 14005KT 3500 HZ FEW020 SCT025 BKN100 28/24 Q1007 NOSIG=
202510270430 METAR VABB 270430Z 13006KT 4000 HZ FEW020 SCT025 BKN100 29/24 Q1007 NOSIG=
202510270500 METAR VABB 270500Z 14007G17KT 4000 HZ FEW020 SCT025 BKN100 30/24 Q1007 NOSIG=
202510270530 METAR VABB 270530Z 15007G23KT 4000 HZ FEW020 SCT025 BKN100 31/24 Q1007 NOSIG=
202510270600 METAR VABB 270600Z 19009G19KT 4000 HZ FEW020 SCT025 BKN100 31/24 Q1007 NOSIG=
202510270630 METAR VABB 270630Z 18012G25KT 4000 HZ FEW020 SCT025 BKN100 32/24 Q1006 NOSIG=
202510270700 METAR VABB 270700Z 15013G23KT 4000 HZ FEW020 SCT025 BKN100 32/24 Q1006 NOSIG=
202510270730 METAR VABB 270730Z 18012G22KT 4500 HZ FEW020 SCT025 BKN100 32/24 Q1006 BECMG 5000 HZ=
202510270800 METAR VABB 270800Z 16012KT 5000 HZ FEW020 SCT025 BKN100 32/24 Q1005 NOSIG=
202510270830 METAR VABB 270830Z 16012KT 5000 HZ FEW020 SCT025 BKN100 32/24 Q1005 NOSIG=
202510270900 METAR VABB 270900Z 17010KT 5000 HZ FEW020 FEW025TCU BKN100 32/24 Q1005 NOSIG=
202510270930 METAR VABB 270930Z 19010KT 4000 HZ FEW020 FEW025TCU BKN100 32/23 Q1004 NOSIG=
202510271000 METAR VABB 271000Z 19012KT 4000 HZ SCT020 FEW025TCU BKN100 31/24 Q1004 NOSIG=
202510271030 METAR VABB 271030Z 20016KT 3000 -SHRA SCT018 FEW025TCU BKN100 30/24 Q1004 NOSIG=
202510271100 METAR VABB 271100Z 20015G30KT 3000 -SHRA SCT018 FEW025TCU BKN100 28/24 Q1005 NOSIG=
202510271130 METAR VABB 271130Z 19011KT 3000 HZ FEW012 SCT018 FEW025TCU BKN100 29/25 Q1005 TEMPO 1500 SHRA=
202510271200 METAR VABB 271200Z 21010G20KT 3000 HZ FEW012 SCT018 FEW025TCU BKN100 28/24 Q1005 NOSIG=
202510271230 METAR VABB 271230Z 21008G20KT 3000 HZ FEW012 SCT018 FEW025TCU BKN100 28/24 Q1005 NOSIG=
202510271300 METAR VABB 271300Z 17014G26KT 3000 RA FEW012 SCT018 FEW030CB BKN100 26/24 Q1006 TEMPO 1500 SHRA=
202510271330 METAR VABB 271330Z 17011G27KT 3000 DZ FEW012 SCT018 FEW030CB BKN100 25/24 Q1006 NOSIG=
202510271400 METAR VABB 271400Z 17012G27KT 3000 DZ FEW012 SCT018 FEW030CB BKN100 26/24 Q1006 NOSIG=
202510271430 METAR VABB 271430Z 15007KT 3000 BR FEW012 SCT018 FEW025TCU BKN100 26/23 Q1007 NOSIG=
202510271500 METAR VABB 271500Z 13006KT 3000 BR FEW012 SCT018 FEW025TCU BKN100 26/24 Q1007 NOSIG=
202510271530 METAR VABB 271530Z 12008KT 3000 -RA FEW012 SCT018 FEW025TCU BKN100 26/24 Q1007 NOSIG=
202510271600 METAR VABB 271600Z 13008KT 3000 BR FEW012 SCT018 FEW025TCU BKN100 26/23 Q1008 NOSIG=
202510271630 METAR VABB 271630Z 14009G19KT 3000 -RA FEW012 SCT018 FEW025TCU BKN100 26/23 Q1008 NOSIG=
202510271700 METAR VABB 271700Z 14008G18KT 3000 -RA FEW012 SCT018 FEW025TCU BKN100 26/24 Q1008 NOSIG=
202510271730 METAR VABB 271730Z 14009G21KT 3000 -RA FEW012 SCT018 FEW025TCU BKN100 26/23 Q1008 NOSIG=
202510271800 METAR VABB 271800Z 14006KT 3000 BR FEW012 SCT018 FEW025TCU BKN100 26/23 Q1007 NOSIG=
202510271830 METAR VABB 271830Z 12008KT 3000 BR FEW012 SCT018 FEW025TCU BKN100 26/23 Q1007 NOSIG=
202510271900 METAR VABB 271900Z 11010KT 3000 BR FEW012 SCT018 FEW025TCU BKN100 26/23 Q1007 NOSIG=
202510271930 METAR VABB 271930Z 12006KT 3000 BR SCT018 FEW025TCU BKN100 26/23 Q1006 NOSIG=
202510272000 METAR VABB 272000Z 11005KT 3000 BR SCT020 FEW025TCU BKN100 26/23 Q1006 NOSIG=
202510272030 METAR VABB 272030Z 11006KT 3000 BR SCT020 FEW025TCU SCT100 26/23 Q1006 NOSIG=
202510272032 METAR VABB 272032Z 11006KT 3000 BR SCT020 FEW025TCU SCT100 26/23 Q1006 NOSIG=
202510272100 METAR VABB 272100Z 11007KT 3000 BR SCT020 SCT100 26/23 Q1006 NOSIG=
202510010000 METAR VABB NIL=
202510272130 METAR VABB 272130Z 12005KT 3000 BR FEW020 SCT100 26/23 Q1005 NOSIG=
202510272200 METAR VABB 272200Z 13005KT 3000 BR FEW020 SCT100 26/23 Q1005 NOSIG=
202510272230 METAR VABB 272230Z 10007KT 3000 BR FEW020 SCT100 26/23 Q1005 NOSIG=
202510272300 METAR VABB 272300Z 12007KT 3000 BR FEW020 SCT100 26/23 Q1005 NOSIG=
202510272330 METAR VABB 272330Z 12007KT 3000 BR FEW020 SCT100 26/23 Q1004 NOSIG=
202510280000 METAR VABB 280000Z 10006KT 3000 BR FEW020 SCT100 26/23 Q1005 NOSIG=
202510280030 METAR VABB 280030Z 11007KT 3000 BR FEW020 SCT100 26/23 Q1005 NOSIG=
202510280100 METAR VABB 280100Z 10007KT 3000 BR FEW020 SCT100 26/23 Q1006 NOSIG=
202510280130 METAR VABB 280130Z 13006KT 3000 BR FEW020 SCT100 26/23 Q1006 NOSIG=
202510280200 METAR VABB 280200Z 10007KT 2500 BR FEW100 27/23 Q1007 NOSIG=
202510280230 METAR VABB 280230Z 12007KT 2500 BR FEW100 27/23 Q1007 BECMG 3000 BR=
202510280300 METAR VABB 280300Z 10006KT 2500 BR FEW100 28/23 Q1007 NOSIG=
202510280330 METAR VABB 280330Z 12010KT 3000 HZ FEW100 28/23 Q1007 NOSIG=
202510280400 METAR VABB 280400Z 12010KT 3000 HZ FEW100 29/24 Q1007 NOSIG=
202510280430 METAR VABB 280430Z 13010KT 3500 HZ FEW100 30/23 Q1007 NOSIG=
202510280500 METAR VABB 280500Z 14011G21KT 3500 HZ FEW100 31/22 Q1007 NOSIG=
202510280530 METAR VABB 280530Z 12013KT 3500 HZ FEW020 SCT100 31/22 Q1007 NOSIG=
202510280600 METAR VABB 280600Z 15014KT 3500 HZ FEW020 SCT100 31/22 Q1007 NOSIG=
202510280630 METAR VABB 280630Z 14014G27KT 3500 FU FEW020 SCT100 32/23 Q1006 NOSIG=
202510280700 METAR VABB 280700Z 13012G22KT 4000 FU FEW020 SCT100 32/22 Q1006 NOSIG=
202510280730 METAR VABB 280730Z 15014KT 4000 FU FEW020 SCT100 32/22 Q1005 NOSIG=
202510280800 METAR VABB 280800Z 14012KT 4000 FU FEW020 SCT100 32/22 Q1005 NOSIG=
202510280830 METAR VABB 280830Z 13011KT 4000 FU SCT020 BKN100 32/22 Q1004 NOSIG=
202510280900 METAR VABB 280900Z 13008G18KT 4000 FU SCT020 FEW025TCU BKN100 33/23 Q1004 NOSIG=
202510280930 METAR VABB 280930Z 14009KT 4000 FU SCT020 FEW025TCU BKN100 32/22 Q1003 NOSIG=
202510281000 METAR VABB 281000Z 18007KT 4000 HZ SCT020 FEW025TCU BKN100 31/23 Q1003 NOSIG=
202510281030 METAR VABB 281030Z 19008KT 4000 HZ SCT020 FEW025TCU BKN100 30/24 Q1004 NOSIG=
202510281100 METAR VABB 281100Z 19007KT 4000 HZ SCT020 FEW025TCU BKN100 30/25 Q1004 BECMG 3000 HZ=
202510281130 METAR VABB 281130Z 18015G25KT 3000 HZ SCT020 FEW030CB BKN100 28/24 Q1005 TEMPO 1500 SHRA=
202510281200 METAR VABB 281200Z 19016G26KT 3000 -RA SCT018 FEW030CB BKN090 27/24 Q1005 TEMPO 1500 TSRA=
202510281230 METAR VABB 281230Z 19011G21KT 2500 -RA SCT018 SCT025 FEW030CB BKN090 27/24 Q1005 TEMPO 1500 TSRA=
202510281300 METAR VABB 281300Z 18016G26KT 2500 -RA SCT018 SCT025 FEW030CB BKN090 27/24 Q1005 TEMPO 1500 TSRA=
202510281330 METAR VABB 281330Z 19011G21KT 2500 -RA SCT018 SCT025 FEW030CB BKN090 27/24 Q1005 TEMPO 1500 SHRA=
202510281400 METAR VABB 281400Z 15008G18KT 2500 -RA SCT018 SCT025 FEW030CB BKN090 27/24 Q1005 TEMPO 1500 SHRA=
202510281430 METAR VABB 281430Z 12007KT 2500 -RA SCT018 SCT025 FEW030CB BKN090 28/24 Q1006 TEMPO 1500 SHRA=
202510281500 METAR VABB 281500Z 15011KT 3000 HZ SCT018 FEW025TCU BKN100 28/23 Q1006 NOSIG=
202510281530 METAR VABB 281530Z 16011G22KT 3000 HZ SCT018 FEW025TCU BKN100 28/23 Q1006 NOSIG=
202510281600 METAR VABB 281600Z 15011G22KT 3000 HZ FEW020 FEW025TCU BKN100 28/24 Q1006 NOSIG=
202510281630 METAR VABB 281630Z 14011G21KT 3000 HZ FEW020 SCT025 BKN100 28/24 Q1006 NOSIG=
202510281700 METAR VABB 281700Z 13006KT 3000 HZ FEW020 SCT025 BKN100 28/24 Q1006 NOSIG=
202510281730 METAR VABB 281730Z 13007KT 3000 HZ FEW020 SCT025 BKN100 28/24 Q1006 NOSIG=
202510281800 METAR VABB 281800Z 14007KT 3000 HZ FEW020 SCT025 28/24 Q1006 NOSIG=
202510281830 METAR VABB 281830Z 14007G17KT 3000 HZ FEW020 SCT025 28/23 Q1006 NOSIG=
202510281900 METAR VABB 281900Z 12008G18KT 3000 HZ FEW020 SCT025 28/23 Q1005 NOSIG=
202510281930 METAR VABB 281930Z 14006KT 3000 HZ FEW020 SCT025 28/23 Q1005 NOSIG=
202510282000 METAR VABB 282000Z 14007G17KT 3000 HZ FEW020 SCT025 28/22 Q1005 NOSIG=
202510282030 METAR VABB 282030Z 13009G19KT 3000 HZ FEW020 SCT025 28/22 Q1004 NOSIG=
202510282100 METAR VABB 282100Z 13007KT 3000 HZ FEW020 SCT025 28/22 Q1004 NOSIG=
202510282130 METAR VABB 282130Z 13006KT 3000 HZ FEW020 SCT025 28/22 Q1004 NOSIG=
202510282200 METAR VABB 282200Z 14005KT 3000 HZ FEW020 SCT025 28/22 Q1005 NOSIG=
202510282230 METAR VABB 282230Z 15008KT 3000 HZ FEW020 SCT025 28/22 Q1005 NOSIG=
202510282300 METAR VABB 282300Z 15007G21KT 3000 HZ FEW020 SCT025 28/22 Q1005 NOSIG=
202510282330 METAR VABB 282330Z 14006KT 3000 HZ FEW020 SCT025 28/22 Q1004 NOSIG=
202510290000 METAR VABB 290000Z 12005KT 3000 HZ FEW020 SCT025 27/22 Q1005 NOSIG=
202510290030 METAR VABB 290030Z 11008KT 3000 HZ FEW020 SCT025 27/22 Q1005 NOSIG=
202510290100 METAR VABB 290100Z 12005KT 3000 HZ FEW020 SCT025 27/22 Q1005 NOSIG=
202510290130 METAR VABB 290130Z 09009KT 3000 HZ FEW020 SCT100 27/22 Q1005 NOSIG=
202510290200 METAR VABB 290200Z 09007KT 2500 HZ FEW020 SCT100 27/23 Q1005 NOSIG=
202510290230 METAR VABB 290230Z 09008KT 2500 HZ FEW020 SCT100 28/23 Q1006 NOSIG=
202510290300 METAR VABB 290300Z 09009KT 2500 HZ FEW020 SCT100 28/23 Q1006 NOSIG=
202510290330 METAR VABB 290330Z 07010KT 2500 HZ FEW020 SCT100 29/23 Q1006 NOSIG=
202510290400 METAR VABB 290400Z 09008KT 2500 HZ FEW020 SCT100 29/24 Q1006 BECMG 3000 HZ=
202510290430 METAR VABB 290430Z 07008KT 3000 HZ FEW020 SCT100 30/23 Q1007 NOSIG=
202510290500 METAR VABB 290500Z 09007KT 3000 HZ FEW020 SCT100 31/23 Q1007 NOSIG=
202510290530 METAR VABB 290530Z 11006KT 3000 HZ FEW020 SCT100 32/24 Q1006 NOSIG=
202510290600 METAR VABB 290600Z 16008G18KT 3500 HZ FEW020 SCT100 32/22 Q1006 NOSIG=
202510290630 METAR VABB 290630Z 21008G18KT 4000 FU FEW020 SCT100 32/22 Q1006 NOSIG=
202510290700 METAR VABB 290700Z 18010G20KT 4000 FU FEW020 SCT100 33/22 Q1005 NOSIG=
202510290730 METAR VABB 290730Z 21012G24KT 4000 FU FEW020 SCT100 32/23 Q1004 NOSIG=
202510290800 METAR VABB 290800Z 19009G19KT 4000 FU FEW020 SCT100 32/22 Q1003 NOSIG=
202510290830 METAR VABB 290830Z 18006KT 4000 FU FEW020 SCT100 33/23 Q1003 NOSIG=
202510290900 METAR VABB 290900Z 14007KT 4000 FU FEW020 SCT100 33/23 Q1002 NOSIG=
202510290930 METAR VABB 290930Z 18007KT 4000 FU SCT020 33/24 Q1002 NOSIG=
202510291000 METAR VABB 291000Z 23012KT 4000 HZ FEW020 SCT025 31/24 Q1002 NOSIG=
202510291030 METAR VABB 291030Z 22011G21KT 4000 HZ FEW020 SCT025 32/24 Q1003 NOSIG=
202510291100 METAR VABB 291100Z 22011G21KT 4000 HZ FEW020 SCT025 32/24 Q1003 NOSIG=
202510291130 METAR VABB 291130Z 20010G20KT 4000 HZ FEW020 SCT025 FEW025TCU 30/24 Q1003 NOSIG=
202510291200 METAR VABB 291200Z 19013G23KT 4000 HZ FEW020 SCT025 FEW025TCU 30/24 Q1003 NOSIG=
202510291230 METAR COR VABB 291230Z 18009KT 3500 HZ FEW020 SCT025 FEW025TCU 29/25 Q1003 NOSIG=
202510291237 METAR VABB 291237Z 18009KT 3500 HZ FEW020 SCT025 FEW025TCU 29/25 Q1003 NOSIG=
202510291300 METAR VABB 291300Z 16007KT 3500 HZ FEW020 FEW025TCU SCT100 29/15 Q1003 BECMG 3000 HZ=
202510291330 METAR VABB 291330Z 16007G17KT 3000 HZ FEW020 FEW025TCU SCT100 29/24 Q1003 NOSIG=
202510291400 METAR VABB 291400Z 16006KT 3000 HZ FEW020 SCT100 29/25 Q1004 NOSIG=
202510291430 METAR VABB 291430Z 18009G19KT 3000 HZ FEW020 SCT100 29/24 Q1005 NOSIG=
202510291500 METAR VABB 291500Z 17008G20KT 3000 HZ FEW020 SCT100 29/24 Q1005 NOSIG=
202510291530 METAR VABB 291530Z 20006KT 3000 HZ FEW020 SCT100 29/24 Q1006 NOSIG=
202510291600 METAR VABB 291600Z 17008G27KT 3000 HZ FEW020 SCT100 29/24 Q1006 NOSIG=
202510291630 METAR VABB 291630Z 14008KT 3000 HZ FEW020 SCT025 BKN100 29/24 Q1006 NOSIG=
202510291700 METAR VABB 291700Z 15009G24KT 3000 HZ FEW020 SCT025 BKN100 28/24 Q1005 NOSIG=
202510291730 METAR VABB 291730Z 17011G21KT 3000 HZ FEW020 SCT025 BKN100 28/24 Q1005 NOSIG=
202510291800 METAR VABB 291800Z 16008KT 3000 BR FEW020 SCT025 BKN100 28/24 Q1005 NOSIG=
202510291830 METAR VABB 291830Z 14010KT 3000 BR FEW020 SCT025 BKN100 28/24 Q1005 NOSIG=
202510291900 METAR VABB 291900Z 16008G21KT 3000 BR FEW020 SCT025 BKN100 28/24 Q1005 NOSIG=
202510291930 METAR COR VABB 291930Z 17009G20KT 3000 -DZ FEW020 FEW025TCU BKN100 28/24 Q1005 TEMPO 1500 SHRA=
202510292000 METAR VABB 292000Z 18011KT 3000 -RA SCT018 FEW025TCU BKN100 27/25 Q1005 NOSIG=
202510292030 METAR VABB 292030Z 18009G19KT 3000 -DZ SCT018 FEW025TCU BKN100 26/25 Q1004 TEMPO 1500 SHRA=
202510292100 METAR VABB 292100Z 18007KT 3000 BR SCT018 FEW025TCU BKN100 26/24 Q1004 NOSIG=
202510292130 METAR VABB 292130Z 15004KT 3000 BR SCT018 FEW025TCU BKN100 26/24 Q1004 NOSIG=
202510292200 METAR VABB 292200Z 17005KT 3000 BR SCT018 FEW025TCU BKN100 26/24 Q1004 NOSIG=
202510292230 METAR VABB 292230Z 13006KT 3000 BR SCT018 SCT025 BKN100 26/24 Q1004 NOSIG=
202510292300 METAR VABB 292300Z 14007KT 3000 BR SCT018 SCT025 BKN100 26/24 Q1004 NOSIG=
202510292330 METAR VABB 292330Z 15007KT 3000 BR SCT018 SCT025 BKN100 26/24 Q1005 NOSIG=
202510300000 METAR VABB 300000Z 12008KT 3000 BR SCT018 FEW025TCU BKN100 26/24 Q1005 NOSIG=
202510300030 METAR VABB 300030Z 11008KT 3000 BR SCT018 FEW025TCU BKN100 26/24 Q1005 NOSIG=
202510300100 METAR VABB 300100Z 12010KT 3000 BR SCT018 FEW025TCU BKN100 26/23 Q1006 NOSIG=
202510300130 METAR VABB 300130Z 12008KT 3000 BR SCT018 FEW025TCU BKN100 26/22 Q1006 NOSIG=
202510300200 METAR VABB 300200Z 12005KT 3000 -RA SCT018 FEW025TCU BKN100 26/21 Q1007 NOSIG=
202510300230 METAR VABB 300230Z 12005KT 3000 -DZ SCT018 SCT025 BKN100 27/20 Q1007 NOSIG=
202510300300 METAR VABB 300300Z 15004KT 3000 HZ SCT018 SCT025 BKN100 27/22 Q1007 NOSIG=
202510300331 METAR VABB 300331Z 14006KT 3000 HZ SCT018 FEW025TCU BKN100 27/22 Q1008 NOSIG=
202510300400 METAR VABB 300400Z 15011G21KT 3000 HZ SCT018 FEW025TCU BKN100 27/22 Q1009 NOSIG=
202510300430 METAR VABB 300430Z 17010KT 2100 -RA FEW012 SCT018 FEW025TCU BKN090 25/23 Q1009 TEMPO 1500 SHRA=
202510300500 METAR VABB 300500Z 14007KT 1500 R27/2000 RA FEW008 SCT015 FEW025TCU OVC080 24/23 Q1009 TEMPO 0800 +RA=
202510010000 METAR VABB NIL=
202510300530 METAR VABB 300530Z 12007KT 2100 -RA FEW010 SCT015 FEW025TCU OVC080 25/23 Q1009 TEMPO 1500 RA=
202510300600 METAR VABB 300600Z 13007KT 3000 BR FEW012 SCT015 FEW025TCU BKN080 26/24 Q1008 NOSIG=
202510300630 METAR VABB 300630Z 11006KT 3000 -DZ FEW012 SCT015 FEW025TCU BKN080 26/23 Q1008 NOSIG=
202510300700 METAR VABB 300700Z 11006KT 3000 BR SCT020 FEW025TCU BKN080 27/24 Q1008 NOSIG=
202510300730 METAR VABB 300730Z 13008KT 3000 BR SCT020 FEW025TCU BKN090 28/24 Q1007 NOSIG=
202510300800 METAR VABB 300800Z 14008KT 3000 HZ SCT020 FEW025TCU BKN090 28/23 Q1007 NOSIG=
202510300830 METAR VABB 300830Z 14006KT 3000 HZ SCT020 FEW025TCU BKN090 29/24 Q1006 NOSIG=
202510300900 METAR VABB 300900Z 16010KT 3000 HZ SCT020 SCT025 BKN090 29/23 Q1006 NOSIG=
202510300930 METAR VABB 300930Z 18011KT 3000 HZ FEW020 SCT025 BKN100 30/22 Q1005 NOSIG=
202510301000 METAR VABB 301000Z 16012KT 3000 HZ FEW020 SCT025 BKN100 30/23 Q1005 NOSIG=
202510301030 METAR VABB 301030Z 18011KT 3000 HZ FEW020 SCT025 BKN100 30/23 Q1005 NOSIG=
202510301100 METAR VABB 301100Z NSC BECMG FM1130 TL1200 1500=
202510301130 METAR VABB 301130Z 18010KT 3000 HZ FEW020 SCT100 29/21 Q1005 NOSIG=
202510301200 METAR VABB 301200Z 18009KT 3000 HZ FEW020 BKN100 29/23 Q1006 NOSIG=
202510301230 METAR VABB 301230Z 19008G19KT 3000 HZ FEW020 BKN100 29/22 Q1006 NOSIG=
202510301300 METAR VABB 301300Z 20009KT 3000 HZ FEW020 BKN100 28/23 Q1007 NOSIG=
202510301330 METAR VABB 301330Z 18008KT 3000 HZ SCT020 BKN100 28/23 Q1007 NOSIG=
202510301400 METAR VABB 301400Z 17008G18KT 3000 HZ SCT020 BKN100 28/23 Q1008 NOSIG=
202510301430 METAR VABB 301430Z 19007KT 1500 SHRA SCT020 FEW025TCU OVC090 28/23 Q1008 TEMPO 0800 +SHRA=
202510301500 METAR VABB 301500Z 18008G18KT 2100 -RA SCT020 FEW025TCU BKN090 26/24 Q1008 TEMPO 1500 SHRA=
202510301530 METAR VABB 301530Z 12006KT 2500 BR SCT020 FEW025TCU BKN090 26/24 Q1009 NOSIG=
202510301600 METAR VABB 301600Z 12007KT 2500 BR SCT020 FEW025TCU BKN090 26/24 Q1009 NOSIG=
202510301630 METAR VABB 301630Z 12005KT 2500 BR SCT020 FEW025TCU BKN090 27/24 Q1009 NOSIG=
202510301700 METAR VABB 301700Z 12006KT 2500 BR SCT020 SCT025 BKN090 27/24 Q1009 NOSIG=
202510301730 METAR VABB 301730Z 12006KT 2500 BR SCT020 SCT025 BKN090 27/23 Q1009 NOSIG=
202510301800 METAR VABB 301800Z 14006KT 2500 BR SCT020 SCT025 BKN090 27/23 Q1009 NOSIG=
202510301830 METAR VABB 301830Z 12007KT 2500 BR SCT020 SCT025 BKN090 26/23 Q1008 NOSIG=
202510301900 METAR VABB 301900Z 13008KT 2500 BR SCT020 SCT025 BKN090 26/23 Q1008 NOSIG=
202510301930 METAR VABB 301930Z 13007KT 2500 BR SCT020 SCT025 BKN090 26/23 Q1008 NOSIG=
202510302000 METAR VABB 302000Z 13007KT 2500 BR SCT020 SCT025 BKN090 26/22 Q1007 NOSIG=
202510302030 METAR VABB 302030Z 12009KT 2500 BR SCT020 SCT025 BKN090 26/22 Q1007 NOSIG=
202510302100 METAR VABB 302100Z 14009KT 2500 BR SCT020 SCT025 BKN090 27/22 Q1006 NOSIG=
202510302130 METAR VABB 302130Z 15010G22KT 2500 BR SCT020 SCT025 BKN090 27/22 Q1006 NOSIG=
202510302200 METAR VABB 302200Z 15008KT 2500 BR SCT020 SCT025 BKN090 26/22 Q1006 NOSIG=
202510302230 METAR VABB 302230Z 15013G23KT 2500 BR SCT020 SCT025 BKN090 26/22 Q1006 NOSIG=
202510302300 METAR VABB 302300Z 16013G23KT 2500 BR SCT020 SCT025 BKN090 26/22 Q1006 NOSIG=
202510302330 METAR VABB 302330Z 16009KT 2500 BR SCT020 SCT025 BKN090 26/22 Q1007 NOSIG=
202510310000 METAR VABB 310000Z 15007G17KT 2500 BR SCT020 SCT025 BKN090 27/22 Q1007 NOSIG=
