202602010000 METAR VABB 010000Z 00000KT 2500 HZ NSC 24/20 Q1014 NOSIG=
202602010030 METAR VABB 010030Z 18004KT 2500 HZ NSC 24/20 Q1014 NOSIG=
202602010100 METAR VABB 010100Z 10003KT 2500 HZ NSC 24/19 Q1015 NOSIG=
202602010130 METAR VABB 010130Z 00000KT 2100 HZ NSC 24/20 Q1015 NOSIG=
202602010200 METAR VABB 010200Z 24003KT 1500 HZ NSC 24/20 Q1016 NOSIG=
202602010203 METAR VABB 010203Z 24003KT 1500 HZ NSC 24/20 Q1016 NOSIG=
202602010230 METAR VABB 010230Z 22004KT 1500 HZ NSC 24/20 Q1016 NOSIG=
202602010300 METAR VABB 010300Z 04004KT 1500 HZ NSC 24/20 Q1016 NOSIG=
202602010330 METAR VABB 010330Z 00000KT 1200 R27/P2000 HZ NSC 25/20 Q1017 NOSIG=
202602010400 METAR VABB 010400Z 05005KT 1200 R27/P2000 HZ NSC 26/19 Q1017 NOSIG=
202602010430 METAR VABB 010430Z 13005KT 1500 HZ NSC 27/20 Q1017 NOSIG=
202602010500 METAR VABB 010500Z 10006KT 1600 HZ NSC 28/19 Q1017 NOSIG=
202602010530 METAR VABB 010530Z 09006KT 1600 HZ NSC 29/19 Q1017 NOSIG=
202602010600 METAR VABB 010600Z 09006KT 1600 HZ NSC 29/18 Q1017 NOSIG=
202602010630 METAR VABB 010630Z 10004KT 1700 HZ NSC 30/18 Q1016 NOSIG=
202602010700 METAR VABB 010700Z 12007KT 2200 HZ NSC 31/16 Q1016 NOSIG=
202602010730 METAR VABB 010730Z 16005KT 2100 HZ NSC 32/17 Q1015 NOSIG=
202602010800 METAR VABB 010800Z 16005KT 2100 HZ NSC 33/15 Q1014 NOSIG=
202602010830 METAR VABB 010830Z 27005KT 2100 FU NSC 33/18 Q1014 NOSIG=
202602010900 METAR VABB 010900Z 27011KT 2100 FU NSC 31/20 Q1014 NOSIG=
202602010930 METAR VABB 010930Z 28010KT 2100 FU NSC 30/19 Q1013 NOSIG=
202602011000 METAR VABB 011000Z 29009KT 2100 FU NSC 31/19 Q1013 NOSIG=
202602011030 METAR VABB 011030Z 28008KT 2100 FU NSC 31/19 Q1013 NOSIG=
202602011100 METAR VABB 011100Z 30008KT 2100 FU NSC 31/19 Q1013 NOSIG=
202602011130 METAR VABB 011130Z 30007KT 2100 FU NSC 31/19 Q1013 NOSIG=
202602011200 METAR VABB 011200Z 32007KT 2100 FU NSC 30/19 Q1013 NOSIG=
202602011230 METAR VABB 011230Z 32006KT 2100 FU NSC 30/18 Q1013 NOSIG=
202602011300 METAR VABB 011300Z 31005KT 2100 FU NSC 29/19 Q1013 NOSIG=
202602011330 METAR VABB 011330Z 32005KT 2100 FU NSC 28/20 Q1014 NOSIG=
202602011400 METAR VABB 011400Z 34006KT 2100 FU NSC 28/20 Q1014 NOSIG=
202602011430 METAR VABB 011430Z 33005KT 2100 FU NSC 28/20 Q1015 NOSIG=
202602011500 METAR VABB 011500Z 32004KT 2100 FU NSC 28/20 Q1015 NOSIG=
202602011530 METAR VABB 011530Z 30003KT 2100 FU NSC 27/19 Q1015 NOSIG=
202602011600 METAR VABB 011600Z 03003KT 2100 FU NSC 27/19 Q1016 NOSIG=
202602011630 METAR VABB 011630Z 11003KT 2100 FU NSC 28/19 Q1016 NOSIG=
202602011700 METAR VABB 011700Z 19004KT 2100 FU NSC 28/19 Q1016 NOSIG=
202602011730 METAR VABB 011730Z 23004KT 2100 FU NSC 28/18 Q1016 NOSIG=
202602011800 METAR VABB 011800Z 19004KT 2100 HZ NSC 27/19 Q1016 NOSIG=
202602011830 METAR VABB 011830Z 23005KT 2100 HZ NSC 27/19 Q1016 NOSIG=
202602011900 METAR VABB 011900Z 30003KT 2100 HZ NSC 26/20 Q1016 NOSIG=
202602011930 METAR VABB 011930Z 23004KT 2100 HZ NSC 26/21 Q1015 NOSIG=
202602012000 METAR VABB 012000Z 22004KT 2100 HZ NSC 26/20 Q1015 NOSIG=
202602012030 METAR VABB 012030Z 16003KT 2100 HZ NSC 26/20 Q1015 NOSIG=
202602012100 METAR VABB 012100Z 16003KT 2100 HZ NSC 26/20 Q1015 NOSIG=
202602012130 METAR VABB 012130Z 15004KT 2100 HZ NSC 26/20 Q1014 NOSIG=
202602012200 METAR VABB 012200Z 11003KT 2100 HZ NSC 25/20 Q1014 NOSIG=
202602012230 METAR VABB 012230Z 07003KT 2100 HZ NSC 24/21 Q1014 NOSIG=
202602012300 METAR VABB 012300Z 13005KT 2100 HZ NSC 25/20 Q1014 NOSIG=
202602012330 METAR VABB 012330Z 11004KT 2100 HZ NSC 25/20 Q1014 NOSIG=
202602020000 METAR VABB 020000Z 09004KT 2100 HZ NSC 25/19 Q1014 NOSIG=
202602020030 METAR VABB 020030Z 07004KT 2100 HZ NSC 25/19 Q1014 NOSIG=
202602020100 METAR VABB 020100Z 09004KT 2100 HZ NSC 25/18 Q1015 NOSIG=
202602020130 METAR VABB 020130Z 17004KT 2100 HZ NSC 25/18 Q1015 TEMPO 1500 HZ=
202602020200 METAR VABB 020200Z 16003KT 1500 R27/P2000 HZ FEW100 25/17 Q1015 NOSIG=
202602020230 METAR VABB 020230Z 18005KT 1500 R27/P2000 HZ FEW100 25/18 Q1016 NOSIG=
202602020300 METAR VABB 020300Z 15004KT 1500 R27/P2000 HZ FEW100 26/17 Q1016 NOSIG=
202602020330 METAR VABB 020330Z 17004KT 1500 R27/P2000 HZ FEW100 26/18 Q1017 NOSIG=
202602020400 METAR VABB 020400Z 11005KT 1500 R27/P2000 FU FEW100 27/17 Q1017 NOSIG=
202602020430 METAR VABB 020430Z 10006KT 1800 FU FEW100 28/16 Q1017 NOSIG=
202602020500 METAR VABB 020500Z 12006KT 1800 FU NSC 29/16 Q1017 NOSIG=
202602020530 METAR VABB 020530Z 15004KT 1800 FU NSC 30/15 Q1017 NOSIG=
202602020600 METAR VABB 020600Z 07005KT 1800 FU NSC 31/16 Q1016 NOSIG=
202602020630 METAR VABB 020630Z 12007KT 2100 FU NSC 31/14 Q1016 NOSIG=
202602020700 METAR VABB 020700Z 14005KT 2100 FU NSC 32/15 Q1015 NOSIG=
202602020730 METAR VABB 020730Z 14004KT 2100 FU NSC 33/15 Q1015 NOSIG=
202602020800 METAR VABB 020800Z 14007KT 2100 FU NSC 34/12 Q1014 NOSIG=
202602020830 METAR VABB 020830Z 28006KT 2100 FU FEW100 32/17 Q1013 NOSIG=
202602020900 METAR VABB 020900Z 27006KT 2100 FU FEW100 33/14 Q1013 NOSIG=
202602020930 METAR VABB 020930Z 27008G18KT 2100 FU FEW100 32/17 Q1013 NOSIG=
202602021000 METAR VABB 021000Z 26009KT 2100 FU FEW100 32/17 Q1012 NOSIG=
202602021030 METAR VABB 021030Z 28009KT 2100 FU FEW100 31/19 Q1012 NOSIG=
202602021100 METAR VABB 021100Z 29009KT 2100 FU FEW100 31/18 Q1012 NOSIG=
202602021130 METAR VABB 021130Z 28008KT 2100 FU FEW100 30/17 Q1012 NOSIG=
202602021200 METAR VABB 021200Z 29008KT 1800 FU FEW100 30/17 Q1012 NOSIG=
202602021230 METAR VABB 021230Z 31008KT 1800 FU FEW100 29/19 Q1013 NOSIG=
202602021300 METAR VABB 021300Z 32008KT 2100 FU FEW100 28/18 Q1013 NOSIG=
202602021330 METAR VABB 021330Z 32006KT 2500 FU FEW100 28/17 Q1013 NOSIG=
202602021400 METAR VABB 021400Z 33005KT 2500 FU FEW100 28/16 Q1014 NOSIG=
202602021430 METAR VABB 021430Z 33004KT 2500 FU FEW100 28/15 Q1014 NOSIG=
202602021500 METAR VABB 021500Z 33005KT 3000 FU FEW100 28/15 Q1014 NOSIG=
202602021530 METAR VABB 021530Z 32004KT 3000 FU NSC 28/15 Q1015 NOSIG=
202602021600 METAR VABB 021600Z 04003KT 3000 FU NSC 28/15 Q1015 NOSIG=
202602021630 METAR VABB 021630Z 02003KT 3000 FU NSC 28/15 Q1015 NOSIG=
202602021700 METAR VABB 021700Z 05003KT 3000 FU NSC 28/15 Q1015 NOSIG=
202602021730 METAR VABB 021730Z 18004KT 3000 FU NSC 28/15 Q1015 NOSIG=
202602021800 METAR VABB 021800Z 35003KT 3000 FU NSC 29/13 Q1015 NOSIG=
202602021830 METAR VABB 021830Z 01003KT 3000 FU NSC 28/14 Q1015 NOSIG=
202602021900 METAR VABB 021900Z 01003KT 3000 FU NSC 27/14 Q1015 NOSIG=
202602021930 METAR VABB 021930Z 00000KT 3000 FU NSC 27/15 Q1015 NOSIG=
202602022000 METAR VABB 022000Z 14004KT 3000 FU NSC 27/16 Q1014 NOSIG=
202602022030 METAR VABB 022030Z 12005KT 3000 FU NSC 26/17 Q1014 NOSIG=
202602022100 METAR VABB 022100Z 13004KT 3000 FU NSC 26/17 Q1014 NOSIG=
202602022130 METAR VABB 022130Z 13004KT 3000 FU NSC 26/18 Q1014 NOSIG=
202602022200 METAR VABB 022200Z 00000KT 3000 HZ NSC 25/18 Q1013 NOSIG=
202602022230 METAR VABB 022230Z 00000KT 3000 HZ NSC 24/18 Q1013 NOSIG=
202602022300 METAR VABB 022300Z 09004KT 2500 HZ NSC 25/19 Q1013 NOSIG=
202602022330 METAR VABB 022330Z 05003KT 2500 HZ NSC 25/17 Q1014 NOSIG=
202602030000 METAR VABB 030000Z 09003KT 2500 HZ NSC 24/17 Q1014 NOSIG=
202602030030 METAR VABB 030030Z 14004KT 2500 HZ NSC 25/17 Q1014 NOSIG=
202602030100 METAR VABB 030100Z 10006KT 2500 HZ NSC 25/16 Q1014 NOSIG=
202602030130 METAR VABB 030130Z 15004KT 2100 HZ NSC 25/16 Q1015 NOSIG=
202602030200 METAR VABB 030200Z 16003KT 1800 FU NSC 24/16 Q1015 NOSIG=
202602030230 METAR VABB 030230Z 15005KT 1500 FU FEW100 24/16 Q1015 NOSIG=
202602030300 METAR VABB 030300Z 14005KT 1500 FU FEW100 26/16 Q1016 NOSIG=
202602030330 METAR VABB 030330Z 12005KT 1500 FU FEW100 26/16 Q1016 NOSIG=
202602030400 METAR VABB 030400Z 13004KT 1500 FU FEW100 27/15 Q1017 NOSIG=
202602030430 METAR VABB 030430Z 10005KT 1700 FU FEW100 28/15 Q1017 NOSIG=
202602030500 METAR VABB 030500Z 13007KT 2100 FU FEW100 29/15 Q1017 NOSIG=
202602030530 METAR VABB 030530Z 07005KT 2100 FU FEW100 30/14 Q1016 NOSIG=
202602030600 METAR VABB 030600Z 15004KT 2100 FU FEW100 31/14 Q1016 NOSIG=
202602030630 METAR VABB 030630Z 14005KT 2100 FU FEW100 32/13 Q1016 NOSIG=
202602030700 METAR VABB 030700Z 19004KT 2100 FU FEW100 33/15 Q1015 NOSIG=
202602030730 METAR COR VABB 030730Z 10004KT 2100 FU FEW100 33/14 Q1014 NOSIG=
202602030800 METAR VABB 030800Z 26009KT 2100 FU FEW100 33/17 Q1014 NOSIG=
202602030830 METAR VABB 030830Z 27011KT 2100 FU FEW100 32/17 Q1013 NOSIG=
202602030900 METAR VABB 030900Z 27010KT 2500 FU FEW100 32/17 Q1013 NOSIG=
202602030930 METAR VABB 030930Z 28009KT 2500 FU FEW100 31/17 Q1013 NOSIG=
202602031000 METAR VABB 031000Z 26011KT 2500 FU FEW100 31/18 Q1013 NOSIG=
202602031030 METAR VABB 031030Z 27009KT 2500 FU FEW100 31/18 Q1013 NOSIG=
202602031100 METAR VABB 031100Z 28008KT 2500 FU FEW100 30/19 Q1013 NOSIG=
202602031130 METAR VABB 031130Z 30008KT 2500 FU FEW100 30/19 Q1013 NOSIG=
202602031200 METAR VABB 031200Z 32008KT 2500 FU FEW100 29/17 Q1013 NOSIG=
202602031230 METAR VABB 031230Z 31007KT 2500 FU FEW100 29/17 Q1013 NOSIG=
202602031300 METAR VABB 031300Z 32006KT 2500 FU NSC 29/16 Q1013 NOSIG=
202602031330 METAR VABB 031330Z 32004KT 2500 FU NSC 29/16 Q1013 NOSIG=
202602031400 METAR VABB 031400Z 29005KT 2500 FU NSC 28/16 Q1014 NOSIG=
202602031430 METAR VABB 031430Z 31005KT 2500 FU NSC 28/15 Q1014 NOSIG=
202602031500 METAR VABB 031500Z 34004KT 2500 FU NSC 28/15 Q1015 NOSIG=
202602031530 METAR VABB 031530Z 33004KT 2500 FU NSC 28/15 Q1015 NOSIG=
202602031600 METAR VABB 031600Z 02005KT 2500 FU NSC 28/15 Q1015 NOSIG=
202602031630 METAR VABB 031630Z 00000KT 2500 FU NSC 28/15 Q1015 NOSIG=
202602031700 METAR VABB 031700Z 05003KT 2500 FU NSC 28/16 Q1015 NOSIG=
202602031730 METAR VABB 031730Z 00000KT 2500 FU NSC 27/16 Q1015 NOSIG=
202602031800 METAR VABB 031800Z 00000KT 2500 FU NSC 27/16 Q1015 NOSIG=
202602031830 METAR VABB 031830Z 09003KT 2500 FU NSC 27/17 Q1015 NOSIG=
202602031900 METAR VABB 031900Z 12003KT 2500 FU NSC 27/15 Q1015 NOSIG=
202602031930 METAR VABB 031930Z 12003KT 2500 FU NSC 27/16 Q1015 NOSIG=
202602032000 METAR VABB 032000Z 00000KT 2500 FU NSC 26/16 Q1014 NOSIG=
202602032030 METAR VABB 032030Z 09003KT 2500 FU NSC 26/17 Q1014 NOSIG=
202602032100 METAR VABB 032100Z 16005KT 2500 FU NSC 27/17 Q1014 NOSIG=
202602032130 METAR VABB 032130Z 00000KT 2500 HZ NSC 26/17 Q1014 NOSIG=
202602032200 METAR VABB 032200Z 09003KT 2500 HZ NSC 25/16 Q1013 NOSIG=
202602032230 METAR VABB 032230Z 10005KT 2500 HZ NSC 24/16 Q1013 NOSIG=
202602032300 METAR VABB 032300Z 10003KT 2500 HZ NSC 25/16 Q1013 NOSIG=
202602032331 METAR VABB 032331Z 10004KT 2500 HZ NSC 25/15 Q1014 NOSIG=
202602040000 METAR VABB 040000Z 09003KT 2500 HZ NSC 25/15 Q1014 NOSIG=
202602040030 METAR VABB 040030Z 15005KT 2500 HZ NSC 25/15 Q1014 NOSIG=
202602040100 METAR VABB 040100Z 18003KT 2500 HZ NSC 25/15 Q1014 NOSIG=
202602040130 METAR VABB 040130Z 25002KT 2200 HZ NSC 26/15 Q1015 NOSIG=
202602040200 METAR VABB 040200Z 09003KT 2200 HZ NSC 26/15 Q1015 NOSIG=
202602040230 METAR VABB 040230Z 07004KT 2200 FU NSC 26/15 Q1016 NOSIG=
202602040300 METAR VABB 040300Z 08004KT 2200 FU NSC 27/15 Q1016 NOSIG=
202602040330 METAR VABB 040330Z 16004KT 2200 FU NSC 27/15 Q1016 NOSIG=
202602040400 METAR VABB 040400Z 09006KT 2200 FU NSC 28/14 Q1017 NOSIG=
202602040430 METAR VABB 040430Z 11006KT 2200 FU NSC 29/15 Q1017 NOSIG=
202602040500 METAR VABB 040500Z 11006KT 2200 FU NSC 30/14 Q1017 NOSIG=
202602040530 METAR VABB 040530Z 12008KT 2200 FU NSC 30/14 Q1017 NOSIG=
202602040600 METAR VABB 040600Z 10007KT 2500 FU NSC 31/15 Q1016 NOSIG=
202602040630 METAR VABB 040630Z 10008KT 2500 FU NSC 31/14 Q1016 NOSIG=
202602040700 METAR VABB 040700Z 11006KT 2500 FU NSC 32/15 Q1015 NOSIG=
202602040730 METAR VABB 040730Z 10005KT 2500 FU NSC 33/15 Q1015 NOSIG=
202602040800 METAR VABB 040800Z 16005KT 2500 FU NSC 33/15 Q1014 NOSIG=
202602040830 METAR VABB 040830Z 16003KT 2500 FU NSC 34/14 Q1013 NOSIG=
202602040900 METAR VABB 040900Z 21005KT 2100 FU FEW100 34/14 Q1013 NOSIG=
202602040930 METAR VABB 040930Z 25010KT 2100 FU FEW100 33/16 Q1013 NOSIG=
202602041000 METAR VABB 041000Z 26010KT 2100 FU FEW100 33/14 Q1013 NOSIG=
202602041030 METAR VABB 041030Z 28010KT 2100 FU FEW100 32/15 Q1012 NOSIG=
202602041100 METAR VABB 041100Z 28009KT 2100 FU FEW100 31/16 Q1012 NOSIG=
202602041130 METAR VABB 041130Z 28008KT 2100 FU FEW100 31/17 Q1013 NOSIG=
202602041200 METAR VABB 041200Z 29008KT 2100 FU FEW100 31/16 Q1013 NOSIG=
202602041230 METAR VABB 041230Z 29007KT 2100 FU FEW100 30/16 Q1013 NOSIG=
202602041300 METAR VABB 041300Z 29007KT 2100 FU FEW100 30/16 Q1013 NOSIG=
202602041330 METAR VABB 041330Z 32007KT 2500 FU FEW100 29/16 Q1014 NOSIG=
202602041400 METAR VABB 041400Z 34007KT 2500 FU FEW100 29/17 Q1014 NOSIG=
202602041430 METAR VABB 041430Z 36006KT 2500 FU FEW100 29/17 Q1014 NOSIG=
202602041500 METAR VABB 041500Z 01004KT 2500 FU FEW100 28/17 Q1015 NOSIG=
202602041530 METAR VABB 041530Z 01003KT 2500 FU FEW100 29/16 Q1015 NOSIG=
202602041600 METAR VABB 041600Z 02004KT 2500 FU FEW100 29/16 Q1015 NOSIG=
202602041630 METAR VABB 041630Z 09003KT 2500 FU FEW100 29/16 Q1016 NOSIG=
202602041700 METAR VABB 041700Z 07003KT 2500 FU FEW100 29/15 Q1016 NOSIG=
202602041730 METAR VABB 041730Z 21003KT 2500 FU FEW100 29/15 Q1016 NOSIG=
202602041800 METAR VABB 041800Z 00000KT 2500 FU NSC 29/15 Q1015 NOSIG=
202602041830 METAR VABB 041830Z 00000KT 2500 FU NSC 28/15 Q1015 NOSIG=
202602041900 METAR VABB 041900Z 07003KT 2500 FU NSC 28/16 Q1015 NOSIG=
202602041930 METAR VABB 041930Z 19003KT 2500 FU NSC 27/15 Q1015 NOSIG=
202602042000 METAR VABB 042000Z 00000KT 2500 FU NSC 28/16 Q1014 NOSIG=
202602042030 METAR VABB 042030Z 10004KT 2500 FU NSC 27/16 Q1014 NOSIG=
202602042100 METAR VABB 042100Z 11006KT 2500 FU NSC 27/16 Q1014 NOSIG=
202602042130 METAR VABB 042130Z 13004KT 2500 FU NSC 26/17 Q1014 NOSIG=
202602042200 METAR VABB 042200Z 12003KT 2500 FU NSC 26/17 Q1014 NOSIG=
202602042230 METAR VABB 042230Z 12003KT 2500 FU NSC 25/18 Q1014 NOSIG=
202602042300 METAR VABB 042300Z 11003KT 2500 FU NSC 26/17 Q1014 NOSIG=
202602042330 METAR VABB 042330Z 00000KT 2500 FU NSC 26/16 Q1014 NOSIG=
202602050000 METAR VABB 050000Z 17004KT 2500 FU NSC 26/17 Q1014 NOSIG=
202602050030 METAR VABB 050030Z 10005KT 2500 FU NSC 26/16 Q1014 NOSIG=
202602050100 METAR VABB 050100Z 11003KT 2500 FU NSC 26/15 Q1015 NOSIG=
202602050130 METAR VABB 050130Z 11003KT 2100 FU FEW100 25/15 Q1015 NOSIG=
202602050200 METAR VABB 050200Z 09006KT 2100 FU FEW100 25/16 Q1015 NOSIG=
202602050230 METAR VABB 050230Z 11005KT 2100 FU FEW100 27/15 Q1016 NOSIG=
202602050300 METAR VABB 050300Z 12006KT 1800 FU FEW100 27/14 Q1016 NOSIG=
202602050330 METAR VABB 050330Z 11005KT 1800 FU FEW100 28/14 Q1017 NOSIG=
202602050400 METAR VABB 050400Z 10005KT 2100 FU NSC 29/14 Q1017 NOSIG=
202602050430 METAR VABB 050430Z 11006KT 2100 FU NSC 30/13 Q1017 NOSIG=
202602050500 METAR VABB 050500Z 13005KT 2500 FU NSC 30/13 Q1018 NOSIG=
202602050530 METAR VABB 050530Z 11006KT 2500 FU NSC 31/13 Q1017 NOSIG=
202602050600 METAR VABB 050600Z 13006KT 2500 FU NSC 32/12 Q1017 NOSIG=
202602050630 METAR VABB 050630Z 11008KT 2500 FU NSC 32/12 Q1016 NOSIG=
202602050700 METAR VABB 050700Z 10007KT 2500 FU NSC 33/13 Q1016 NOSIG=
202602050730 METAR VABB 050730Z 14007G18KT 2500 FU NSC 34/11 Q1015 NOSIG=
202602050800 METAR VABB 050800Z 14005KT 3000 FU NSC 34/12 Q1015 NOSIG=
202602050830 METAR VABB 050830Z 18003KT 3000 FU NSC 34/11 Q1014 NOSIG=
202602050900 METAR VABB 050900Z 28007KT 3000 FU NSC 34/14 Q1014 NOSIG=
202602050930 METAR VABB 050930Z 26009KT 3000 FU NSC 33/15 Q1013 NOSIG=
202602051000 METAR VABB 051000Z 27009KT 3000 FU NSC 33/14 Q1013 NOSIG=
202602051030 METAR VABB 051030Z 28010KT 3000 FU NSC 32/14 Q1014 NOSIG=
202602051100 METAR VABB 051100Z 27010KT 3000 FU NSC 31/14 Q1014 NOSIG=
202602051130 METAR VABB 051130Z 28009KT 3000 FU NSC 31/16 Q1014 NOSIG=
202602051200 METAR VABB 051200Z 29008KT 3000 FU NSC 30/14 Q1014 NOSIG=
202602051230 METAR VABB 051230Z 31007KT 3000 FU FEW100 30/14 Q1015 NOSIG=
202602051300 METAR VABB 051300Z 33006KT 3000 FU FEW100 30/15 Q1015 NOSIG=
202602051330 METAR VABB 051330Z 35005KT 3000 FU FEW100 29/15 Q1015 NOSIG=
202602051400 METAR VABB 051400Z 32007KT 3000 FU NSC 29/16 Q1016 NOSIG=
202602051430 METAR VABB 051430Z 34004KT 3000 FU NSC 29/16 Q1016 NOSIG=
202602051500 METAR VABB 051500Z 36007KT 3000 FU NSC 29/17 Q1017 NOSIG=
202602051530 METAR VABB 051530Z 36007KT 3000 FU NSC 28/16 Q1017 NOSIG=
202602051600 METAR VABB 051600Z 06005KT 3000 FU NSC 28/16 Q1017 NOSIG=
202602051630 METAR VABB 051630Z 06006KT 3000 FU NSC 28/14 Q1017 NOSIG=
202602051700 METAR VABB 051700Z 12004KT 3000 FU NSC 28/14 Q1018 NOSIG=
202602051730 METAR VABB 051730Z 18004KT 3000 FU NSC 28/15 Q1017 NOSIG=
202602051800 METAR VABB 051800Z 18004KT 3000 FU NSC 28/15 Q1017 NOSIG=
202602051830 METAR VABB 051830Z 17004KT 3000 FU NSC 28/15 Q1017 NOSIG=
202602051900 METAR VABB 051900Z 15004KT 3000 FU NSC 27/15 Q1017 NOSIG=
202602051930 METAR VABB 051930Z 15005KT 2500 FU NSC 27/15 Q1017 NOSIG=
202602052000 METAR VABB 052000Z 16004KT 2500 FU NSC 27/15 Q1016 NOSIG=
202602052030 METAR VABB 052030Z 13003KT 2500 FU NSC 27/14 Q1016 NOSIG=
202602052100 METAR VABB 052100Z 11004KT 2500 FU NSC 27/14 Q1016 NOSIG=
202602052130 METAR VABB 052130Z 13005KT 2500 FU NSC 27/14 Q1016 NOSIG=
202602052200 METAR VABB 052200Z 00000KT 2500 FU NSC 26/15 Q1015 NOSIG=
202602052230 METAR VABB 052230Z 00000KT 2500 FU NSC 24/16 Q1015 NOSIG=
202602052300 METAR VABB 052300Z 00000KT 2500 FU NSC 26/16 Q1015 NOSIG=
202602052330 METAR VABB 052330Z 00000KT 2500 FU NSC 25/16 Q1015 NOSIG=
202602060000 METAR VABB 060000Z 08004KT 2500 FU NSC 26/14 Q1015 NOSIG=
202602060030 METAR VABB 060030Z 12007KT 2500 FU NSC 26/14 Q1015 NOSIG=
202602060100 METAR VABB 060100Z 10004KT 2500 FU NSC 26/15 Q1016 NOSIG=
202602060130 METAR VABB 060130Z 10005KT 1800 FU NSC 25/15 Q1016 NOSIG=
202602060200 METAR VABB 060200Z 11005KT 1800 FU NSC 25/15 Q1016 NOSIG=
202602060230 METAR VABB 060230Z 13006KT 1800 FU NSC 26/15 Q1017 NOSIG=
202602060300 METAR VABB 060300Z 11007KT 1800 FU NSC 26/15 Q1017 NOSIG=
202602060330 METAR VABB 060330Z 11007KT 1800 FU NSC 27/15 Q1017 NOSIG=
202602060400 METAR VABB 060400Z 10007KT 2100 FU NSC 28/15 Q1018 NOSIG=
202602060430 METAR VABB 060430Z 09006KT 2100 FU NSC 29/15 Q1018 NOSIG=
202602060500 METAR VABB 060500Z 11007KT 2100 FU NSC 30/14 Q1018 NOSIG=
202602060530 METAR VABB 060530Z 10008KT 2100 FU NSC 31/14 Q1018 NOSIG=
202602060600 METAR VABB 060600Z 10008KT 2100 FU NSC 32/15 Q1018 NOSIG=
202602060630 METAR VABB 060630Z 11008KT 2100 FU NSC 32/14 Q1017 NOSIG=
202602060700 METAR VABB 060700Z 12006KT 2100 FU NSC 33/13 Q1016 BECMG 2500 FU=
202602060730 METAR VABB 060730Z 13009KT 2500 FU NSC 33/13 Q1016 NOSIG=
202602060800 METAR VABB 060800Z 07008KT 2500 FU NSC 34/12 Q1015 NOSIG=
202602060830 METAR VABB 060830Z 03008KT 2500 FU NSC 34/12 Q1015 BECMG 3000 FU=
202602060900 METAR VABB 060900Z 04004KT 3000 FU NSC 34/12 Q1014 NOSIG=
202602060930 METAR VABB 060930Z 09006KT 3000 FU NSC 35/11 Q1014 NOSIG=
202602061000 METAR VABB 061000Z 04007KT 3000 FU NSC 34/11 Q1013 NOSIG=
202602061030 METAR VABB 061030Z 31009KT 3000 FU NSC 33/16 Q1013 NOSIG=
202602061100 METAR VABB 061100Z 31011KT 3000 FU NSC 32/15 Q1013 NOSIG=
202602061130 METAR VABB 061130Z 32007KT 3000 FU NSC 32/17 Q1013 NOSIG=
202602061200 METAR VABB 061200Z 32009KT 3000 FU NSC 31/16 Q1013 NOSIG=
202602061230 METAR VABB 061230Z 33007KT 3000 FU NSC 30/16 Q1014 NOSIG=
202602061300 METAR VABB 061300Z 34008KT 3000 FU NSC 30/16 Q1014 NOSIG=
202602061330 METAR VABB 061330Z 36010KT 3000 FU NSC 30/15 Q1014 NOSIG=
202602061400 METAR VABB 061400Z 36010KT 3000 FU NSC 29/14 Q1014 NOSIG=
202602061430 METAR VABB 061430Z 36008KT 3000 FU NSC 29/13 Q1015 NOSIG=
202602061500 METAR VABB 061500Z 36010KT 3000 FU NSC 29/12 Q1015 NOSIG=
202602061530 METAR VABB 061530Z 01006KT 3000 FU NSC 29/13 Q1016 NOSIG=
202602061600 METAR VABB 061600Z 02007KT 3000 FU NSC 29/13 Q1016 NOSIG=
202602061630 METAR VABB 061630Z 02007KT 3000 FU NSC 28/13 Q1017 NOSIG=
202602061700 METAR VABB 061700Z 02006KT 3000 FU NSC 28/13 Q1017 NOSIG=
202602061730 METAR VABB 061730Z 01006KT 3000 FU NSC 28/12 Q1016 NOSIG=
202602061800 METAR VABB 061800Z 07004KT 3000 FU NSC 28/12 Q1016 NOSIG=
202602061830 METAR VABB 061830Z 02005KT 3000 FU NSC 28/12 Q1016 NOSIG=
202602061900 METAR VABB 061900Z 01006KT 3000 FU NSC 28/12 Q1016 NOSIG=
202602061930 METAR VABB 061930Z 07004KT 3000 FU NSC 27/11 Q1016 NOSIG=
202602062000 METAR VABB 062000Z 17003KT 3000 FU NSC 28/13 Q1016 NOSIG=
202602062030 METAR VABB 062030Z 16004KT 3000 FU NSC 27/13 Q1015 NOSIG=
202602062100 METAR VABB 062100Z 16004KT 3000 FU NSC 27/13 Q1015 NOSIG=
202602062130 METAR VABB 062130Z 13003KT 2500 FU NSC 27/13 Q1015 NOSIG=
202602062200 METAR VABB 062200Z 00000KT 2500 FU NSC 27/14 Q1015 NOSIG=
202602062230 METAR VABB 062230Z 25005KT 2500 FU NSC 26/13 Q1015 NOSIG=
202602062300 METAR VABB 062300Z 21004KT 2500 FU NSC 26/14 Q1015 NOSIG=
202602062330 METAR VABB 062330Z 20003KT 2500 FU NSC 25/14 Q1015 NOSIG=
202602070000 METAR VABB 070000Z 00000KT 2500 FU NSC 25/14 Q1015 NOSIG=
202602070030 METAR VABB 070030Z 22003KT 2500 FU NSC 26/14 Q1015 NOSIG=
202602070100 METAR VABB 070100Z 07003KT 2500 FU NSC 25/14 Q1016 NOSIG=
202602070130 METAR VABB 070130Z 18003KT 2100 FU NSC 25/15 Q1016 NOSIG=
202602070200 METAR VABB 070200Z 18004KT 2100 FU NSC 25/15 Q1016 NOSIG=
202602070230 METAR VABB 070230Z 15004KT 2100 FU NSC 26/13 Q1016 NOSIG=
202602070300 METAR VABB 070300Z 16005KT 1800 FU NSC 26/15 Q1017 NOSIG=
202602070330 METAR VABB 070330Z 16005KT 1800 FU NSC 26/14 Q1017 NOSIG=
202602070400 METAR VABB 070400Z 11005KT 1800 FU NSC 28/14 Q1017 NOSIG=
202602070430 METAR VABB 070430Z 10006KT 2100 FU NSC 29/14 Q1017 NOSIG=
202602070500 METAR VABB 070500Z 11004KT 2100 FU NSC 30/14 Q1017 NOSIG=
202602070530 METAR VABB 070530Z 12003KT 2500 FU NSC 32/13 Q1017 NOSIG=
202602070600 METAR VABB 070600Z 17003KT 2500 FU NSC 31/12 Q1017 BECMG 3000 FU=
202602070630 METAR VABB 070630Z 14006KT 3000 FU NSC 32/12 Q1016 NOSIG=
202602070700 METAR VABB 070700Z 16005KT 3000 FU NSC 33/12 Q1015 NOSIG=
202602070730 METAR VABB 070730Z 13003KT 3000 FU NSC 33/12 Q1015 NOSIG=
202602070800 METAR VABB 070800Z 25011KT 3000 FU NSC 33/16 Q1014 NOSIG=
202602070830 METAR VABB 070830Z 26011KT 3000 FU NSC 32/17 Q1013 NOSIG=
202602070900 METAR VABB 070900Z 28010KT 3000 FU NSC 32/15 Q1013 NOSIG=
202602070930 METAR VABB 070930Z 27010KT 3000 FU NSC 31/15 Q1013 NOSIG=
202602071000 METAR VABB 071000Z 27010KT 3000 FU NSC 32/16 Q1012 NOSIG=
202602071030 METAR VABB 071030Z 28009KT 3000 FU NSC 32/15 Q1012 NOSIG=
202602071100 METAR VABB 071100Z 31009KT 3000 FU NSC 31/14 Q1012 NOSIG=
202602071130 METAR VABB 071130Z 32009KT 3000 FU NSC 31/14 Q1012 NOSIG=
202602071200 METAR VABB 071200Z 31009KT 3000 FU NSC 31/15 Q1012 NOSIG=
202602071230 METAR VABB 071230Z 32007KT 3000 FU NSC 30/13 Q1012 NOSIG=
202602071300 METAR VABB 071300Z 33007KT 3000 FU NSC 30/13 Q1012 BECMG 2500 FU=
202602071330 METAR VABB 071330Z 35006KT 2500 FU NSC 30/13 Q1013 NOSIG=
202602071400 METAR VABB 071400Z 35007KT 2500 FU NSC 29/12 Q1013 NOSIG=
202602071430 METAR VABB 071430Z 35009KT 2500 FU NSC 29/12 Q1013 NOSIG=
202602071500 METAR VABB 071500Z 36007KT 2500 FU NSC 29/12 Q1014 NOSIG=
202602071530 METAR VABB 071530Z 03004KT 2500 FU NSC 28/12 Q1014 NOSIG=
202602071600 METAR VABB 071600Z 02004KT 2500 FU NSC 28/12 Q1014 NOSIG=
202602071630 METAR VABB 071630Z 02005KT 2500 FU NSC 28/12 Q1014 NOSIG=
202602071700 METAR VABB 071700Z 08003KT 2500 FU NSC 28/12 Q1014 NOSIG=
202602071730 METAR VABB 071730Z 19004KT 2500 FU NSC 28/12 Q1014 NOSIG=
202602071800 METAR VABB 071800Z 17004KT 2500 FU NSC 28/12 Q1014 NOSIG=
202602071830 METAR VABB 071830Z 22004KT 2500 FU NSC 28/12 Q1014 NOSIG=
202602071900 METAR VABB 071900Z 16004KT 2500 FU NSC 27/13 Q1014 NOSIG=
202602071930 METAR VABB 071930Z 16004KT 2500 FU NSC 27/13 Q1014 NOSIG=
202602072000 METAR VABB 072000Z 17004KT 2500 FU NSC 27/13 Q1014 NOSIG=
202602072030 METAR VABB 072030Z 19004KT 2500 FU NSC 27/13 Q1013 NOSIG=
202602072100 METAR VABB 072100Z 18004KT 2500 FU NSC 27/13 Q1013 NOSIG=
202602072130 METAR VABB 072130Z 14003KT 2500 FU NSC 27/13 Q1013 NOSIG=
202602072200 METAR VABB 072200Z 07004KT 2500 FU NSC 26/14 Q1013 NOSIG=
202602072230 METAR VABB 072230Z 00000KT 2500 FU NSC 25/14 Q1013 NOSIG=
202602072300 METAR VABB 072300Z 00000KT 2500 FU NSC 25/13 Q1013 NOSIG=
202602072330 METAR VABB 072330Z 11003KT 2500 FU NSC 26/13 Q1013 NOSIG=
202602080000 METAR VABB 080000Z 10004KT 2500 FU NSC 26/13 Q1013 NOSIG=
202602080030 METAR VABB 080030Z 09003KT 2500 FU NSC 25/13 Q1013 NOSIG=
202602080100 METAR VABB 080100Z 10003KT 2500 FU NSC 25/13 Q1014 NOSIG=
202602080130 METAR VABB 080130Z 18004KT 2200 FU NSC 25/13 Q1014 NOSIG=
202602080200 METAR VABB 080200Z 15003KT 2200 FU NSC 25/13 Q1015 NOSIG=
202602080230 METAR VABB 080230Z 06003KT 2200 FU NSC 26/13 Q1015 NOSIG=
202602080300 METAR VABB 080300Z 04003KT 2200 FU NSC 27/13 Q1015 NOSIG=
202602080330 METAR VABB 080330Z 10004KT 2200 FU NSC 28/13 Q1015 NOSIG=
202602080400 METAR VABB 080400Z 12006KT 2200 FU NSC 28/13 Q1015 NOSIG=
202602080430 METAR VABB 080430Z 11007KT 2500 FU NSC 29/13 Q1016 NOSIG=
202602080500 METAR VABB 080500Z 13006KT 2500 FU NSC 30/12 Q1016 NOSIG=
202602080530 METAR VABB 080530Z 12008KT 2500 FU NSC 31/11 Q1015 NOSIG=
202602080600 METAR VABB 080600Z 10005KT 2500 FU NSC 32/11 Q1015 BECMG 3000 FU=
202602080630 METAR VABB 080630Z 12006KT 3000 FU NSC 32/12 Q1014 NOSIG=
202602080700 METAR VABB 080700Z 11007KT 3000 FU NSC 33/12 Q1014 NOSIG=
202602080730 METAR VABB 080730Z 24003KT 3000 FU NSC 34/12 Q1013 NOSIG=
202602080800 METAR VABB 080800Z 28009KT 3000 FU NSC 33/16 Q1013 NOSIG=
202602080830 METAR VABB 080830Z 27011KT 3000 FU NSC 32/17 Q1012 NOSIG=
202602080900 METAR VABB 080900Z 26010KT 3000 FU NSC 33/15 Q1012 NOSIG=
202602080930 METAR VABB 080930Z 26009KT 3000 FU NSC 32/16 Q1011 NOSIG=
202602081000 METAR VABB 081000Z 26011KT 3000 FU NSC 32/14 Q1011 NOSIG=
202602081030 METAR VABB 081030Z 26009KT 3000 FU NSC 32/15 Q1011 NOSIG=
202602081100 METAR VABB 081100Z 25008KT 3000 FU NSC 33/14 Q1010 NOSIG=
202602081130 METAR VABB 081130Z 27009KT 3000 FU NSC 32/15 Q1010 NOSIG=
202602081200 METAR VABB 081200Z 28009KT 3000 FU NSC 31/14 Q1010 NOSIG=
202602081230 METAR VABB 081230Z 27008KT 3000 FU NSC 30/13 Q1011 BECMG 2500 FU=
202602081300 METAR VABB 081300Z 29006KT 2500 FU NSC 30/15 Q1011 NOSIG=
202602081330 METAR VABB 081330Z 31005KT 2500 FU NSC 29/16 Q1011 NOSIG=
202602081400 METAR VABB 081400Z 32007KT 2500 FU NSC 29/16 Q1012 NOSIG=
202602081430 METAR VABB 081430Z 33005KT 2500 FU NSC 29/15 Q1012 NOSIG=
202602081500 METAR VABB 081500Z 35008KT 2500 FU NSC 28/16 Q1012 NOSIG=
202602081530 METAR VABB 081530Z 36005KT 2500 FU NSC 28/14 Q1013 NOSIG=
202602081600 METAR VABB 081600Z 36006KT 2500 FU NSC 28/13 Q1013 NOSIG=
202602081630 METAR VABB 081630Z 03003KT 2500 FU NSC 28/13 Q1013 NOSIG=
202602081700 METAR VABB 081700Z 05005KT 2500 FU NSC 28/13 Q1013 NOSIG=
202602081730 METAR VABB 081730Z 11007KT 2500 FU NSC 28/13 Q1013 NOSIG=
202602081800 METAR VABB 081800Z 10006KT 2500 FU NSC 27/13 Q1013 NOSIG=
202602081830 METAR VABB 081830Z 09004KT 2500 FU NSC 27/13 Q1013 NOSIG=
202602081900 METAR VABB 081900Z 05004KT 2500 FU NSC 27/13 Q1013 NOSIG=
202602081930 METAR VABB 081930Z 00000KT 2500 FU NSC 27/13 Q1013 NOSIG=
202602082000 METAR VABB 082000Z 00000KT 2500 FU NSC 27/13 Q1013 NOSIG=
202602082030 METAR VABB 082030Z 20003KT 2500 FU NSC 28/12 Q1012 NOSIG=
202602082100 METAR VABB 082100Z 00000KT 2500 FU NSC 27/13 Q1012 NOSIG=
202602082130 METAR VABB 082130Z 15005KT 2500 FU NSC 27/13 Q1012 NOSIG=
202602082200 METAR VABB 082200Z 00000KT 2500 FU NSC 26/14 Q1012 NOSIG=
202602082230 METAR VABB 082230Z 10003KT 2500 FU NSC 25/14 Q1012 NOSIG=
202602082300 METAR VABB 082300Z 18004KT 2500 FU NSC 26/13 Q1012 NOSIG=
202602082330 METAR VABB 082330Z 14005KT 2500 FU NSC 26/14 Q1012 NOSIG=
202602090000 METAR VABB 090000Z 14005KT 2500 FU NSC 25/16 Q1012 NOSIG=
202602090030 METAR VABB 090030Z 15005KT 2500 FU NSC 25/15 Q1012 NOSIG=
202602090100 METAR VABB 090100Z 00000KT 2500 FU NSC 25/15 Q1012 NOSIG=
202602090130 METAR VABB 090130Z 00000KT 2100 FU NSC 25/15 Q1013 NOSIG=
202602090200 METAR VABB 090200Z 00000KT 1800 FU NSC 25/14 Q1013 NOSIG=
202602090230 METAR VABB 090230Z 18003KT 1600 FU NSC 25/15 Q1013 NOSIG=
202602090300 METAR VABB 090300Z 16004KT 1500 FU NSC 26/15 Q1014 NOSIG=
202602090330 METAR VABB 090330Z 14004KT 1500 FU NSC 27/15 Q1014 NOSIG=
202602090400 METAR VABB 090400Z 14004KT 1600 FU NSC 28/14 Q1014 NOSIG=
202602090430 METAR VABB 090430Z 14005KT 1800 FU NSC 29/14 Q1015 NOSIG=
202602090500 METAR VABB 090500Z 11003KT 2200 FU NSC 31/14 Q1015 NOSIG=
202602090530 METAR VABB 090530Z 03005KT 2500 FU NSC 31/12 Q1015 NOSIG=
202602090600 METAR VABB 090600Z 32005KT 2500 FU NSC 32/12 Q1014 NOSIG=
202602090630 METAR VABB 090630Z 27011KT 2500 FU NSC 31/16 Q1014 NOSIG=
202602090700 METAR VABB 090700Z 26011KT 2500 FU NSC 31/17 Q1013 NOSIG=
202602090730 METAR VABB 090730Z 27011KT 2500 FU NSC 32/15 Q1013 NOSIG=
202602090800 METAR VABB 090800Z 27010KT 2500 FU NSC 32/15 Q1012 NOSIG=
202602090830 METAR VABB 090830Z 26012KT 2500 FU NSC 31/16 Q1011 NOSIG=
202602090900 METAR VABB 090900Z 24008KT 2500 FU NSC 30/16 Q1011 NOSIG=
202602090930 METAR VABB 090930Z 23008KT 2500 FU NSC 30/17 Q1010 NOSIG=
202602091000 METAR VABB 091000Z 24008KT 2500 FU NSC 29/18 Q1010 NOSIG=
202602091030 METAR VABB 091030Z 28011KT 2500 FU NSC 30/18 Q1011 NOSIG=
202602091100 METAR VABB 091100Z 28010KT 2500 FU NSC 29/19 Q1011 NOSIG=
202602091130 METAR VABB 091130Z 29010KT 2500 FU NSC 29/19 Q1011 NOSIG=
202602091200 METAR VABB 091200Z 31010KT 2500 FU NSC 29/19 Q1011 NOSIG=
202602091230 METAR VABB 091230Z 31011KT 2500 FU NSC 28/19 Q1011 NOSIG=
202602091300 METAR VABB 091300Z 31010KT 2500 FU NSC 27/20 Q1012 NOSIG=
202602091330 METAR VABB 091330Z 31009KT 2500 FU NSC 27/19 Q1012 NOSIG=
202602091400 METAR VABB 091400Z 32007KT 2500 FU NSC 27/18 Q1012 NOSIG=
202602091430 METAR VABB 091430Z 32007KT 2500 FU NSC 27/18 Q1013 NOSIG=
202602091500 METAR VABB 091500Z 32006KT 2500 FU NSC 27/18 Q1013 NOSIG=
202602091530 METAR VABB 091530Z 31006KT 2500 FU NSC 26/18 Q1013 NOSIG=
202602091600 METAR VABB 091600Z 33005KT 2500 FU NSC 26/18 Q1014 NOSIG=
202602091630 METAR VABB 091630Z 02004KT 2500 HZ NSC 26/19 Q1014 NOSIG=
202602091700 METAR VABB 091700Z 04004KT 2500 HZ NSC 25/19 Q1014 NOSIG=
202602091730 METAR VABB 091730Z 04005KT 2500 HZ NSC 26/18 Q1014 NOSIG=
202602091800 METAR VABB 091800Z 01005KT 2500 HZ NSC 26/17 Q1014 NOSIG=
202602091830 METAR VABB 091830Z 02004KT 2500 HZ NSC 26/16 Q1014 NOSIG=
202602091900 METAR VABB 091900Z 32004KT 2500 HZ NSC 25/16 Q1013 NOSIG=
202602091930 METAR VABB 091930Z 33006KT 2500 HZ NSC 26/16 Q1013 NOSIG=
202602092000 METAR VABB 092000Z 36004KT 2500 FU NSC 26/16 Q1013 NOSIG=
202602092030 METAR VABB 092030Z 35004KT 2500 FU NSC 25/16 Q1013 NOSIG=
202602092100 METAR VABB 092100Z 35005KT 2500 FU NSC 25/16 Q1013 NOSIG=
202602092130 METAR VABB 092130Z 36005KT 2500 FU NSC 25/17 Q1013 NOSIG=
202602092200 METAR VABB 092200Z 01005KT 2500 FU NSC 25/17 Q1012 NOSIG=
202602092230 METAR VABB 092230Z 02004KT 2500 FU NSC 24/17 Q1012 NOSIG=
202602092300 METAR VABB 092300Z 02005KT 2500 FU NSC 25/17 Q1012 NOSIG=
202602092330 METAR VABB 092330Z 02005KT 2500 FU NSC 25/15 Q1012 NOSIG=
202602100000 METAR VABB 100000Z 04003KT 2500 FU NSC 25/15 Q1013 NOSIG=
202602100030 METAR VABB 100030Z 17004KT 2500 FU NSC 25/14 Q1013 NOSIG=
202602100100 METAR VABB 100100Z 19004KT 2500 FU NSC 25/15 Q1013 NOSIG=
202602100130 METAR VABB 100130Z 10005KT 2500 FU NSC 24/15 Q1014 NOSIG=
202602100200 METAR VABB 100200Z 11004KT 2500 FU NSC 24/15 Q1014 NOSIG=
202602100230 METAR VABB 100230Z 12003KT 2100 FU NSC 24/16 Q1014 NOSIG=
202602100300 METAR VABB 100300Z 12003KT 2100 FU NSC 25/15 Q1015 NOSIG=
202602100330 METAR VABB 100330Z 23003KT 2100 FU NSC 26/15 Q1015 NOSIG=
202602100400 METAR VABB 100400Z 06003KT 2500 FU NSC 27/14 Q1015 NOSIG=
202602100430 METAR VABB 100430Z 02003KT 2500 FU NSC 28/13 Q1015 NOSIG=
202602100500 METAR VABB 100500Z 00000KT 2500 FU NSC 29/12 Q1015 NOSIG=
202602100530 METAR VABB 100530Z 05006KT 2500 FU NSC 30/13 Q1015 NOSIG=
202602100600 METAR VABB 100600Z 27007KT 2500 FU NSC 30/16 Q1015 NOSIG=
202602100630 METAR VABB 100630Z 29010KT 2500 FU NSC 30/18 Q1014 NOSIG=
202602100700 METAR VABB 100700Z 28009KT 2500 FU NSC 30/17 Q1014 BECMG 3000 FU=
202602100730 METAR VABB 100730Z 28010KT 2500 FU NSC 30/18 Q1013 NOSIG=
202602100800 METAR VABB 100800Z 29009KT 3000 FU NSC 31/19 Q1013 NOSIG=
202602100830 METAR VABB 100830Z 29008KT 3000 FU NSC 31/19 Q1012 NOSIG=
202602100900 METAR VABB 100900Z 28010KT 3000 FU NSC 31/19 Q1012 NOSIG=
202602100930 METAR VABB 100930Z 30009KT 3000 FU NSC 31/18 Q1012 NOSIG=
202602101000 METAR VABB 101000Z 30009KT 3000 FU NSC 31/17 Q1012 NOSIG=
202602101030 METAR VABB 101030Z 29011KT 3000 FU NSC 31/18 Q1012 NOSIG=
202602101100 METAR VABB 101100Z 32009KT 3000 FU NSC 30/18 Q1012 NOSIG=
202602101130 METAR VABB 101130Z 31010KT 3000 FU NSC 29/17 Q1012 NOSIG=
202602101200 METAR VABB 101200Z 32013KT 3000 FU NSC 29/16 Q1012 NOSIG=
202602101230 METAR VABB 101230Z 31009KT 3000 FU NSC 28/17 Q1013 NOSIG=
202602101300 METAR VABB 101300Z 33009KT 2500 FU NSC 28/17 Q1013 NOSIG=
202602101330 METAR VABB 101330Z 32010KT 2500 FU NSC 28/17 Q1013 NOSIG=
202602101400 METAR VABB 101400Z 33007KT 2500 FU NSC 27/18 Q1014 NOSIG=
202602101430 METAR VABB 101430Z 34005KT 2500 FU NSC 27/18 Q1014 NOSIG=
202602101500 METAR VABB 101500Z 33005KT 2500 FU NSC 27/18 Q1015 NOSIG=
202602101530 METAR VABB 101530Z 36005KT 2500 FU NSC 27/18 Q1015 NOSIG=
202602101600 METAR VABB 101600Z 01005KT 2500 FU NSC 26/18 Q1016 NOSIG=
202602101630 METAR VABB 101630Z 00000KT 2500 FU NSC 27/17 Q1016 NOSIG=
202602101700 METAR VABB 101700Z 22003KT 2500 FU NSC 27/16 Q1016 NOSIG=
202602101730 METAR VABB 101730Z 00000KT 2500 FU NSC 27/15 Q1016 NOSIG=
202602101800 METAR VABB 101800Z 03004KT 2500 FU NSC 26/16 Q1016 NOSIG=
202602101830 METAR VABB 101830Z 00000KT 2500 FU NSC 26/16 Q1015 NOSIG=
202602101900 METAR VABB 101900Z 02003KT 2500 FU NSC 26/16 Q1015 NOSIG=
202602101930 METAR VABB 101930Z 23004KT 2500 FU NSC 26/16 Q1015 NOSIG=
202602102000 METAR VABB 102000Z 00000KT 2500 FU NSC 25/17 Q1015 NOSIG=
202602102030 METAR VABB 102030Z 00000KT 2500 FU NSC 26/16 Q1015 NOSIG=
202602102100 METAR VABB 102100Z 03003KT 2500 FU NSC 26/16 Q1014 NOSIG=
202602102130 METAR VABB 102130Z 00000KT 2500 FU NSC 25/16 Q1014 NOSIG=
202602102200 METAR VABB 102200Z 00000KT 2500 HZ NSC 24/16 Q1014 NOSIG=
202602102230 METAR VABB 102230Z 00000KT 2500 HZ NSC 23/17 Q1014 NOSIG=
202602102300 METAR VABB 102300Z 00000KT 2500 HZ NSC 24/16 Q1014 NOSIG=
202602102330 METAR VABB 102330Z 21003KT 2500 HZ NSC 25/16 Q1014 NOSIG=
202602110000 METAR VABB 110000Z 25003KT 2500 HZ NSC 25/16 Q1014 NOSIG=
202602110030 METAR VABB 110030Z 25003KT 2500 HZ NSC 25/16 Q1014 NOSIG=
202602110100 METAR VABB 110100Z 23003KT 2500 HZ NSC 24/16 Q1015 NOSIG=
202602110130 METAR VABB 110130Z 25003KT 2100 HZ NSC 25/16 Q1015 NOSIG=
202602110200 METAR VABB 110200Z 18003KT 2100 HZ NSC 25/16 Q1016 NOSIG=
202602110230 METAR VABB 110230Z 14004KT 2100 HZ NSC 25/16 Q1016 NOSIG=
202602110300 METAR VABB 110300Z 09003KT 1800 FU NSC 26/16 Q1016 NOSIG=
202602110330 METAR VABB 110330Z 06005KT 1800 FU NSC 26/15 Q1017 NOSIG=
202602110400 METAR VABB 110400Z 06006KT 2100 FU NSC 27/15 Q1017 NOSIG=
202602110430 METAR COR VABB 110430Z 07007KT 2500 FU NSC 28/14 Q1017 NOSIG=
202602110500 METAR VABB 110500Z 05007KT 2500 FU NSC 29/15 Q1017 NOSIG=
202602110530 METAR VABB 110530Z 06006KT 2500 FU NSC 31/14 Q1017 NOSIG=
202602110600 METAR VABB 110600Z 07006KT 2500 FU NSC 32/14 Q1016 NOSIG=
202602110630 METAR VABB 110630Z 13008KT 2500 FU NSC 32/13 Q1016 BECMG 3000 FU=
202602110700 METAR VABB 110700Z 14006KT 3000 FU NSC 33/14 Q1015 NOSIG=
202602110730 METAR VABB 110730Z 16004KT 3000 FU NSC 33/14 Q1014 NOSIG=
202602110800 METAR VABB 110800Z 27008KT 3000 FU NSC 33/17 Q1014 NOSIG=
202602110830 METAR VABB 110830Z 27010KT 3000 FU NSC 33/17 Q1013 NOSIG=
202602110900 METAR VABB 110900Z 30008KT 3000 FU NSC 33/16 Q1013 NOSIG=
202602110930 METAR VABB 110930Z 31008KT 3000 FU NSC 32/17 Q1012 NOSIG=
202602111000 METAR VABB 111000Z 30009KT 3000 FU NSC 32/17 Q1012 NOSIG=
202602111030 METAR VABB 111030Z 31009KT 3000 FU NSC 32/17 Q1012 NOSIG=
202602111100 METAR VABB 111100Z 32008KT 3000 FU NSC 32/17 Q1012 NOSIG=
202602111130 METAR VABB 111130Z 31009KT 3000 FU NSC 31/17 Q1012 NOSIG=
202602111200 METAR VABB 111200Z 33008KT 3000 FU NSC 31/18 Q1012 NOSIG=
202602111230 METAR VABB 111230Z 32007KT 3000 FU NSC 30/18 Q1012 NOSIG=
202602111300 METAR VABB 111300Z 29006KT 3000 FU NSC 29/18 Q1013 NOSIG=
202602111330 METAR VABB 111330Z 32007KT 3000 FU NSC 29/19 Q1013 NOSIG=
202602111400 METAR VABB 111400Z 29005KT 3000 FU NSC 28/19 Q1013 NOSIG=
202602111430 METAR VABB 111430Z 30005KT 3000 FU NSC 28/19 Q1014 NOSIG=
202602111500 METAR VABB 111500Z 32005KT 3000 FU NSC 28/19 Q1014 NOSIG=
202602111530 METAR VABB 111530Z 36005KT 3000 FU NSC 28/19 Q1014 NOSIG=
202602111600 METAR VABB 111600Z 03003KT 3000 HZ NSC 28/19 Q1015 NOSIG=
202602111630 METAR VABB 111630Z 02003KT 3000 HZ NSC 27/20 Q1015 NOSIG=
202602111700 METAR VABB 111700Z 00000KT 3000 HZ NSC 27/19 Q1015 NOSIG=
202602111730 METAR VABB 111730Z 23005KT 2500 HZ NSC 28/19 Q1015 NOSIG=
202602111800 METAR VABB 111800Z 28004KT 2500 HZ NSC 27/20 Q1015 NOSIG=
202602111830 METAR VABB 111830Z 36005KT 2500 HZ NSC 27/19 Q1015 NOSIG=
202602111900 METAR VABB 111900Z 03003KT 2500 HZ NSC 27/19 Q1014 NOSIG=
202602111930 METAR VABB 111930Z 19004KT 2500 HZ NSC 27/19 Q1014 NOSIG=
202602112000 METAR VABB 112000Z 00000KT 2500 HZ NSC 27/19 Q1014 NOSIG=
202602112030 METAR VABB 112030Z 34005KT 2500 HZ NSC 27/19 Q1014 NOSIG=
202602112100 METAR VABB 112100Z 04005KT 2500 HZ NSC 26/18 Q1014 NOSIG=
202602112130 METAR VABB 112130Z 11003KT 2500 HZ NSC 26/18 Q1013 NOSIG=
202602112200 METAR VABB 112200Z 00000KT 2500 HZ NSC 26/19 Q1013 NOSIG=
202602112230 METAR VABB 112230Z 10003KT 2500 HZ NSC 25/19 Q1013 NOSIG=
202602112300 METAR VABB 112300Z 10004KT 2500 HZ NSC 26/18 Q1013 NOSIG=
202602112330 METAR VABB 112330Z 12006KT 2500 HZ NSC 26/17 Q1013 NOSIG=
202602120000 METAR VABB 120000Z 00000KT 2500 HZ NSC 26/17 Q1013 NOSIG=
