202603010000 METAR VABB 010000Z 00000KT 3000 HZ NSC 24/18 Q1009 NOSIG=
202603010030 METAR VABB 010030Z 17003KT 3000 HZ NSC 24/18 Q1010 NOSIG=
202603010100 METAR VABB 010100Z 00000KT 3000 HZ NSC 24/18 Q1010 NOSIG=
202603010130 METAR VABB 010130Z 16003KT 3000 HZ NSC 24/19 Q1010 NOSIG=
202603010200 METAR VABB 010200Z 11004KT 3000 HZ FEW020 24/19 Q1011 NOSIG=
202603010230 METAR VABB 010230Z 10003KT 3000 HZ FEW020 25/19 Q1011 NOSIG=
202603010300 METAR VABB 010300Z 05003KT 3000 HZ FEW020 25/18 Q1012 NOSIG=
202603010330 METAR VABB 010330Z 05004KT 3000 HZ NSC 26/18 Q1012 NOSIG=
202603010400 METAR VABB 010400Z 02005KT 3000 HZ FEW020 27/19 Q1012 NOSIG=
202603010430 METAR VABB 010430Z 06005KT 3000 FU FEW020 27/18 Q1012 NOSIG=
202603010500 METAR VABB 010500Z 33006KT 3500 FU FEW020 28/18 Q1012 NOSIG=
202603010530 METAR VABB 010530Z 03006KT 4000 FU FEW020 28/18 Q1012 NOSIG=
202603010600 METAR VABB 010600Z 27003KT 4000 FU FEW020 30/18 Q1012 NOSIG=
202603010630 METAR VABB 010630Z 34004KT 4000 FU FEW020 30/18 Q1011 NOSIG=
202603010700 METAR VABB 010700Z 27013KT 4000 FU FEW020 30/19 Q1011 NOSIG=
202603010730 METAR VABB 010730Z 27012KT 4000 FU FEW020 30/17 Q1010 NOSIG=
202603010800 METAR VABB 010800Z 27013KT 4000 FU NSC 30/18 Q1010 NOSIG=
202603010830 METAR VABB 010830Z 28012KT 4000 FU NSC 30/17 Q1009 BECMG 5000 FU=
202603010900 METAR VABB 010900Z 27014KT 5000 FU NSC 30/18 Q1009 NOSIG=
202603010930 METAR VABB 010930Z 27015KT 5000 FU NSC 30/18 Q1009 NOSIG=
202603011000 METAR VABB 011000Z 28013KT 5000 FU NSC 30/19 Q1009 NOSIG=
202603011030 METAR VABB 011030Z 28013KT 5000 FU NSC 29/19 Q1008 NOSIG=
202603011100 METAR VABB 011100Z 30011KT 5000 FU NSC 30/17 Q1008 NOSIG=
202603011130 METAR VABB 011130Z 32010KT 5000 FU NSC 29/18 Q1008 NOSIG=
202603011200 METAR VABB 011200Z 30012KT 5000 FU NSC 28/19 Q1009 NOSIG=
202603011230 METAR VABB 011230Z 31009KT 4500 FU NSC 28/20 Q1009 NOSIG=
202603011300 METAR VABB 011300Z 31011KT 4000 FU NSC 27/19 Q1009 NOSIG=
202603011330 METAR VABB 011330Z 32009KT 4000 FU NSC 26/20 Q1009 NOSIG=
202603011400 METAR VABB 011400Z 32010KT 3500 FU NSC 26/20 Q1010 NOSIG=
202603011430 METAR VABB 011430Z 32008KT 3500 HZ NSC 26/20 Q1010 NOSIG=
202603011500 METAR VABB 011500Z 32006KT 3500 HZ NSC 26/20 Q1011 NOSIG=
202603011530 METAR VABB 011530Z 32006KT 3500 HZ NSC 26/20 Q1011 BECMG 3000 HZ=
202603011600 METAR VABB 011600Z 32007KT 3000 HZ NSC 26/20 Q1011 NOSIG=
202603011630 METAR VABB 011630Z 33005KT 3000 HZ NSC 26/20 Q1012 NOSIG=
202603011700 METAR VABB 011700Z 32005KT 3000 HZ NSC 26/20 Q1012 NOSIG=
202603011730 METAR VABB 011730Z 32005KT 3000 HZ NSC 26/20 Q1012 NOSIG=
202603011800 METAR VABB 011800Z 32005KT 3000 HZ NSC 26/20 Q1012 NOSIG=
202603011830 METAR VABB 011830Z 32005KT 3000 HZ NSC 25/19 Q1012 NOSIG=
202603011900 METAR VABB 011900Z 32004KT 3000 HZ NSC 25/20 Q1012 NOSIG=
202603011930 METAR VABB 011930Z 00000KT 3000 HZ NSC 25/19 Q1012 NOSIG=
202603012000 METAR VABB 012000Z 00000KT 3000 HZ FEW020 25/19 Q1011 NOSIG=
202603012030 METAR VABB 012030Z 04003KT 3000 HZ FEW020 25/20 Q1011 NOSIG=
202603012100 METAR VABB 012100Z 36003KT 3000 HZ FEW020 25/20 Q1011 NOSIG=
202603012130 METAR VABB 012130Z 36003KT 3000 HZ FEW020 25/20 Q1011 NOSIG=
202603012200 METAR VABB 012200Z 01003KT 3000 HZ FEW020 24/20 Q1010 NOSIG=
202603012230 METAR VABB 012230Z 00000KT 3000 HZ FEW020 24/20 Q1010 NOSIG=
202603012300 METAR VABB 012300Z 01003KT 3000 HZ FEW020 24/19 Q1010 NOSIG=
202603012330 METAR VABB 012330Z 02003KT 3000 HZ FEW020 24/19 Q1011 NOSIG=
202603020000 METAR VABB 020000Z 04003KT 3000 HZ NSC 24/19 Q1011 NOSIG=
202603020030 METAR VABB 020030Z 04003KT 3000 HZ NSC 24/20 Q1011 NOSIG=
202603020100 METAR VABB 020100Z 07003KT 2500 HZ FEW100 24/20 Q1011 NOSIG=
202603020130 METAR VABB 020130Z 00000KT 2500 HZ FEW100 24/19 Q1012 NOSIG=
202603020200 METAR VABB 020200Z 00000KT 2500 HZ FEW100 24/19 Q1012 NOSIG=
202603020230 METAR VABB 020230Z 10003KT 2500 HZ NSC 25/20 Q1013 NOSIG=
202603020300 METAR VABB 020300Z 03005KT 2500 HZ NSC 26/20 Q1013 NOSIG=
202603020330 METAR VABB 020330Z 36005KT 2500 HZ NSC 26/20 Q1014 NOSIG=
202603020400 METAR VABB 020400Z 36004KT 3000 HZ NSC 27/19 Q1014 NOSIG=
202603020430 METAR VABB 020430Z 01003KT 3000 FU NSC 28/19 Q1014 NOSIG=
202603020500 METAR VABB 020500Z 36004KT 3000 FU NSC 28/19 Q1014 NOSIG=
202603020530 METAR VABB 020530Z 27005KT 3000 FU NSC 29/19 Q1014 NOSIG=
202603020600 METAR VABB 020600Z 26009KT 3500 FU NSC 30/21 Q1013 NOSIG=
202603020630 METAR VABB 020630Z 27010KT 3500 FU NSC 29/21 Q1013 NOSIG=
202603020700 METAR VABB 020700Z 27009KT 3500 FU NSC 29/21 Q1012 NOSIG=
202603020730 METAR VABB 020730Z 28012KT 3500 FU NSC 29/21 Q1012 NOSIG=
202603020800 METAR VABB 020800Z 27013KT 4000 FU NSC 30/20 Q1012 NOSIG=
202603020830 METAR VABB 020830Z 28011KT 4000 FU NSC 30/20 Q1011 NOSIG=
202603020900 METAR VABB 020900Z 27011KT 4000 FU NSC 30/19 Q1011 NOSIG=
202603010000 METAR VABB NIL=
202603020930 METAR VABB 020930Z 29011KT 4000 FU NSC 30/19 Q1010 NOSIG=
202603021000 METAR VABB 021000Z 29012KT 4000 FU NSC 30/19 Q1010 BECMG 5000 FU=
202603010000 METAR VABB NIL=
202603021030 METAR VABB 021030Z 29012KT 5000 FU NSC 30/18 Q1010 NOSIG=
202603021100 METAR VABB 021100Z 30013G23KT 5000 FU NSC 30/18 Q1010 NOSIG=
202603010000 METAR VABB NIL=
202603021130 METAR VABB 021130Z 31010G20KT 5000 FU NSC 29/18 Q1010 NOSIG=
202603021200 METAR VABB 021200Z 32011KT 5000 FU NSC 29/18 Q1010 NOSIG=
202603021230 METAR VABB 021230Z 31012KT 4000 FU NSC 29/18 Q1010 NOSIG=
202603021300 METAR VABB 021300Z 31012KT 4000 FU NSC 28/19 Q1010 NOSIG=
202603021330 METAR VABB 021330Z 32009KT 4000 FU NSC 28/18 Q1011 NOSIG=
202603021400 METAR VABB 021400Z 32007KT 4000 FU NSC 28/18 Q1011 NOSIG=
202603021430 METAR VABB 021430Z 35005KT 4000 FU NSC 27/18 Q1011 NOSIG=
202603021500 METAR VABB 021500Z 34005KT 4000 FU NSC 27/18 Q1012 NOSIG=
202603021530 METAR VABB 021530Z 36005KT 3500 FU NSC 27/18 Q1012 NOSIG=
202603021600 METAR VABB 021600Z 01003KT 3500 FU NSC 27/18 Q1013 NOSIG=
202603021630 METAR VABB 021630Z 35004KT 3500 FU NSC 27/18 Q1013 BECMG 3000 FU=
202603021700 METAR VABB 021700Z 05003KT 3000 FU NSC 27/18 Q1013 NOSIG=
202603021730 METAR VABB 021730Z 00000KT 2500 FU NSC 27/18 Q1013 NOSIG=
202603021800 METAR VABB 021800Z 00000KT 2200 FU NSC 27/18 Q1013 NOSIG=
202603021830 METAR VABB 021830Z 00000KT 2200 FU NSC 27/18 Q1013 NOSIG=
202603021900 METAR VABB 021900Z 00000KT 2100 FU NSC 26/18 Q1013 NOSIG=
202603021930 METAR VABB 021930Z 00000KT 2100 FU NSC 26/18 Q1012 NOSIG=
202603022000 METAR VABB 022000Z 00000KT 1800 FU NSC 26/18 Q1012 TEMPO 1500 FU=
202603022030 METAR VABB 022030Z 00000KT 1800 FU NSC 26/18 Q1012 NOSIG=
202603022100 METAR VABB 022100Z 28003KT 1600 FU NSC 26/18 Q1011 NOSIG=
202603022130 METAR VABB 022130Z 00000KT 1600 FU NSC 26/19 Q1011 NOSIG=
202603022200 METAR VABB 022200Z 31004KT 1600 FU NSC 26/19 Q1011 NOSIG=
202603022230 METAR VABB 022230Z 35005KT 1800 FU NSC 26/18 Q1011 NOSIG=
202603022300 METAR VABB 022300Z 34004KT 1800 HZ NSC 26/19 Q1011 NOSIG=
202603022330 METAR VABB 022330Z 01005KT 1800 HZ NSC 25/20 Q1011 NOSIG=
202603030000 METAR VABB 030000Z 01005KT 1800 HZ NSC 25/19 Q1011 NOSIG=
202603030030 METAR VABB 030030Z 01004KT 1800 HZ NSC 25/19 Q1011 NOSIG=
202603030100 METAR VABB 030100Z 36004KT 1800 HZ NSC 25/19 Q1011 NOSIG=
202603030130 METAR VABB 030130Z 00000KT 1800 HZ NSC 25/19 Q1012 NOSIG=
202603030200 METAR VABB 030200Z 00000KT 1800 HZ NSC 25/19 Q1012 NOSIG=
202603030230 METAR VABB 030230Z 00000KT 1800 HZ NSC 26/19 Q1013 NOSIG=
202603030300 METAR VABB 030300Z 24003KT 1800 HZ NSC 26/19 Q1013 BECMG 2500 FU=
202603030330 METAR VABB 030330Z 19002KT 1800 HZ NSC 28/19 Q1013 BECMG 2500 FU=
202603030400 METAR VABB 030400Z 00000KT 2000 HZ NSC 29/19 Q1013 NOSIG=
202603030430 METAR VABB 030430Z 33002KT 2000 FU NSC 30/18 Q1014 NOSIG=
202603030500 METAR VABB 030500Z 05005KT 2000 FU NSC 32/16 Q1014 NOSIG=
202603030530 METAR VABB 030530Z 35005KT 2500 FU NSC 33/16 Q1013 NOSIG=
202603030600 METAR VABB 030600Z 29006KT 2500 FU NSC 33/19 Q1013 NOSIG=
202603030630 METAR VABB 030630Z 27008KT 2500 FU NSC 33/21 Q1013 NOSIG=
202603030700 METAR VABB 030700Z 26010KT 2500 FU NSC 33/22 Q1012 NOSIG=
202603030730 METAR VABB 030730Z 25013KT 2500 FU NSC 32/22 Q1012 NOSIG=
202603030800 METAR VABB 030800Z 29010KT 2800 FU NSC 33/22 Q1011 BECMG 3000 FU=
202603030830 METAR VABB 030830Z 30010KT 3000 FU NSC 33/21 Q1011 NOSIG=
202603030900 METAR VABB 030900Z 29012KT 3000 FU NSC 32/21 Q1010 NOSIG=
202603030930 METAR VABB 030930Z 31012KT 3000 FU NSC 32/21 Q1010 NOSIG=
202603031000 METAR VABB 031000Z 31013KT 3000 FU NSC 32/21 Q1009 NOSIG=
202603031030 METAR VABB 031030Z 31013KT 3000 FU NSC 32/20 Q1009 NOSIG=
202603031100 METAR VABB 031100Z 31011KT 3000 FU NSC 32/20 Q1009 NOSIG=
202603031130 METAR VABB 031130Z 32010KT 3000 FU NSC 31/21 Q1009 NOSIG=
202603031200 METAR VABB 031200Z 32011KT 3000 FU NSC 31/20 Q1009 NOSIG=
202603031230 METAR VABB 031230Z 32009KT 3000 FU NSC 30/20 Q1009 NOSIG=
202603031300 METAR VABB 031300Z 33009KT 3000 FU NSC 30/19 Q1010 NOSIG=
202603031330 METAR VABB 031330Z 32008KT 2500 FU NSC 29/20 Q1010 NOSIG=
202603031400 METAR VABB 031400Z 35006KT 2500 FU NSC 29/20 Q1011 NOSIG=
202603031430 METAR VABB 031430Z 35007KT 2500 FU NSC 29/20 Q1011 NOSIG=
202603031500 METAR VABB 031500Z 36005KT 2500 FU NSC 29/20 Q1012 NOSIG=
202603031530 METAR VABB 031530Z 35005KT 2500 FU NSC 29/20 Q1012 NOSIG=
202603031600 METAR VABB 031600Z 01003KT 2500 FU NSC 29/20 Q1012 NOSIG=
202603031630 METAR VABB 031630Z 00000KT 2500 FU NSC 29/20 Q1013 NOSIG=
202603031700 METAR VABB 031700Z 00000KT 2500 FU NSC 29/19 Q1013 NOSIG=
202603031730 METAR VABB 031730Z 00000KT 2500 FU NSC 29/19 Q1013 NOSIG=
202603031800 METAR VABB 031800Z 00000KT 2500 FU NSC 28/20 Q1012 NOSIG=
202603031830 METAR VABB 031830Z 00000KT 2500 FU NSC 29/20 Q1012 NOSIG=
202603031900 METAR VABB 031900Z 00000KT 2500 HZ NSC 28/20 Q1012 NOSIG=
202603031930 METAR VABB 031930Z 27005KT 2500 HZ NSC 28/20 Q1012 NOSIG=
202603032000 METAR VABB 032000Z 27004KT 2500 HZ NSC 27/20 Q1012 NOSIG=
202603032030 METAR VABB 032030Z 27003KT 2100 HZ NSC 27/20 Q1011 NOSIG=
202603032100 METAR VABB 032100Z 25003KT 2100 HZ NSC 27/22 Q1011 NOSIG=
202603032130 METAR VABB 032130Z 30003KT 2100 HZ NSC 27/22 Q1011 NOSIG=
202603032200 METAR VABB 032200Z 00000KT 2200 HZ NSC 27/22 Q1011 NOSIG=
202603032230 METAR VABB 032230Z 00000KT 2200 HZ NSC 26/23 Q1011 NOSIG=
202603032300 METAR VABB 032300Z 00000KT 2200 HZ NSC 27/21 Q1011 NOSIG=
202603032330 METAR VABB 032330Z 25004KT 2200 HZ NSC 26/21 Q1011 NOSIG=
202603040000 METAR VABB 040000Z 00000KT 2200 HZ NSC 26/20 Q1011 NOSIG=
202603040030 METAR VABB 040030Z 00000KT 2200 HZ NSC 26/20 Q1011 NOSIG=
202603040100 METAR VABB 040100Z 25004KT 2200 HZ NSC 27/20 Q1011 NOSIG=
202603040130 METAR VABB 040130Z 21003KT 2500 HZ NSC 27/20 Q1012 NOSIG=
202603040200 METAR VABB 040200Z 28003KT 2500 HZ NSC 26/20 Q1012 NOSIG=
202603040230 METAR VABB 040230Z 24005KT 1800 HZ NSC 28/21 Q1013 NOSIG=
202603040300 METAR VABB 040300Z 23003KT 1800 HZ NSC 28/21 Q1013 NOSIG=
202603040330 METAR VABB 040330Z 00000KT 1800 FU NSC 30/18 Q1014 NOSIG=
202603040400 METAR VABB 040400Z 15005KT 1800 FU NSC 32/17 Q1014 NOSIG=
202603040430 METAR VABB 040430Z 08007KT 2500 FU NSC 34/12 Q1014 NOSIG=
202603040500 METAR VABB 040500Z 07009KT 2500 FU NSC 35/12 Q1014 BECMG 3000 FU=
202603040530 METAR VABB 040530Z 06010KT 3000 FU NSC 36/12 Q1014 NOSIG=
202603040600 METAR VABB 040600Z 05008KT 3000 FU NSC 37/13 Q1013 NOSIG=
202603040630 METAR VABB 040630Z 04010KT 3500 FU NSC 37/12 Q1013 NOSIG=
202603040700 METAR VABB 040700Z 06009KT 3500 FU NSC 38/12 Q1012 NOSIG=
202603040730 METAR VABB 040730Z 02008KT 3500 FU NSC 38/11 Q1012 NOSIG=
202603040800 METAR VABB 040800Z 36008KT 3500 FU NSC 38/09 Q1011 NOSIG=
202603040830 METAR VABB 040830Z 28007KT 4000 FU NSC 38/15 Q1011 NOSIG=
202603040900 METAR VABB 040900Z 30010KT 4500 FU NSC 38/14 Q1010 NOSIG=
202603040930 METAR VABB 040930Z 30012KT 4500 FU NSC 38/13 Q1010 NOSIG=
202603041000 METAR VABB 041000Z 29012KT 4500 FU NSC 37/14 Q1009 NOSIG=
202603041030 METAR VABB 041030Z 32013KT 4500 FU NSC 36/14 Q1009 NOSIG=
202603041100 METAR VABB 041100Z 34011KT 4500 FU NSC 36/14 Q1009 NOSIG=
202603041130 METAR VABB 041130Z 33010KT 4500 FU NSC 36/14 Q1009 NOSIG=
202603041200 METAR VABB 041200Z 34010KT 4500 FU NSC 36/12 Q1009 NOSIG=
202603041230 METAR VABB 041230Z 34010KT 4500 FU NSC 35/12 Q1009 NOSIG=
202603041300 METAR VABB 041300Z 34012KT 4000 FU NSC 35/12 Q1010 NOSIG=
202603041330 METAR VABB 041330Z 35010KT 4000 FU NSC 34/11 Q1010 NOSIG=
202603041400 METAR VABB 041400Z 35011KT 4000 FU NSC 34/11 Q1011 NOSIG=
202603041430 METAR VABB 041430Z 35010KT 4000 FU NSC 34/11 Q1011 NOSIG=
202603041500 METAR VABB 041500Z 01009KT 4000 FU NSC 33/11 Q1011 NOSIG=
202603041530 METAR VABB 041530Z 01007KT 4000 FU NSC 33/11 Q1012 NOSIG=
202603041600 METAR VABB 041600Z 05004KT 4000 FU NSC 33/12 Q1012 NOSIG=
202603041630 METAR VABB 041630Z 02007KT 4000 FU NSC 33/11 Q1012 NOSIG=
202603041700 METAR VABB 041700Z 04005KT 4000 FU NSC 32/11 Q1012 NOSIG=
202603041730 METAR VABB 041730Z 01005KT 4500 FU NSC 33/10 Q1012 NOSIG=
202603041800 METAR VABB 041800Z 02006KT 4500 FU NSC 32/10 Q1012 NOSIG=
202603041830 METAR VABB 041830Z 01007KT 4500 FU NSC 32/11 Q1012 NOSIG=
202603041900 METAR VABB 041900Z 04003KT 4500 FU NSC 31/12 Q1012 NOSIG=
202603041930 METAR VABB 041930Z 05003KT 4500 FU NSC 30/13 Q1012 NOSIG=
202603042000 METAR VABB 042000Z 00000KT 4500 FU NSC 30/12 Q1011 NOSIG=
202603042030 METAR VABB 042030Z 00000KT 4500 FU NSC 29/12 Q1011 NOSIG=
202603042100 METAR VABB 042100Z 26002KT 4000 FU NSC 30/12 Q1011 NOSIG=
202603042130 METAR VABB 042130Z 22003KT 4000 FU NSC 29/12 Q1011 NOSIG=
202603042200 METAR VABB 042200Z 27003KT 4000 FU NSC 29/12 Q1010 NOSIG=
202603042230 METAR VABB 042230Z 00000KT 4000 FU NSC 27/13 Q1010 NOSIG=
202603042300 METAR VABB 042300Z 26004KT 4000 FU NSC 29/13 Q1010 NOSIG=
202603042330 METAR VABB 042330Z 00000KT 4000 FU NSC 28/13 Q1010 NOSIG=
202603050000 METAR VABB 050000Z 27005KT 4000 FU NSC 27/14 Q1011 NOSIG=
202603050030 METAR VABB 050030Z 00000KT 4000 FU NSC 28/13 Q1011 NOSIG=
202603050100 METAR VABB 050100Z 32005KT 4000 FU NSC 28/14 Q1011 NOSIG=
202603050130 METAR VABB 050130Z 32004KT 4000 FU NSC 28/14 Q1012 NOSIG=
202603050200 METAR VABB 050200Z 36005KT 4000 FU NSC 28/14 Q1012 NOSIG=
202603050230 METAR VABB 050230Z 34004KT 4000 FU NSC 29/13 Q1013 NOSIG=
202603050300 METAR VABB 050300Z 07003KT 3500 FU NSC 30/13 Q1013 NOSIG=
202603050330 METAR VABB 050330Z 09005KT 3500 FU NSC 32/12 Q1013 NOSIG=
202603050400 METAR VABB 050400Z 05007KT 4000 FU NSC 33/12 Q1013 NOSIG=
202603050430 METAR VABB 050430Z 04007KT 4500 FU NSC 34/12 Q1014 NOSIG=
202603050500 METAR VABB 050500Z 03010KT 4500 FU NSC 35/12 Q1013 NOSIG=
202603050530 METAR VABB 050530Z 06009KT 4500 FU NSC 35/11 Q1013 NOSIG=
202603050600 METAR VABB 050600Z 04010KT 4500 FU NSC 37/12 Q1013 NOSIG=
202603050630 METAR VABB 050630Z 06009KT 4500 FU NSC 37/09 Q1013 NOSIG=
202603050700 METAR VABB 050700Z 07009KT 4500 FU NSC 37/09 Q1012 NOSIG=
202603050730 METAR VABB 050730Z 08010KT 4500 FU NSC 38/06 Q1011 NOSIG=
202603050800 METAR VABB 050800Z 08009KT 4500 FU NSC 38/08 Q1011 NOSIG=
202603050830 METAR VABB 050830Z 32009KT 4500 FU NSC 36/17 Q1010 NOSIG=
202603050900 METAR VABB 050900Z 32014KT 4500 FU NSC 38/13 Q1009 NOSIG=
202603050930 METAR VABB 050930Z 32013KT 4500 FU NSC 38/15 Q1009 BECMG 5000 FU=
202603051000 METAR COR VABB 051000Z 33014KT 5000 FU NSC 37/14 Q1009 NOSIG=
202603051030 METAR VABB 051030Z 32015KT 5000 FU NSC 36/14 Q1009 NOSIG=
202603051100 METAR VABB 051100Z 32014KT 4500 FU NSC 36/14 Q1009 NOSIG=
202603051130 METAR VABB 051130Z 33012KT 4500 FU NSC 35/14 Q1009 NOSIG=
202603051200 METAR VABB 051200Z 33013KT 4500 FU NSC 34/13 Q1009 NOSIG=
202603051230 METAR VABB 051230Z 33011KT 4500 FU NSC 34/14 Q1009 NOSIG=
202603051300 METAR VABB 051300Z 34011KT 4000 FU NSC 34/14 Q1009 BECMG 3000 FU=
202603051330 METAR VABB 051330Z 34010KT 3000 FU NSC 33/14 Q1009 NOSIG=
202603051400 METAR VABB 051400Z 35009KT 3000 FU NSC 33/15 Q1009 NOSIG=
202603051430 METAR VABB 051430Z 36010KT 3000 FU NSC 33/14 Q1010 NOSIG=
202603051500 METAR VABB 051500Z 35008KT 3000 FU NSC 32/14 Q1010 NOSIG=
202603051530 METAR VABB 051530Z 36005KT 3000 FU NSC 32/14 Q1011 NOSIG=
202603051600 METAR VABB 051600Z 05004KT 3000 FU NSC 32/14 Q1011 NOSIG=
202603051630 METAR VABB 051630Z 02007KT 3000 FU NSC 32/13 Q1011 NOSIG=
202603051700 METAR VABB 051700Z 02008KT 3000 FU NSC 32/13 Q1011 NOSIG=
202603051730 METAR VABB 051730Z 03005KT 3000 FU NSC 32/13 Q1011 NOSIG=
202603051800 METAR VABB 051800Z 06006KT 3000 FU NSC 32/12 Q1011 NOSIG=
202603051830 METAR VABB 051830Z 09004KT 3000 FU NSC 32/11 Q1011 NOSIG=
202603051900 METAR VABB 051900Z 16004KT 3000 FU NSC 31/12 Q1011 NOSIG=
202603051930 METAR VABB 051930Z 17004KT 3000 FU NSC 31/11 Q1011 NOSIG=
202603052000 METAR VABB 052000Z 00000KT 3000 FU NSC 30/13 Q1010 NOSIG=
202603052030 METAR VABB 052030Z 24005KT 3000 FU NSC 29/15 Q1010 NOSIG=
202603052100 METAR VABB 052100Z 27005KT 3000 FU NSC 29/17 Q1010 NOSIG=
202603052130 METAR VABB 052130Z 34006KT 3000 FU NSC 29/17 Q1010 NOSIG=
202603052200 METAR VABB 052200Z 34007KT 3000 FU NSC 28/18 Q1009 NOSIG=
202603052230 METAR VABB 052230Z 35005KT 3000 FU NSC 28/18 Q1009 NOSIG=
202603052300 METAR VABB 052300Z 35007KT 3000 FU NSC 28/17 Q1009 NOSIG=
202603052330 METAR VABB 052330Z 35005KT 3000 FU NSC 28/15 Q1009 NOSIG=
202603060000 METAR VABB 060000Z 36005KT 3000 FU NSC 28/15 Q1010 NOSIG=
202603060030 METAR VABB 060030Z 02003KT 3000 FU NSC 28/14 Q1010 NOSIG=
202603060100 METAR VABB 060100Z 00000KT 3000 FU NSC 27/14 Q1010 NOSIG=
202603060130 METAR VABB 060130Z 02004KT 3000 FU NSC 28/14 Q1011 NOSIG=
202603060200 METAR VABB 060200Z 00000KT 3000 FU NSC 26/16 Q1011 NOSIG=
202603010000 METAR VABB NIL=
202603060230 METAR VABB 060230Z 36005KT 3000 FU NSC 28/14 Q1012 NOSIG=
202603060300 METAR VABB 060300Z 01005KT 3000 FU NSC 28/14 Q1012 NOSIG=
202603060330 METAR VABB 060330Z 35003KT 3000 FU NSC 29/14 Q1012 NOSIG=
202603060400 METAR VABB 060400Z 00000KT 3000 FU NSC 30/14 Q1013 NOSIG=
202603060430 METAR VABB 060430Z 02003KT 3000 FU NSC 32/14 Q1013 NOSIG=
202603060500 METAR VABB 060500Z 35008KT 3000 FU NSC 32/13 Q1013 NOSIG=
202603060530 METAR VABB 060530Z 01005KT 3000 FU NSC 34/16 Q1013 NOSIG=
202603060600 METAR VABB 060600Z 26008KT 3000 FU NSC 34/17 Q1012 NOSIG=
202603060630 METAR VABB 060630Z 26009KT 3000 FU NSC 34/18 Q1012 NOSIG=
202603060700 METAR VABB 060700Z 30008KT 3500 FU NSC 34/18 Q1011 NOSIG=
202603060730 METAR VABB 060730Z 28007KT 3500 FU NSC 34/17 Q1011 NOSIG=
202603060800 METAR VABB 060800Z 33011KT 3500 FU NSC 34/18 Q1010 NOSIG=
202603060830 METAR VABB 060830Z 30012KT 4000 FU NSC 34/17 Q1010 NOSIG=
202603060900 METAR VABB 060900Z 31014KT 4000 FU NSC 34/15 Q1009 NOSIG=
202603060930 METAR VABB 060930Z 30011KT 4000 FU NSC 34/18 Q1009 NOSIG=
202603061000 METAR VABB 061000Z 31012KT 4000 FU NSC 34/18 Q1008 NOSIG=
202603061030 METAR VABB 061030Z 33015KT 4000 FU NSC 32/17 Q1008 NOSIG=
202603061100 METAR VABB 061100Z 32013G23KT 4000 FU NSC 32/16 Q1008 NOSIG=
202603061130 METAR VABB 061130Z 33013G23KT 4000 FU NSC 32/16 Q1008 NOSIG=
202603061200 METAR VABB 061200Z 32015KT 4000 FU NSC 32/15 Q1008 NOSIG=
202603061230 METAR VABB 061230Z 33012KT 4000 FU NSC 31/15 Q1008 NOSIG=
202603061300 METAR VABB 061300Z 33012KT 4000 FU NSC 31/15 Q1009 BECMG 3500 FU=
202603061330 METAR VABB 061330Z 34008KT 3500 FU NSC 30/15 Q1009 NOSIG=
202603061400 METAR VABB 061400Z 34007KT 3500 FU NSC 30/15 Q1009 NOSIG=
202603061430 METAR VABB 061430Z 34008KT 3500 FU NSC 30/15 Q1010 NOSIG=
202603061500 METAR VABB 061500Z 36006KT 3500 FU NSC 30/15 Q1010 NOSIG=
202603061530 METAR VABB 061530Z 00000KT 3500 FU NSC 30/16 Q1011 NOSIG=
202603061600 METAR VABB 061600Z 35004KT 3500 FU NSC 29/16 Q1011 NOSIG=
202603061630 METAR VABB 061630Z 01003KT 3500 FU NSC 29/15 Q1011 NOSIG=
202603061700 METAR VABB 061700Z 33004KT 3500 FU NSC 29/15 Q1011 NOSIG=
202603061730 METAR VABB 061730Z 32003KT 3500 FU NSC 29/15 Q1011 NOSIG=
202603061800 METAR VABB 061800Z 33002KT 3500 FU NSC 29/15 Q1011 NOSIG=
202603061830 METAR VABB 061830Z 23003KT 3500 HZ NSC 28/19 Q1011 NOSIG=
202603061900 METAR VABB 061900Z 24005KT 3500 HZ NSC 28/20 Q1011 NOSIG=
202603061930 METAR VABB 061930Z 29004KT 3500 HZ NSC 27/20 Q1011 NOSIG=
202603062000 METAR VABB 062000Z NIL=
202603010000 METAR VABB NIL=
202603062030 METAR VABB 062030Z 32004KT 3000 HZ NSC 27/21 Q1010 NOSIG=
202603062100 METAR VABB 062100Z 33005KT 3000 HZ NSC 27/22 Q1010 NOSIG=
202603010000 METAR VABB NIL=
202603062130 METAR VABB 062130Z 33005KT 3000 HZ NSC 27/22 Q1009 NOSIG=
202603062200 METAR VABB 062200Z 33005KT 3000 HZ NSC 26/22 Q1009 NOSIG=
202603010000 METAR VABB NIL=
202603062230 METAR VABB 062230Z 01005KT 3000 HZ NSC 26/22 Q1009 NOSIG=
202603062300 METAR VABB 062300Z 35007KT 3000 HZ NSC 26/22 Q1009 NOSIG=
202603062330 METAR VABB 062330Z 35006KT 3000 HZ NSC 26/22 Q1010 NOSIG=
202603070000 METAR VABB 070000Z 01004KT 3000 HZ NSC 25/22 Q1010 NOSIG=
202603070030 METAR VABB 070030Z 00000KT 3000 HZ NSC 25/22 Q1010 NOSIG=
202603070100 METAR VABB 070100Z 01004KT 3000 HZ NSC 25/22 Q1011 NOSIG=
202603010000 METAR VABB NIL=
202603070130 METAR VABB 070130Z 01005KT 3000 HZ NSC 26/22 Q1011 NOSIG=
202603070200 METAR VABB 070200Z 36005KT 3000 HZ NSC 25/22 Q1011 NOSIG=
202603010000 METAR VABB NIL=
202603070230 METAR VABB 070230Z 01004KT 2500 BR NSC 26/22 Q1012 NOSIG=
202603070300 METAR VABB 070300Z 02005KT 2500 HZ NSC 27/21 Q1012 NOSIG=
202603010000 METAR VABB NIL=
202603070330 METAR VABB 070330Z 36005KT 3000 HZ NSC 28/20 Q1012 NOSIG=
202603070400 METAR VABB 070400Z 36003KT 3500 FU NSC 29/19 Q1013 NOSIG=
202603070430 METAR VABB 070430Z 01004KT 3500 FU NSC 30/19 Q1013 NOSIG=
202603070500 METAR VABB 070500Z 31003KT 3500 FU NSC 32/18 Q1013 NOSIG=
202603070530 METAR VABB 070530Z 32005KT 3500 FU NSC 33/16 Q1013 NOSIG=
202603070600 METAR VABB 070600Z 26010KT 3500 FU NSC 32/22 Q1012 NOSIG=
202603070630 METAR VABB 070630Z 26011KT 3500 FU NSC 32/23 Q1012 NOSIG=
202603070700 METAR VABB 070700Z 26012KT 3500 FU NSC 32/23 Q1011 NOSIG=
202603070730 METAR VABB 070730Z 26012KT 3500 FU NSC 32/23 Q1011 NOSIG=
202603070800 METAR VABB 070800Z 27013KT 3500 FU NSC 32/23 Q1010 NOSIG=
202603070830 METAR VABB 070830Z 28011KT 3500 FU NSC 32/22 Q1010 NOSIG=
202603070900 METAR VABB 070900Z 30011KT 4000 FU NSC 33/19 Q1009 NOSIG=
202603070930 METAR VABB 070930Z 32013KT 4000 FU NSC 33/18 Q1009 NOSIG=
202603071000 METAR VABB 071000Z 32011KT 4000 FU NSC 33/19 Q1008 NOSIG=
202603071030 METAR VABB 071030Z 30011KT 4000 FU NSC 32/19 Q1008 NOSIG=
202603071100 METAR VABB 071100Z 31011KT 4000 FU NSC 32/20 Q1008 NOSIG=
202603071130 METAR VABB 071130Z 31012KT 4000 FU NSC 31/19 Q1008 NOSIG=
202603071200 METAR VABB 071200Z 31015KT 4000 FU NSC 31/18 Q1008 NOSIG=
202603071230 METAR VABB 071230Z 31011KT 4000 FU NSC 30/18 Q1009 NOSIG=
202603071300 METAR VABB 071300Z 31010KT 4000 FU NSC 30/19 Q1009 NOSIG=
202603071330 METAR VABB 071330Z 31007KT 4000 FU NSC 29/20 Q1009 NOSIG=
202603071400 METAR VABB 071400Z 33006KT 4000 FU NSC 29/20 Q1010 NOSIG=
202603071430 METAR VABB 071430Z 34006KT 4000 FU NSC 29/20 Q1010 BECMG 3000 FU=
202603071500 METAR VABB 071500Z 36006KT 3000 FU NSC 29/20 Q1011 BECMG 3000 FU=
202603071530 METAR VABB 071530Z 36004KT 3000 FU NSC 29/20 Q1011 NOSIG=
202603071600 METAR VABB 071600Z 00000KT 3000 FU NSC 28/20 Q1011 NOSIG=
202603071630 METAR VABB 071630Z 25004KT 3000 FU NSC 28/20 Q1012 NOSIG=
202603071700 METAR VABB 071700Z 26004KT 3000 FU NSC 28/21 Q1012 NOSIG=
202603071730 METAR VABB 071730Z 22004KT 3000 HZ NSC 28/21 Q1012 NOSIG=
202603071800 METAR VABB 071800Z 23004KT 3000 HZ NSC 28/20 Q1012 NOSIG=
202603071830 METAR VABB 071830Z 24005KT 3000 HZ NSC 28/20 Q1012 NOSIG=
202603071900 METAR VABB 071900Z 23005KT 3000 HZ NSC 28/20 Q1011 NOSIG=
202603071930 METAR VABB 071930Z 25005KT 3000 HZ NSC 27/19 Q1011 NOSIG=
202603072000 METAR VABB 072000Z 28006KT 3000 HZ NSC 27/18 Q1011 NOSIG=
202603072030 METAR VABB 072030Z 31005KT 2500 HZ NSC 27/21 Q1011 NOSIG=
202603072100 METAR VABB 072100Z 31005KT 2500 HZ NSC 27/22 Q1010 NOSIG=
202603072130 METAR VABB 072130Z 33003KT 2500 BR NSC 27/23 Q1010 NOSIG=
202603072200 METAR VABB 072200Z 33004KT 2500 BR NSC 27/23 Q1010 NOSIG=
202603072230 METAR VABB 072230Z 33005KT 2500 BR NSC 27/22 Q1010 NOSIG=
202603072300 METAR VABB 072300Z 35003KT 2500 BR NSC 26/21 Q1010 NOSIG=
202603072330 METAR VABB 072330Z 33005KT 2500 BR NSC 26/22 Q1010 NOSIG=
202603080000 METAR VABB 080000Z 33004KT 2500 BR NSC 27/21 Q1010 NOSIG=
202603080030 METAR VABB 080030Z 36004KT 2500 BR NSC 26/21 Q1010 NOSIG=
202603080100 METAR VABB 080100Z 36003KT 2500 BR NSC 26/21 Q1010 NOSIG=
202603080130 METAR VABB 080130Z 01004KT 2100 BR FEW100 26/20 Q1011 NOSIG=
202603080200 METAR VABB 080200Z 03004KT 1800 HZ FEW100 26/19 Q1011 NOSIG=
202603080230 METAR VABB 080230Z 00000KT 1600 HZ FEW100 27/19 Q1011 NOSIG=
202603080300 METAR VABB 080300Z 00000KT 1600 HZ FEW100 28/19 Q1012 NOSIG=
202603080330 METAR VABB 080330Z 13003KT 1600 HZ FEW100 29/18 Q1012 NOSIG=
202603080400 METAR VABB 080400Z 16004KT 1800 FU FEW100 30/18 Q1012 NOSIG=
202603080430 METAR VABB 080430Z 12003KT 1800 FU FEW100 32/17 Q1012 NOSIG=
202603080500 METAR VABB 080500Z 07006KT 2100 FU FEW100 33/15 Q1012 NOSIG=
202603080530 METAR VABB 080530Z 07004KT 2100 FU NSC 35/15 Q1012 NOSIG=
202603080600 METAR VABB 080600Z 33004KT 2100 FU NSC 35/19 Q1012 NOSIG=
202603080630 METAR VABB 080630Z 28008KT 2500 FU NSC 35/21 Q1011 NOSIG=
202603080700 METAR VABB 080700Z 27010KT 2500 FU NSC 34/21 Q1011 NOSIG=
202603080730 METAR COR VABB 080730Z 27009KT 2500 FU NSC 35/20 Q1010 NOSIG=
202603080800 METAR VABB 080800Z 27009KT 3000 FU NSC 35/21 Q1010 NOSIG=
202603080830 METAR VABB 080830Z 26011KT 3000 FU NSC 36/22 Q1009 NOSIG=
202603080900 METAR VABB 080900Z 29010KT 3000 FU NSC 36/20 Q1008 NOSIG=
202603080930 METAR VABB 080930Z 29012KT 3000 FU NSC 36/19 Q1008 NOSIG=
202603081000 METAR VABB 081000Z 33011KT 3000 FU NSC 36/18 Q1007 NOSIG=
202603081030 METAR VABB 081030Z 32012KT 3000 FU NSC 35/18 Q1007 NOSIG=
202603081100 METAR VABB 081100Z 34011KT 3000 FU NSC 35/18 Q1007 NOSIG=
202603081130 METAR VABB 081130Z 33010KT 3000 FU NSC 35/19 Q1007 NOSIG=
202603081200 METAR VABB 081200Z 34010KT 3000 FU NSC 34/19 Q1007 NOSIG=
202603081230 METAR VABB 081230Z 33009KT 3000 FU NSC 34/18 Q1007 NOSIG=
202603081300 METAR VABB 081300Z 34009KT 3000 FU NSC 34/17 Q1008 NOSIG=
202603081330 METAR VABB 081330Z 34010KT 3000 FU NSC 33/17 Q1008 NOSIG=
202603081400 METAR VABB 081400Z 35006KT 3000 FU NSC 34/15 Q1009 NOSIG=
202603081430 METAR VABB 081430Z 01005KT 3000 FU NSC 34/15 Q1009 NOSIG=
202603081500 METAR VABB 081500Z 03003KT 3000 FU NSC 34/15 Q1010 NOSIG=
202603081530 METAR VABB 081530Z 01005KT 3000 FU NSC 33/14 Q1010 NOSIG=
202603081600 METAR VABB 081600Z 01006KT 3000 FU NSC 33/14 Q1011 NOSIG=
202603081630 METAR VABB 081630Z 01007KT 3000 FU NSC 33/14 Q1011 NOSIG=
202603081700 METAR VABB 081700Z 36005KT 3000 FU NSC 33/13 Q1011 NOSIG=
202603081730 METAR VABB 081730Z 02007KT 3000 FU NSC 32/13 Q1011 NOSIG=
202603081800 METAR VABB 081800Z 05005KT 3000 FU NSC 32/13 Q1011 NOSIG=
202603081830 METAR VABB 081830Z 13004KT 3000 FU NSC 33/12 Q1011 NOSIG=
202603081900 METAR VABB 081900Z 09003KT 3000 FU NSC 31/13 Q1011 NOSIG=
202603081930 METAR VABB 081930Z 10003KT 3000 FU NSC 30/14 Q1010 NOSIG=
202603082000 METAR VABB 082000Z 00000KT 3000 FU NSC 30/14 Q1010 NOSIG=
202603082030 METAR VABB 082030Z 22003KT 3000 FU NSC 30/15 Q1010 NOSIG=
202603082100 METAR VABB 082100Z 00000KT 3000 FU NSC 29/15 Q1009 NOSIG=
202603082130 METAR VABB 082130Z 00000KT 3000 FU NSC 29/16 Q1009 NOSIG=
202603082200 METAR VABB 082200Z 00000KT 3000 FU NSC 28/17 Q1009 NOSIG=
202603082230 METAR VABB 082230Z 00000KT 3000 FU NSC 26/15 Q1009 NOSIG=
202603082300 METAR VABB 082300Z 22003KT 3000 FU NSC 28/16 Q1009 NOSIG=
202603082330 METAR VABB 082330Z 00000KT 3000 FU NSC 28/16 Q1009 NOSIG=
202603090000 METAR VABB 090000Z 20003KT 3000 FU NSC 28/15 Q1009 NOSIG=
202603090030 METAR VABB 090030Z 14003KT 3000 FU NSC 28/16 Q1009 NOSIG=
202603090100 METAR VABB 090100Z 00000KT 2500 FU NSC 27/16 Q1010 NOSIG=
202603090130 METAR VABB 090130Z 20004KT 2100 FU NSC 28/16 Q1010 NOSIG=
202603090200 METAR VABB 090200Z 18004KT 2100 FU NSC 28/15 Q1010 NOSIG=
202603090230 METAR VABB 090230Z 15005KT 1800 FU NSC 29/14 Q1011 NOSIG=
202603090300 METAR VABB 090300Z 17004KT 1800 FU NSC 30/14 Q1011 NOSIG=
202603090330 METAR VABB 090330Z 17004KT 1800 FU NSC 32/14 Q1012 NOSIG=
202603090400 METAR VABB 090400Z 21004KT 2100 FU NSC 34/14 Q1012 NOSIG=
202603090430 METAR VABB 090430Z 23004KT 2500 FU NSC 35/15 Q1012 NOSIG=
202603090500 METAR VABB 090500Z 23004KT 2800 FU NSC 37/10 Q1012 NOSIG=
202603090530 METAR VABB 090530Z 07007KT 3000 FU NSC 38/07 Q1012 NOSIG=
202603090600 METAR VABB 090600Z 12007KT 3000 FU NSC 38/07 Q1012 NOSIG=
202603090630 METAR VABB 090630Z 13005KT 3000 FU NSC 39/07 Q1011 NOSIG=
202603090700 METAR VABB 090700Z 27007KT 3000 FU NSC 38/16 Q1011 NOSIG=
202603090730 METAR VABB 090730Z 28007G18KT 3000 FU NSC 39/12 Q1010 NOSIG=
202603090800 METAR VABB 090800Z 27012KT 2800 FU NSC 36/20 Q1010 NOSIG=
202603090830 METAR VABB 090830Z 27010KT 2800 FU NSC 36/17 Q1009 NOSIG=
202603090900 METAR VABB 090900Z 27011KT 3000 FU NSC 35/17 Q1009 NOSIG=
202603090930 METAR VABB 090930Z 27010KT 3000 FU NSC 36/15 Q1008 NOSIG=
202603091000 METAR VABB 091000Z 31011KT 3000 FU NSC 36/13 Q1008 NOSIG=
202603091030 METAR VABB 091030Z 33010KT 3000 FU NSC 38/13 Q1008 NOSIG=
202603091100 METAR VABB 091100Z 33012KT 3000 FU NSC 37/12 Q1007 NOSIG=
202603091130 METAR VABB 091130Z 33011KT 3000 FU NSC 37/09 Q1008 NOSIG=
202603091200 METAR VABB 091200Z 34011KT 3000 FU NSC 37/07 Q1008 NOSIG=
202603091230 METAR VABB 091230Z 34012KT 3000 FU NSC 37/06 Q1008 NOSIG=
202603091300 METAR VABB 091300Z 35011KT 3000 FU NSC 36/07 Q1008 NOSIG=
202603091330 METAR VABB 091330Z 35011KT 3000 FU NSC 35/07 Q1009 NOSIG=
202603091400 METAR VABB 091400Z 35009KT 3000 FU NSC 35/08 Q1009 NOSIG=
202603091430 METAR VABB 091430Z 35010KT 3000 FU NSC 34/10 Q1009 NOSIG=
202603091500 METAR VABB 091500Z 01007KT 3000 FU NSC 33/14 Q1010 NOSIG=
202603091530 METAR VABB 091530Z 01007KT 3000 FU NSC 32/16 Q1010 NOSIG=
202603091600 METAR VABB 091600Z 02005KT 3000 FU NSC 32/16 Q1010 NOSIG=
202603091630 METAR VABB 091630Z 36004KT 3000 FU NSC 32/17 Q1010 NOSIG=
202603091700 METAR VABB 091700Z 35003KT 3000 FU NSC 31/17 Q1011 NOSIG=
202603091730 METAR VABB 091730Z 00000KT 3000 FU NSC 31/16 Q1011 NOSIG=
202603091800 METAR VABB 091800Z 23003KT 3000 FU NSC 32/16 Q1011 NOSIG=
202603091830 METAR VABB 091830Z 00000KT 3000 FU NSC 31/15 Q1011 NOSIG=
202603091900 METAR VABB 091900Z 19005KT 3000 FU NSC 31/15 Q1011 NOSIG=
202603091930 METAR VABB 091930Z 12005KT 3000 FU NSC 33/07 Q1010 NOSIG=
202603092000 METAR VABB 092000Z 10005KT 3000 FU NSC 32/08 Q1010 NOSIG=
202603092030 METAR VABB 092030Z 08004KT 3000 FU NSC 32/08 Q1010 NOSIG=
202603092100 METAR VABB 092100Z 06005KT 3000 FU NSC 33/06 Q1010 NOSIG=
202603092130 METAR VABB 092130Z 08003KT 3000 FU NSC 31/07 Q1009 NOSIG=
202603092200 METAR VABB 092200Z 17004KT 3000 FU NSC 29/11 Q1009 NOSIG=
202603092230 METAR VABB 092230Z 00000KT 3000 FU NSC 27/12 Q1010 NOSIG=
202603092300 METAR VABB 092300Z 16004KT 3000 FU NSC 32/06 Q1010 NOSIG=
202603092330 METAR VABB 092330Z 16003KT 3000 FU NSC 30/07 Q1010 NOSIG=
202603100000 METAR VABB 100000Z 15004KT 3000 FU NSC 29/11 Q1010 NOSIG=
202603100030 METAR VABB 100030Z 17004KT 3000 FU NSC 29/09 Q1011 NOSIG=
202603100100 METAR VABB 100100Z 14004KT 3000 FU NSC 31/07 Q1011 NOSIG=
202603100130 METAR VABB 100130Z 19003KT 3000 FU NSC 31/06 Q1011 NOSIG=
202603100200 METAR VABB 100200Z 17003KT 3000 FU NSC 30/08 Q1012 NOSIG=
202603100230 METAR VABB 100230Z 15005KT 3000 FU NSC 32/08 Q1012 NOSIG=
202603100300 METAR VABB 100300Z 10006KT 3000 FU NSC 33/06 Q1013 NOSIG=
202603100330 METAR VABB 100330Z 09009KT 3000 FU NSC 33/07 Q1013 NOSIG=
202603100400 METAR VABB 100400Z 10007KT 3000 FU NSC 34/07 Q1013 NOSIG=
202603100430 METAR VABB 100430Z 09006KT 3000 FU NSC 36/07 Q1013 NOSIG=
202603100500 METAR VABB 100500Z 09007KT 3000 FU NSC 36/09 Q1014 NOSIG=
202603100530 METAR VABB 100530Z 12008KT 3000 FU NSC 37/09 Q1014 NOSIG=
202603100600 METAR VABB 100600Z 10007KT 3000 FU NSC 38/09 Q1013 NOSIG=
202603100630 METAR VABB 100630Z 12005KT 3000 FU NSC 39/08 Q1013 NOSIG=
202603100700 METAR VABB 100700Z 28009KT 3000 FU NSC 38/15 Q1012 NOSIG=
202603100730 METAR VABB 100730Z 27011KT 3000 FU NSC 36/16 Q1011 NOSIG=
202603100800 METAR VABB 100800Z 29011KT 3000 FU NSC 36/16 Q1011 NOSIG=
202603100830 METAR VABB 100830Z 28011KT 3000 FU NSC 35/16 Q1011 NOSIG=
202603100900 METAR VABB 100900Z 28012KT 3000 FU NSC 35/14 Q1010 NOSIG=
202603100930 METAR VABB 100930Z 27011KT 3000 FU NSC 35/15 Q1010 NOSIG=
202603101000 METAR VABB 101000Z 29012KT 3000 FU NSC 36/14 Q1009 NOSIG=
202603101030 METAR VABB 101030Z 31011KT 3000 FU NSC 35/14 Q1009 NOSIG=
202603101100 METAR VABB 101100Z 31010KT 3000 FU NSC 35/13 Q1009 NOSIG=
202603101130 METAR VABB 101130Z 31009KT 3000 FU NSC 35/12 Q1009 NOSIG=
202603101200 METAR VABB 101200Z 34010KT 3000 FU NSC 35/10 Q1009 NOSIG=
202603101230 METAR VABB 101230Z 31009KT 3000 FU NSC 35/09 Q1009 NOSIG=
202603101300 METAR VABB 101300Z 31007KT 3000 FU NSC 34/10 Q1010 NOSIG=
202603101330 METAR VABB 101330Z 31007KT 3000 FU NSC 34/10 Q1010 NOSIG=
202603101400 METAR VABB 101400Z 25007KT 3000 FU NSC 33/15 Q1011 NOSIG=
202603101430 METAR VABB 101430Z 28006KT 3000 FU NSC 32/17 Q1011 NOSIG=
202603101500 METAR VABB 101500Z 24007KT 3000 FU NSC 31/21 Q1011 NOSIG=
202603101530 METAR VABB 101530Z 26006KT 3000 FU NSC 31/20 Q1012 NOSIG=
202603101600 METAR VABB 101600Z 26005KT 3000 FU NSC 30/20 Q1012 NOSIG=
202603101630 METAR VABB 101630Z 28004KT 3000 FU NSC 30/20 Q1012 NOSIG=
202603101700 METAR VABB 101700Z 29003KT 3000 FU NSC 30/20 Q1012 NOSIG=
202603101730 METAR VABB 101730Z 28004KT 3000 FU NSC 30/20 Q1012 NOSIG=
202603101800 METAR VABB 101800Z 00000KT 3000 FU NSC 30/19 Q1012 NOSIG=
202603101830 METAR VABB 101830Z 22004KT 3000 FU NSC 30/20 Q1012 NOSIG=
202603101900 METAR VABB 101900Z 20004KT 3000 FU NSC 30/19 Q1012 NOSIG=
202603101930 METAR VABB 101930Z 00000KT 3000 FU FEW100 30/19 Q1011 NOSIG=
202603102000 METAR VABB 102000Z 20003KT 3000 FU FEW100 30/19 Q1011 NOSIG=
202603102030 METAR VABB 102030Z 17003KT 3000 FU FEW100 30/19 Q1011 NOSIG=
202603102100 METAR VABB 102100Z 18003KT 3000 FU FEW100 29/20 Q1011 NOSIG=
202603102130 METAR VABB 102130Z 22003KT 3000 FU FEW100 29/20 Q1010 NOSIG=
202603102200 METAR VABB 102200Z 15003KT 3000 FU FEW100 29/20 Q1010 NOSIG=
202603102230 METAR VABB 102230Z 08004KT 3000 FU FEW100 27/18 Q1011 NOSIG=
202603102300 METAR VABB 102300Z 17003KT 3000 FU FEW100 29/19 Q1011 NOSIG=
202603102330 METAR VABB 102330Z 17003KT 3000 FU FEW100 28/19 Q1011 NOSIG=
202603110000 METAR VABB 110000Z 00000KT 3000 FU NSC 28/20 Q1011 NOSIG=
