202512010000 METAR VABB 010000Z 11003KT 3000 FU NSC 23/12 Q1011 NOSIG=
202512010030 METAR VABB 010030Z 10004KT 3000 FU NSC 23/12 Q1011 NOSIG=
202512010100 METAR VABB 010100Z 09004KT 3000 FU NSC 23/12 Q1011 NOSIG=
202512010130 METAR VABB 010130Z 00000KT 3000 FU FEW100 23/12 Q1012 NOSIG=
202512010200 METAR VABB 010200Z 09004KT 3000 FU FEW100 23/12 Q1012 NOSIG=
202512010230 METAR VABB 010230Z 07007KT 3000 FU FEW100 24/12 Q1013 NOSIG=
202512010300 METAR VABB 010300Z 10003KT 2200 FU FEW100 26/12 Q1013 NOSIG=
202512010330 METAR VABB 010330Z 07007KT 2200 FU FEW100 26/12 Q1013 NOSIG=
202512010400 METAR VABB 010400Z 09008KT 2200 FU FEW100 27/12 Q1013 NOSIG=
202512010430 METAR VABB 010430Z 08008KT 2200 FU NSC 28/12 Q1013 NOSIG=
202512010500 METAR VABB 010500Z 07006KT 2500 FU NSC 28/12 Q1013 NOSIG=
202512010530 METAR VABB 010530Z 10009KT 2500 FU NSC 29/12 Q1013 NOSIG=
202512010600 METAR VABB 010600Z 09009KT 2500 FU NSC 29/11 Q1012 NOSIG=
202512010630 METAR VABB 010630Z 11007KT 2500 FU NSC 31/12 Q1012 NOSIG=
202512010700 METAR VABB 010700Z 05006KT 2500 FU NSC 31/12 Q1012 BECMG 3000 FU=
202512010730 METAR VABB 010730Z 06006KT 3000 FU NSC 31/09 Q1011 NOSIG=
202512010800 METAR VABB 010800Z 03006KT 3000 FU NSC 32/09 Q1011 NOSIG=
202512010830 METAR VABB 010830Z 01005KT 3000 FU NSC 32/12 Q1010 NOSIG=
202512010900 METAR VABB 010900Z 28009KT 3000 FU NSC 31/13 Q1010 NOSIG=
202512010930 METAR VABB 010930Z 27009KT 3500 FU NSC 31/15 Q1010 NOSIG=
202512011000 METAR VABB 011000Z 34006KT 3500 FU NSC 32/09 Q1010 NOSIG=
202512011030 METAR VABB 011030Z 35007KT 3500 FU NSC 32/09 Q1009 NOSIG=
202512011100 METAR VABB 011100Z 32008KT 3500 FU NSC 31/14 Q1009 NOSIG=
202512011130 METAR VABB 011130Z 35007KT 3500 FU NSC 30/14 Q1009 NOSIG=
202512011200 METAR VABB 011200Z 34006KT 3500 FU FEW100 30/14 Q1009 NOSIG=
202512011230 METAR VABB 011230Z 34006KT 3500 FU FEW100 28/16 Q1010 BECMG 3000 FU=
202512011300 METAR VABB 011300Z 33004KT 3000 FU FEW100 28/17 Q1010 NOSIG=
202512011330 METAR VABB 011330Z 33005KT 3000 FU FEW100 27/16 Q1011 NOSIG=
202512011400 METAR VABB 011400Z 36005KT 3000 FU FEW100 27/16 Q1011 NOSIG=
202512011430 METAR VABB 011430Z 01003KT 3000 FU FEW100 27/17 Q1011 NOSIG=
202512011500 METAR VABB 011500Z 01004KT 3000 FU NSC 27/17 Q1012 NOSIG=
202512011530 METAR VABB 011530Z 04006KT 3000 FU NSC 26/17 Q1012 NOSIG=
202512011600 METAR VABB 011600Z 05005KT 3000 FU NSC 26/16 Q1012 NOSIG=
202512011630 METAR VABB 011630Z 11004KT 3000 FU NSC 26/16 Q1012 NOSIG=
202512011700 METAR VABB 011700Z 10005KT 3000 FU NSC 26/15 Q1012 NOSIG=
202512011730 METAR VABB 011730Z 11004KT 3000 FU NSC 26/16 Q1012 NOSIG=
202512011800 METAR VABB 011800Z 14005KT 3000 FU NSC 26/16 Q1012 NOSIG=
202512011830 METAR VABB 011830Z 11003KT 3000 FU NSC 25/16 Q1012 NOSIG=
202512011900 METAR VABB 011900Z VRB03KT 3000 FU NSC 25/16 Q1012 NOSIG=
202512011930 METAR VABB 011930Z VRB03KT 3000 FU NSC 25/16 Q1012 NOSIG=
202512012000 METAR VABB 012000Z 00000KT 3000 HZ NSC 24/17 Q1012 NOSIG=
202512012030 METAR VABB 012030Z 15004KT 3000 HZ NSC 25/15 Q1012 NOSIG=
202512012100 METAR VABB 012100Z 00000KT 3000 HZ NSC 24/16 Q1011 NOSIG=
202512012130 METAR VABB 012130Z 15004KT 3000 HZ NSC 24/15 Q1011 NOSIG=
202512012200 METAR VABB 012200Z 00000KT 3000 HZ NSC 24/16 Q1011 NOSIG=
202512012230 METAR VABB 012230Z 12004KT 3000 HZ NSC 23/16 Q1011 NOSIG=
202512012300 METAR VABB 012300Z 07003KT 3000 HZ NSC 23/16 Q1011 NOSIG=
202512012330 METAR VABB 012330Z 11006KT 3000 FU NSC 24/15 Q1011 NOSIG=
202512020000 METAR VABB 020000Z 00000KT 3000 FU NSC 24/15 Q1011 NOSIG=
202512020030 METAR VABB 020030Z 09004KT 3000 FU NSC 23/15 Q1011 NOSIG=
202512020100 METAR VABB 020100Z 21003KT 3000 FU NSC 23/15 Q1012 TEMPO 1500 FU=
202512020130 METAR VABB 020130Z 20003KT 2100 FU FEW100 23/14 Q1012 NOSIG=
202512020200 METAR VABB 020200Z 00000KT 2100 FU FEW100 24/14 Q1012 NOSIG=
202512020230 METAR VABB 020230Z 07004KT 2100 FU NSC 25/13 Q1013 NOSIG=
202512020300 METAR COR VABB 020300Z 05005KT 2100 FU FEW100 26/13 Q1013 NOSIG=
202512020330 METAR VABB 020330Z 05006KT 2500 FU FEW100 26/12 Q1013 NOSIG=
202512020400 METAR VABB 020400Z 05005KT 2500 FU FEW100 28/12 Q1014 BECMG 3000 FU=
202512020430 METAR VABB 020430Z 11008KT 3000 FU FEW100 28/12 Q1014 NOSIG=
202512020500 METAR VABB 020500Z 11008KT 3000 FU FEW100 29/13 Q1013 NOSIG=
202512020530 METAR VABB 020530Z 04009KT 3000 FU FEW100 30/13 Q1013 NOSIG=
202512020600 METAR VABB 020600Z 08007KT 3000 FU SCT100 31/13 Q1013 NOSIG=
202512020630 METAR VABB 020630Z 06008KT 3000 FU SCT100 29/13 Q1012 NOSIG=
202512020700 METAR VABB 020700Z 06009KT 3000 FU SCT100 30/12 Q1012 NOSIG=
202512020730 METAR VABB 020730Z 05009KT 3000 FU FEW100 30/11 Q1011 NOSIG=
202512020800 METAR VABB 020800Z 06009KT 3000 FU FEW100 32/12 Q1010 NOSIG=
202512020830 METAR VABB 020830Z 06009KT 3000 FU FEW100 31/11 Q1010 NOSIG=
202512020900 METAR VABB 020900Z 06008KT 3000 FU FEW100 32/11 Q1009 NOSIG=
202512020930 METAR VABB 020930Z 07006KT 3000 FU FEW100 32/11 Q1010 NOSIG=
202512021000 METAR VABB 021000Z 06007KT 3000 FU FEW100 32/12 Q1010 NOSIG=
202512021030 METAR VABB 021030Z 08005KT 3000 FU FEW100 32/12 Q1010 NOSIG=
202512021100 METAR VABB 021100Z 06006KT 3000 FU FEW100 32/11 Q1010 NOSIG=
202512021130 METAR VABB 021130Z 06006KT 3000 FU FEW100 31/11 Q1010 NOSIG=
202512021200 METAR VABB 021200Z 05004KT 3000 FU FEW020 SCT100 31/11 Q1009 NOSIG=
202512021230 METAR VABB 021230Z 33006KT 2500 FU FEW020 SCT100 29/18 Q1010 NOSIG=
202512021300 METAR VABB 021300Z 35005KT 2500 FU FEW020 SCT100 28/19 Q1010 NOSIG=
202512021330 METAR VABB 021330Z 01006KT 2500 FU FEW020 SCT100 28/18 Q1010 NOSIG=
202512021400 METAR VABB 021400Z 01006KT 2500 FU FEW020 SCT100 28/18 Q1011 NOSIG=
202512021430 METAR VABB 021430Z 01005KT 2500 FU FEW020 SCT100 27/18 Q1011 NOSIG=
202512021500 METAR VABB 021500Z 01003KT 2500 FU SCT100 27/18 Q1011 NOSIG=
202512010000 METAR VABB NIL=
202512021530 METAR VABB 021530Z 01004KT 2500 FU SCT100 27/18 Q1012 NOSIG=
202512021600 METAR VABB 021600Z 01005KT 2500 FU FEW100 27/18 Q1012 NOSIG=
202512021630 METAR VABB 021630Z 10004KT 2500 FU FEW100 26/18 Q1012 NOSIG=
202512021700 METAR VABB 021700Z 19004KT 2500 FU FEW100 27/17 Q1012 NOSIG=
202512021730 METAR VABB 021730Z 05003KT 2500 FU FEW100 26/17 Q1012 NOSIG=
202512021800 METAR VABB 021800Z 16003KT 2500 FU FEW100 26/17 Q1012 NOSIG=
202512021830 METAR VABB 021830Z 07004KT 2500 FU FEW100 26/18 Q1012 NOSIG=
202512021900 METAR VABB 021900Z 09004KT 2500 FU FEW100 25/17 Q1011 NOSIG=
202512021930 METAR COR VABB 021930Z 16005KT 2500 HZ FEW100 25/17 Q1011 NOSIG=
202512022000 METAR VABB 022000Z 10004KT 2500 HZ FEW100 24/16 Q1011 NOSIG=
202512022030 METAR VABB 022030Z 00000KT 2500 HZ FEW100 25/16 Q1011 NOSIG=
202512022100 METAR VABB 022100Z 00000KT 2500 HZ FEW100 24/17 Q1011 NOSIG=
202512022130 METAR VABB 022130Z 00000KT 2500 HZ FEW100 24/16 Q1011 NOSIG=
202512022200 METAR VABB 022200Z 00000KT 2500 HZ FEW100 23/17 Q1011 NOSIG=
202512022230 METAR VABB 022230Z 00000KT 2500 HZ NSC 23/17 Q1011 NOSIG=
202512022300 METAR VABB 022300Z 00000KT 2500 HZ NSC 24/15 Q1011 NOSIG=
202512022330 METAR VABB 022330Z 00000KT 2500 FU NSC 24/14 Q1011 NOSIG=
202512030000 METAR VABB 030000Z 00000KT 2500 FU NSC 23/14 Q1011 NOSIG=
202512030030 METAR VABB 030030Z 10003KT 2500 FU NSC 23/14 Q1012 NOSIG=
202512030100 METAR VABB 030100Z 13003KT 2500 FU NSC 23/14 Q1012 BECMG 1500 FU=
202512030130 METAR VABB 030130Z 10003KT 2200 FU NSC 24/13 Q1013 NOSIG=
202512030200 METAR VABB 030200Z 08005KT 2200 FU NSC 24/13 Q1013 NOSIG=
202512030230 METAR COR VABB 030230Z 07006KT 2000 FU NSC 25/12 Q1013 NOSIG=
202512030300 METAR VABB 030300Z 09010KT 2100 FU NSC 25/13 Q1014 NOSIG=
202512030330 METAR VABB 030330Z 10010KT 2100 FU NSC 26/12 Q1014 NOSIG=
202512030400 METAR VABB 030400Z 08008KT 2100 FU NSC 27/13 Q1014 NOSIG=
202512030430 METAR VABB 030430Z 10011KT 2500 FU NSC 28/13 Q1015 NOSIG=
202512030500 METAR VABB 030500Z 07010KT 2500 FU NSC 28/13 Q1015 NOSIG=
202512030530 METAR VABB 030530Z 07008KT 2500 FU NSC 29/14 Q1015 NOSIG=
202512030600 METAR VABB 030600Z 08007KT 2500 FU NSC 30/14 Q1014 NOSIG=
202512030630 METAR VABB 030630Z 11009KT 2500 FU NSC 30/14 Q1014 NOSIG=
202512030700 METAR VABB 030700Z 11009KT 2500 FU NSC 31/14 Q1014 NOSIG=
202512030730 METAR VABB 030730Z 07007KT 2500 FU NSC 32/14 Q1013 NOSIG=
202512030800 METAR VABB 030800Z 07007KT 2500 FU NSC 31/14 Q1012 NOSIG=
202512030830 METAR VABB 030830Z 06008KT 2500 FU NSC 32/13 Q1012 BECMG 3000 FU=
202512030900 METAR VABB 030900Z 07007KT 3000 FU NSC 32/13 Q1011 NOSIG=
202512030930 METAR VABB 030930Z 08006KT 3000 FU NSC 32/12 Q1011 NOSIG=
202512031000 METAR VABB 031000Z 04005KT 3000 FU NSC 32/13 Q1011 NOSIG=
202512031030 METAR VABB 031030Z 03006KT 3000 FU NSC 32/14 Q1011 NOSIG=
202512031100 METAR VABB 031100Z 36008KT 3000 FU NSC 32/13 Q1011 NOSIG=
202512031130 METAR VABB 031130Z 36007KT 3000 FU NSC 32/13 Q1011 NOSIG=
202512031200 METAR VABB 031200Z 36003KT 3000 FU NSC 31/13 Q1011 BECMG 1500 FU=
202512031230 METAR VABB 031230Z 36003KT 2500 FU NSC 31/14 Q1011 NOSIG=
202512031300 METAR VABB 031300Z 01007KT 2500 FU NSC 30/15 Q1011 NOSIG=
202512031330 METAR VABB 031330Z 01007KT 2500 FU NSC 30/15 Q1012 NOSIG=
202512031400 METAR VABB 031400Z 01007KT 2500 FU NSC 29/15 Q1012 NOSIG=
202512031430 METAR VABB 031430Z 01006KT 2500 FU NSC 28/15 Q1013 NOSIG=
202512031500 METAR VABB 031500Z 01007KT 2500 FU NSC 28/15 Q1013 NOSIG=
202512031530 METAR VABB 031530Z 02007KT 2500 FU NSC 28/15 Q1013 NOSIG=
202512031600 METAR VABB 031600Z 09005KT 2500 FU NSC 27/15 Q1013 NOSIG=
202512031630 METAR VABB 031630Z 09004KT 2500 FU NSC 28/15 Q1014 NOSIG=
202512031700 METAR VABB 031700Z 07005KT 2500 FU NSC 28/15 Q1014 NOSIG=
202512031730 METAR VABB 031730Z 07005KT 2500 FU NSC 27/16 Q1013 NOSIG=
202512031800 METAR VABB 031800Z 05005KT 2500 FU NSC 27/16 Q1013 NOSIG=
202512031830 METAR VABB 031830Z 11004KT 2500 FU NSC 27/15 Q1013 NOSIG=
202512031900 METAR VABB 031900Z 10004KT 2500 FU NSC 27/15 Q1013 NOSIG=
202512031930 METAR VABB 031930Z 09004KT 2500 FU NSC 27/15 Q1013 NOSIG=
202512032000 METAR VABB 032000Z 06006KT 2500 FU NSC 26/16 Q1012 NOSIG=
202512032030 METAR VABB 032030Z 08003KT 2500 FU NSC 26/16 Q1012 NOSIG=
202512032100 METAR VABB 032100Z 09004KT 2500 FU NSC 26/15 Q1012 NOSIG=
202512032130 METAR VABB 032130Z 12003KT 2500 FU NSC 26/15 Q1012 NOSIG=
202512032200 METAR VABB 032200Z 09003KT 2500 FU NSC 25/15 Q1012 NOSIG=
202512032230 METAR VABB 032230Z 12004KT 2500 FU NSC 24/15 Q1012 NOSIG=
202512032300 METAR VABB 032300Z 12005KT 2500 FU NSC 25/15 Q1012 NOSIG=
202512032330 METAR VABB 032330Z 05005KT 2500 FU NSC 25/14 Q1012 NOSIG=
202512040000 METAR VABB 040000Z 09004KT 2500 FU NSC 25/14 Q1012 NOSIG=
202512040030 METAR VABB 040030Z 07004KT 2500 FU NSC 25/14 Q1013 NOSIG=
202512040100 METAR VABB 040100Z 07004KT 2500 FU NSC 25/14 Q1013 NOSIG=
202512040130 METAR VABB 040130Z 07004KT 2500 FU NSC 25/14 Q1013 NOSIG=
202512040200 METAR VABB 040200Z 07007KT 2500 FU NSC 25/14 Q1014 NOSIG=
202512040230 METAR VABB 040230Z 05009KT 2500 FU NSC 26/14 Q1014 NOSIG=
202512040300 METAR VABB 040300Z 06005KT 2500 FU NSC 26/15 Q1015 NOSIG=
202512040330 METAR VABB 040330Z 09006KT 2500 FU NSC 27/15 Q1015 NOSIG=
202512040400 METAR VABB 040400Z 09008KT 2500 FU NSC 27/15 Q1016 NOSIG=
202512040430 METAR VABB 040430Z 10009KT 2500 FU NSC 28/15 Q1016 NOSIG=
202512040500 METAR VABB 040500Z 09009KT 2500 FU NSC 28/15 Q1015 NOSIG=
202512040530 METAR VABB 040530Z 08009KT 2500 FU NSC 29/15 Q1015 NOSIG=
202512040600 METAR VABB 040600Z 07012KT 2500 FU NSC 30/15 Q1015 NOSIG=
202512040630 METAR VABB 040630Z 07011KT 2500 FU NSC 30/15 Q1014 NOSIG=
202512040700 METAR VABB 040700Z 07010KT 2500 FU NSC 31/16 Q1014 NOSIG=
202512040730 METAR VABB 040730Z 09010KT 2500 FU NSC 32/15 Q1014 NOSIG=
202512040800 METAR VABB 040800Z 07011KT 2500 FU NSC 32/15 Q1013 NOSIG=
202512040830 METAR VABB 040830Z 04008KT 2500 FU NSC 33/16 Q1012 NOSIG=
202512040900 METAR VABB 040900Z 04008KT 2500 FU NSC 32/16 Q1012 NOSIG=
202512040930 METAR VABB 040930Z 03008KT 2500 FU NSC 32/15 Q1012 BECMG 3000 FU=
202512041000 METAR VABB 041000Z 03008KT 3000 FU NSC 32/15 Q1012 NOSIG=
202512041030 METAR VABB 041030Z 05008KT 3000 FU NSC 32/14 Q1012 NOSIG=
202512041100 METAR VABB 041100Z 03008KT 3000 FU NSC 32/15 Q1012 NOSIG=
202512041130 METAR VABB 041130Z 01006KT 3000 FU NSC 32/15 Q1012 NOSIG=
202512041200 METAR VABB 041200Z 03008KT 2500 FU NSC 31/16 Q1013 NOSIG=
202512041230 METAR VABB 041230Z 01007KT 2000 FU NSC 31/16 Q1013 NOSIG=
202512041300 METAR VABB 041300Z 01006KT 2200 FU NSC 30/17 Q1013 NOSIG=
202512041330 METAR VABB 041330Z 04006KT 2200 FU NSC 30/17 Q1013 NOSIG=
202512041400 METAR VABB 041400Z 03007KT 2500 FU NSC 29/17 Q1013 NOSIG=
202512041430 METAR VABB 041430Z 01006KT 2500 FU NSC 29/17 Q1014 NOSIG=
202512041500 METAR VABB 041500Z 01006KT 2500 FU NSC 29/17 Q1014 NOSIG=
202512041530 METAR VABB 041530Z 04005KT 2500 FU NSC 28/17 Q1014 NOSIG=
202512041600 METAR VABB 041600Z 00000KT 2500 FU NSC 28/18 Q1015 NOSIG=
202512041630 METAR VABB 041630Z 00000KT 2500 FU NSC 27/18 Q1015 NOSIG=
202512041700 METAR VABB 041700Z 00000KT 2500 FU NSC 27/17 Q1015 NOSIG=
202512041730 METAR VABB 041730Z 00000KT 2500 FU NSC 26/17 Q1015 NOSIG=
202512041800 METAR VABB 041800Z 09004KT 2500 FU NSC 27/17 Q1014 NOSIG=
202512041830 METAR VABB 041830Z 06005KT 2500 FU NSC 27/17 Q1014 NOSIG=
202512041900 METAR VABB 041900Z 06004KT 2500 FU NSC 26/17 Q1014 NOSIG=
202512041930 METAR VABB 041930Z 08003KT 2500 FU NSC 27/17 Q1014 NOSIG=
202512042000 METAR VABB 042000Z 06003KT 2500 FU NSC 26/17 Q1014 NOSIG=
202512042030 METAR VABB 042030Z 06003KT 2500 FU NSC 26/16 Q1014 NOSIG=
202512042100 METAR VABB 042100Z 00000KT 2500 FU NSC 26/16 Q1014 NOSIG=
202512042130 METAR VABB 042130Z 00000KT 2500 FU NSC 26/16 Q1013 NOSIG=
202512042200 METAR VABB 042200Z 10003KT 2500 FU NSC 26/16 Q1013 NOSIG=
202512042230 METAR VABB 042230Z 00000KT 2500 FU NSC 25/16 Q1013 NOSIG=
202512042300 METAR VABB 042300Z 06004KT 2500 FU NSC 26/15 Q1013 NOSIG=
202512042330 METAR VABB 042330Z 05007KT 2500 FU NSC 26/15 Q1013 NOSIG=
202512050000 METAR VABB 050000Z 05007KT 2500 FU NSC 26/15 Q1014 NOSIG=
202512050030 METAR VABB 050030Z 05007KT 2500 FU NSC 26/15 Q1014 NOSIG=
202512050100 METAR VABB 050100Z 06005KT 2500 FU NSC 25/15 Q1014 NOSIG=
202512050130 METAR VABB 050130Z 00000KT 2500 FU NSC 25/15 Q1014 BECMG 3000 FU=
202512050200 METAR VABB 050200Z 06006KT 2100 FU NSC 25/15 Q1015 NOSIG=
202512050230 METAR VABB 050230Z 05006KT 2100 FU FEW100 26/16 Q1015 NOSIG=
202512050300 METAR VABB 050300Z 05004KT 1800 FU FEW100 26/16 Q1015 NOSIG=
202512050330 METAR VABB 050330Z 09006KT 1800 FU NSC 27/15 Q1016 NOSIG=
202512050400 METAR VABB 050400Z 09009KT 2100 FU NSC 28/15 Q1016 NOSIG=
202512050430 METAR VABB 050430Z 09008KT 2100 FU NSC 29/16 Q1016 NOSIG=
202512050500 METAR VABB 050500Z 09010KT 2100 FU NSC 29/15 Q1016 NOSIG=
202512050530 METAR VABB 050530Z 09010KT 2100 FU NSC 30/15 Q1016 NOSIG=
202512050600 METAR VABB 050600Z 09012KT 2500 FU FEW100 31/16 Q1015 NOSIG=
202512050630 METAR VABB 050630Z 09011KT 2500 FU FEW100 31/16 Q1015 NOSIG=
202512050700 METAR VABB 050700Z 08010KT 2500 FU FEW100 32/16 Q1015 NOSIG=
202512050730 METAR VABB 050730Z 09010KT 2500 FU FEW100 32/17 Q1014 NOSIG=
202512050800 METAR VABB 050800Z 09008KT 2500 FU FEW100 33/18 Q1014 NOSIG=
202512050830 METAR VABB 050830Z 07008KT 2500 FU FEW100 33/17 Q1013 BECMG 3000 FU=
202512050900 METAR VABB 050900Z 05008KT 2500 FU FEW100 33/18 Q1013 NOSIG=
202512050930 METAR VABB 050930Z 05006KT 3000 FU FEW100 34/17 Q1013 NOSIG=
202512051000 METAR VABB 051000Z 08008KT 3000 FU NSC 33/17 Q1013 NOSIG=
202512051030 METAR VABB 051030Z 08008KT 3000 FU NSC 33/17 Q1013 NOSIG=
202512051100 METAR VABB 051100Z 07007KT 3000 FU NSC 33/17 Q1013 NOSIG=
202512051130 METAR VABB 051130Z 07006KT 3000 FU NSC 33/17 Q1013 NOSIG=
202512051200 METAR VABB 051200Z 02004KT 3000 FU NSC 32/16 Q1012 NOSIG=
202512051230 METAR VABB 051230Z 02006KT 3000 FU NSC 31/17 Q1013 NOSIG=
202512051300 METAR VABB 051300Z 01006KT 3000 FU NSC 31/17 Q1013 NOSIG=
202512051330 METAR VABB 051330Z 03006KT 3000 FU NSC 30/17 Q1013 NOSIG=
202512051400 METAR VABB 051400Z 01006KT 3000 FU NSC 30/17 Q1014 NOSIG=
202512051430 METAR VABB 051430Z 01007KT 3000 FU NSC 30/17 Q1014 NOSIG=
202512051500 METAR VABB 051500Z 01007KT 3000 FU NSC 29/17 Q1015 NOSIG=
202512051530 METAR VABB 051530Z 06003KT 3000 FU NSC 29/17 Q1015 NOSIG=
202512051600 METAR VABB 051600Z 00000KT 3000 FU NSC 28/17 Q1015 NOSIG=
202512051630 METAR VABB 051630Z 15005KT 3000 FU NSC 29/17 Q1015 NOSIG=
202512051700 METAR VABB 051700Z 14004KT 3000 FU NSC 28/18 Q1015 NOSIG=
202512051730 METAR VABB 051730Z 08003KT 3000 FU NSC 28/17 Q1015 NOSIG=
202512051800 METAR VABB 051800Z 00000KT 3000 FU NSC 28/17 Q1015 NOSIG=
202512051830 METAR VABB 051830Z 09006KT 3000 FU NSC 28/17 Q1015 NOSIG=
202512051900 METAR VABB 051900Z 09006KT 3000 FU NSC 28/17 Q1015 NOSIG=
202512051930 METAR VABB 051930Z 05003KT 3000 FU NSC 27/17 Q1015 NOSIG=
202512052000 METAR VABB 052000Z 05005KT 3000 FU NSC 27/17 Q1015 NOSIG=
202512052030 METAR VABB 052030Z 06004KT 3000 FU NSC 27/17 Q1015 NOSIG=
202512052100 METAR VABB 052100Z 08004KT 3000 FU NSC 26/17 Q1014 NOSIG=
202512052130 METAR VABB 052130Z 10003KT 3000 FU NSC 26/16 Q1014 NOSIG=
202512052200 METAR VABB 052200Z 06006KT 3000 FU NSC 27/15 Q1014 NOSIG=
202512052230 METAR VABB 052230Z 05004KT 3000 FU NSC 26/15 Q1014 NOSIG=
202512052300 METAR VABB 052300Z 06004KT 3000 FU NSC 26/16 Q1014 NOSIG=
202512052330 METAR VABB 052330Z 06006KT 3000 FU NSC 26/16 Q1014 NOSIG=
202512060000 METAR VABB 060000Z 06004KT 3000 FU NSC 25/16 Q1014 NOSIG=
202512060030 METAR VABB 060030Z 09008KT 3000 FU NSC 26/15 Q1015 NOSIG=
202512060100 METAR VABB 060100Z 08006KT 3000 FU NSC 25/15 Q1015 TEMPO 1500 FU=
202512060130 METAR VABB 060130Z 07005KT 2500 FU NSC 25/15 Q1015 NOSIG=
202512060200 METAR VABB 060200Z 10009KT 2200 FU FEW100 25/15 Q1015 NOSIG=
202512060230 METAR VABB 060230Z 09009KT 2200 FU NSC 26/15 Q1016 NOSIG=
202512060300 METAR VABB 060300Z 08009KT 2200 FU NSC 26/15 Q1016 NOSIG=
202512060330 METAR VABB 060330Z 09009KT 2200 FU NSC 27/15 Q1017 NOSIG=
202512060400 METAR VABB 060400Z 11009KT 2500 FU NSC 28/14 Q1017 NOSIG=
202512060430 METAR VABB 060430Z 10011KT 2500 FU NSC 28/14 Q1017 NOSIG=
202512060500 METAR VABB 060500Z 12012KT 2500 FU FEW100 29/14 Q1017 BECMG 3000 FU=
202512060530 METAR VABB 060530Z 11012KT 2500 FU FEW100 29/14 Q1017 NOSIG=
202512060600 METAR VABB 060600Z 10010KT 2500 FU FEW100 30/15 Q1016 NOSIG=
202512060630 METAR VABB 060630Z 12012KT 3000 FU FEW100 30/14 Q1015 NOSIG=
202512060700 METAR VABB 060700Z 12010KT 3000 FU FEW100 31/14 Q1015 NOSIG=
202512060730 METAR VABB 060730Z 08007KT 3000 FU FEW100 32/15 Q1014 NOSIG=
202512060800 METAR VABB 060800Z 08008KT 3000 FU FEW100 31/15 Q1014 NOSIG=
202512060830 METAR VABB 060830Z 06007KT 3000 FU FEW100 31/15 Q1014 NOSIG=
202512060900 METAR VABB 060900Z 08006KT 3000 FU NSC 32/14 Q1014 NOSIG=
202512060930 METAR VABB 060930Z 07006KT 3000 FU NSC 32/15 Q1014 NOSIG=
202512061000 METAR VABB 061000Z 06006KT 3000 FU NSC 32/15 Q1013 NOSIG=
202512061030 METAR VABB 061030Z 07006KT 3000 FU NSC 31/14 Q1013 NOSIG=
202512061100 METAR VABB 061100Z 06007KT 3000 FU NSC 31/14 Q1013 NOSIG=
202512061130 METAR VABB 061130Z 06005KT 3000 FU NSC 31/15 Q1013 NOSIG=
202512061200 METAR VABB 061200Z 01005KT 3000 FU NSC 31/16 Q1013 NOSIG=
202512061230 METAR VABB 061230Z 33006KT 3000 FU FEW100 30/18 Q1014 NOSIG=
202512061300 METAR VABB 061300Z 34006KT 3000 FU FEW100 29/19 Q1014 NOSIG=
202512061330 METAR VABB 061330Z 34007KT 3000 FU FEW100 28/20 Q1014 NOSIG=
202512061400 METAR VABB 061400Z 35008KT 3000 FU FEW100 28/18 Q1015 NOSIG=
202512061430 METAR VABB 061430Z 01007KT 3000 FU FEW100 28/19 Q1015 NOSIG=
202512061500 METAR COR VABB 061500Z 36006KT 3000 HZ FEW100 27/20 Q1015 NOSIG=
202512061530 METAR VABB 061530Z 03004KT 2500 HZ FEW100 27/20 Q1015 NOSIG=
202512061600 METAR VABB 061600Z 01004KT 2500 HZ FEW100 27/20 Q1015 NOSIG=
202512061630 METAR VABB 061630Z 36004KT 2500 HZ NSC 27/20 Q1015 NOSIG=
202512061700 METAR VABB 061700Z 36006KT 2500 HZ NSC 27/20 Q1015 NOSIG=
202512061730 METAR VABB 061730Z 10004KT 2500 HZ NSC 27/19 Q1015 NOSIG=
202512061800 METAR VABB 061800Z 15004KT 2500 HZ NSC 27/19 Q1015 NOSIG=
202512061830 METAR VABB 061830Z 14004KT 2500 HZ NSC 26/19 Q1015 NOSIG=
202512061900 METAR VABB 061900Z 00000KT 2500 HZ NSC 26/19 Q1015 NOSIG=
202512061930 METAR VABB 061930Z 06004KT 2500 HZ NSC 26/18 Q1015 NOSIG=
202512062000 METAR VABB 062000Z 08003KT 2500 HZ NSC 25/18 Q1014 NOSIG=
202512062030 METAR VABB 062030Z 09003KT 2500 HZ NSC 26/17 Q1014 NOSIG=
202512062100 METAR VABB 062100Z 07008KT 2500 HZ NSC 26/17 Q1014 NOSIG=
202512062130 METAR VABB 062130Z 07007KT 2500 HZ NSC 25/17 Q1014 NOSIG=
202512062200 METAR VABB 062200Z 08004KT 2500 HZ FEW100 25/16 Q1014 NOSIG=
202512062230 METAR VABB 062230Z 12005KT 2500 HZ FEW100 24/15 Q1014 NOSIG=
202512062300 METAR VABB 062300Z 12007KT 2500 FU NSC 25/14 Q1014 NOSIG=
202512062330 METAR VABB 062330Z 00000KT 2500 FU NSC 24/14 Q1014 NOSIG=
202512070000 METAR VABB 070000Z 12005KT 2500 FU NSC 25/13 Q1014 NOSIG=
202512070030 METAR VABB 070030Z 15003KT 2500 FU NSC 25/13 Q1015 NOSIG=
202512070100 METAR VABB 070100Z 00000KT 2500 FU NSC 24/13 Q1015 NOSIG=
202512070130 METAR VABB 070130Z 08003KT 2500 FU NSC 24/13 Q1015 NOSIG=
202512070200 METAR VABB 070200Z 12004KT 2100 FU FEW100 25/13 Q1015 NOSIG=
202512070230 METAR VABB 070230Z 10005KT 2100 FU FEW100 25/13 Q1016 NOSIG=
202512070300 METAR VABB 070300Z 06004KT 2100 FU SCT100 25/13 Q1016 NOSIG=
202512070330 METAR VABB 070330Z 05006KT 2100 FU SCT100 26/14 Q1017 NOSIG=
202512070400 METAR VABB 070400Z 05006KT 2100 FU FEW100 27/13 Q1017 NOSIG=
202512070430 METAR VABB 070430Z 10009KT 2500 FU FEW100 28/13 Q1017 NOSIG=
202512070500 METAR VABB 070500Z 10008KT 2500 FU FEW100 28/13 Q1017 NOSIG=
202512070530 METAR VABB 070530Z 11009KT 2500 FU FEW100 29/13 Q1017 NOSIG=
202512070600 METAR VABB 070600Z 12010KT 2500 FU FEW100 30/14 Q1016 NOSIG=
202512070630 METAR VABB 070630Z 14009KT 2500 FU FEW100 30/14 Q1016 BECMG 3000 FU=
202512070700 METAR VABB 070700Z 13008KT 3000 FU NSC 31/13 Q1015 NOSIG=
202512070730 METAR VABB 070730Z 10008KT 3000 FU NSC 31/13 Q1015 NOSIG=
202512070800 METAR VABB 070800Z 10008KT 3000 FU NSC 32/12 Q1014 NOSIG=
202512070830 METAR VABB 070830Z 14006KT 3000 FU NSC 32/12 Q1014 NOSIG=
202512070900 METAR VABB 070900Z 12004KT 3000 FU NSC 33/13 Q1013 NOSIG=
202512070930 METAR VABB 070930Z 13005KT 3000 FU NSC 33/12 Q1013 NOSIG=
202512071000 METAR VABB 071000Z 21004KT 3000 FU NSC 30/17 Q1013 NOSIG=
202512071026 METAR VABB 071026Z 28009KT 3000 FU NSC 31/14 Q1013 NOSIG=
202512071030 METAR VABB 071030Z 28009KT 3000 FU NSC 31/14 Q1013 NOSIG=
202512071100 METAR VABB 071100Z 31008KT 3000 FU NSC 32/14 Q1013 NOSIG=
202512071130 METAR VABB 071130Z 30006KT 3000 FU NSC 30/18 Q1013 BECMG 2500 FU=
202512071200 METAR VABB 071200Z 31009KT 2500 FU NSC 29/18 Q1013 NOSIG=
202512010000 METAR VABB NIL=
202512071230 METAR VABB 071230Z 32007KT 2500 FU NSC 29/19 Q1013 NOSIG=
202512071300 METAR VABB 071300Z 33007KT 2500 FU NSC 28/19 Q1013 NOSIG=
202512071330 METAR VABB 071330Z 32008KT 2500 FU NSC 27/20 Q1014 NOSIG=
202512071400 METAR VABB 071400Z 34007KT 2500 FU NSC 27/19 Q1014 NOSIG=
202512071430 METAR VABB 071430Z 33004KT 2500 FU NSC 27/20 Q1015 NOSIG=
202512071500 METAR VABB 071500Z 33005KT 2500 FU NSC 27/19 Q1015 NOSIG=
202512071530 METAR VABB 071530Z 33004KT 2500 HZ NSC 27/20 Q1015 NOSIG=
202512071600 METAR VABB 071600Z 00000KT 2500 HZ NSC 27/19 Q1015 NOSIG=
202512071630 METAR VABB 071630Z 08003KT 2500 HZ NSC 26/20 Q1015 NOSIG=
202512071700 METAR VABB 071700Z 00000KT 2500 HZ NSC 26/19 Q1015 NOSIG=
202512071730 METAR VABB 071730Z 34003KT 2500 HZ NSC 26/19 Q1015 NOSIG=
202512071800 METAR VABB 071800Z 36003KT 2500 HZ NSC 26/19 Q1015 NOSIG=
202512071830 METAR VABB 071830Z 00000KT 2500 HZ NSC 25/19 Q1015 NOSIG=
202512071900 METAR VABB 071900Z 00000KT 2500 HZ NSC 25/19 Q1014 NOSIG=
202512071930 METAR VABB 071930Z 00000KT 2500 HZ NSC 25/20 Q1014 NOSIG=
202512072000 METAR VABB 072000Z 00000KT 2500 HZ NSC 25/20 Q1014 NOSIG=
202512072030 METAR VABB 072030Z 05004KT 2500 HZ NSC 25/20 Q1014 NOSIG=
202512072100 METAR VABB 072100Z 12004KT 2500 HZ NSC 25/19 Q1014 NOSIG=
202512072130 METAR VABB 072130Z 11004KT 2500 HZ NSC 25/18 Q1014 NOSIG=
202512072200 METAR VABB 072200Z 10007KT 2500 HZ NSC 24/18 Q1013 NOSIG=
202512072230 METAR VABB 072230Z 11006KT 2500 HZ NSC 23/18 Q1013 NOSIG=
202512072300 METAR VABB 072300Z 09003KT 2500 HZ NSC 24/17 Q1014 NOSIG=
202512072330 METAR VABB 072330Z 08004KT 2500 HZ NSC 24/17 Q1014 NOSIG=
202512080000 METAR VABB 080000Z 00000KT 2500 HZ NSC 23/17 Q1014 NOSIG=
202512080030 METAR VABB 080030Z 07003KT 2500 HZ NSC 23/17 Q1014 NOSIG=
202512080100 METAR VABB 080100Z 10005KT 2500 HZ NSC 24/16 Q1015 NOSIG=
202512080130 METAR VABB 080130Z 10007KT 2100 HZ NSC 23/15 Q1015 NOSIG=
202512080200 METAR VABB 080200Z 11005KT 2100 HZ NSC 24/14 Q1015 NOSIG=
202512080230 METAR VABB 080230Z 11003KT 2100 FU NSC 25/14 Q1016 NOSIG=
202512080300 METAR VABB 080300Z 12005KT 2100 FU NSC 25/15 Q1016 NOSIG=
202512080330 METAR VABB 080330Z 12008KT 2500 FU NSC 26/14 Q1016 NOSIG=
202512080400 METAR VABB 080400Z 13009KT 2500 FU NSC 28/12 Q1016 NOSIG=
202512080430 METAR VABB 080430Z 12008KT 2500 FU NSC 28/13 Q1017 NOSIG=
202512080500 METAR VABB 080500Z 13008KT 2500 FU NSC 29/11 Q1017 NOSIG=
202512080530 METAR VABB 080530Z 11008KT 2500 FU NSC 30/11 Q1016 BECMG 3000 FU=
202512080600 METAR VABB 080600Z 11008KT 2500 FU NSC 30/11 Q1016 NOSIG=
202512080630 METAR VABB 080630Z 10009KT 3000 FU NSC 31/12 Q1016 NOSIG=
202512080700 METAR VABB 080700Z 06005KT 3000 FU NSC 31/11 Q1015 NOSIG=
202512080730 METAR VABB 080730Z 11007KT 3000 FU NSC 32/11 Q1015 NOSIG=
202512080800 METAR VABB 080800Z 15007KT 3000 FU NSC 33/11 Q1014 NOSIG=
202512080830 METAR VABB 080830Z 01005KT 3000 FU NSC 33/11 Q1014 NOSIG=
202512080900 METAR VABB 080900Z 35005KT 3500 FU NSC 33/11 Q1013 NOSIG=
202512080930 METAR VABB 080930Z 28007KT 3500 FU NSC 32/16 Q1013 NOSIG=
202512081000 METAR VABB 081000Z 30006KT 3500 FU NSC 32/17 Q1013 NOSIG=
202512081030 METAR VABB 081030Z 28008KT 3500 FU NSC 32/14 Q1013 NOSIG=
202512081100 METAR VABB 081100Z 34006KT 3500 FU NSC 32/13 Q1012 NOSIG=
202512081130 METAR VABB 081130Z 32007KT 3500 FU NSC 31/15 Q1013 NOSIG=
202512081200 METAR VABB 081200Z 32006KT 3500 FU NSC 30/16 Q1013 NOSIG=
202512081230 METAR VABB 081230Z 35005KT 3500 FU NSC 30/16 Q1013 BECMG 3000 FU=
202512081300 METAR VABB 081300Z 33005KT 3000 FU NSC 30/16 Q1013 NOSIG=
202512081330 METAR VABB 081330Z 35005KT 3000 FU NSC 29/14 Q1014 NOSIG=
202512081400 METAR VABB 081400Z 36008KT 3000 FU NSC 28/16 Q1014 NOSIG=
202512081430 METAR VABB 081430Z 02005KT 3000 FU NSC 28/17 Q1014 NOSIG=
202512081500 METAR VABB 081500Z 02006KT 3000 FU NSC 29/17 Q1014 NOSIG=
202512081530 METAR VABB 081530Z 01005KT 3000 FU NSC 28/16 Q1014 BECMG 1500 FU=
202512081600 METAR VABB 081600Z 05004KT 3000 FU NSC 29/15 Q1015 NOSIG=
202512081630 METAR VABB 081630Z 10005KT 3000 FU NSC 28/14 Q1015 NOSIG=
202512081700 METAR VABB 081700Z 13007KT 3000 FU NSC 27/16 Q1015 NOSIG=
202512081730 METAR VABB 081730Z 11006KT 3000 FU NSC 27/15 Q1014 NOSIG=
202512081800 METAR VABB 081800Z 11005KT 3000 FU NSC 26/15 Q1014 NOSIG=
202512081830 METAR VABB 081830Z 09004KT 3000 FU NSC 26/15 Q1014 NOSIG=
202512081900 METAR VABB 081900Z 05004KT 3000 FU NSC 26/15 Q1014 NOSIG=
202512081930 METAR VABB 081930Z 07004KT 3000 FU NSC 25/14 Q1014 NOSIG=
202512082000 METAR VABB 082000Z 08003KT 3000 FU NSC 25/14 Q1014 NOSIG=
202512082030 METAR VABB 082030Z 00000KT 3000 FU NSC 25/14 Q1014 NOSIG=
202512082100 METAR VABB 082100Z 13003KT 3000 FU NSC 26/12 Q1013 NOSIG=
202512082130 METAR VABB 082130Z 14003KT 3000 FU NSC 25/11 Q1013 NOSIG=
202512082200 METAR VABB 082200Z 10004KT 3000 FU NSC 24/12 Q1013 NOSIG=
202512082230 METAR VABB 082230Z 12004KT 3000 FU NSC 24/12 Q1013 NOSIG=
202512082300 METAR VABB 082300Z 00000KT 3000 FU NSC 24/11 Q1013 NOSIG=
202512082330 METAR VABB 082330Z 00000KT 3000 FU NSC 25/10 Q1013 NOSIG=
202512090000 METAR VABB 090000Z 00000KT 3000 FU NSC 23/10 Q1013 NOSIG=
202512090030 METAR VABB 090030Z 16004KT 3000 FU NSC 24/10 Q1013 NOSIG=
202512090100 METAR VABB 090100Z 00000KT 3000 FU NSC 24/09 Q1014 TEMPO 1500 FU=
202512090130 METAR VABB 090130Z 00000KT 2500 FU NSC 24/09 Q1014 NOSIG=
202512090200 METAR VABB 090200Z 06004KT 2500 FU NSC 24/09 Q1014 NOSIG=
202512090230 METAR VABB 090230Z 08005KT 2500 FU NSC 25/08 Q1015 NOSIG=
202512090300 METAR VABB 090300Z 07004KT 2500 FU NSC 26/08 Q1015 BECMG 3000 FU=
202512090330 METAR VABB 090330Z 07005KT 3000 FU NSC 27/08 Q1015 NOSIG=
202512090400 METAR VABB 090400Z 11008KT 3000 FU NSC 28/08 Q1016 NOSIG=
202512090430 METAR VABB 090430Z 12009KT 3000 FU NSC 29/07 Q1016 NOSIG=
202512090500 METAR VABB 090500Z 09009KT 3000 FU NSC 30/05 Q1016 NOSIG=
202512090530 METAR VABB 090530Z 08007KT 3000 FU NSC 31/04 Q1015 NOSIG=
202512090600 METAR VABB 090600Z 09007KT 3500 FU NSC 31/04 Q1015 NOSIG=
202512090630 METAR VABB 090630Z 11010KT 4000 FU NSC 32/06 Q1015 NOSIG=
202512090700 METAR VABB 090700Z 10008KT 4000 FU NSC 32/06 Q1014 NOSIG=
202512090730 METAR VABB 090730Z 08007KT 4000 FU NSC 32/07 Q1014 NOSIG=
202512090800 METAR VABB 090800Z 16005KT 4000 FU NSC 32/07 Q1013 NOSIG=
202512090830 METAR VABB 090830Z 12004KT 4000 FU NSC 34/06 Q1013 NOSIG=
202512090900 METAR VABB 090900Z 07006KT 4000 FU NSC 33/06 Q1013 NOSIG=
202512090930 METAR VABB 090930Z 36006KT 4000 FU NSC 34/06 Q1013 NOSIG=
202512091000 METAR VABB 091000Z 04006KT 4000 FU NSC 33/06 Q1012 NOSIG=
202512091030 METAR VABB 091030Z 05006KT 4000 FU NSC 33/06 Q1012 NOSIG=
202512091100 METAR VABB 091100Z 05006KT 4000 FU NSC 33/07 Q1012 BECMG 3000 FU=
202512091130 METAR VABB 091130Z 06006KT 3500 FU NSC 33/06 Q1012 NOSIG=
202512091200 METAR VABB 091200Z 03006KT 3000 FU NSC 32/07 Q1012 NOSIG=
202512091230 METAR VABB 091230Z 03007KT 3000 FU NSC 32/06 Q1013 NOSIG=
202512091300 METAR VABB 091300Z 01005KT 3000 FU NSC 31/10 Q1013 NOSIG=
202512091330 METAR VABB 091330Z 05006KT 3000 FU NSC 30/11 Q1013 NOSIG=
202512091400 METAR VABB 091400Z 01005KT 3000 FU NSC 28/14 Q1014 NOSIG=
202512091430 METAR VABB 091430Z 04006KT 3000 FU NSC 30/11 Q1014 NOSIG=
202512091500 METAR VABB 091500Z 03007KT 3000 FU NSC 29/10 Q1014 NOSIG=
202512010000 METAR VABB NIL=
202512091530 METAR VABB 091530Z 04003KT 3000 FU NSC 27/10 Q1014 NOSIG=
202512091600 METAR VABB 091600Z 05003KT 3000 FU NSC 27/11 Q1015 NOSIG=
202512091630 METAR VABB 091630Z 07006KT 3000 FU NSC 28/09 Q1015 NOSIG=
202512091700 METAR VABB 091700Z 06006KT 3000 FU NSC 27/09 Q1015 NOSIG=
202512091730 METAR VABB 091730Z 06006KT 3000 FU NSC 27/09 Q1015 NOSIG=
202512091800 METAR VABB 091800Z 07005KT 3000 FU NSC 27/09 Q1015 NOSIG=
202512091830 METAR VABB 091830Z 09005KT 3000 FU NSC 27/09 Q1014 NOSIG=
202512091900 METAR VABB 091900Z 09003KT 3000 FU NSC 26/09 Q1014 NOSIG=
202512091930 METAR VABB 091930Z 07003KT 3000 FU NSC 25/09 Q1014 NOSIG=
202512092000 METAR VABB 092000Z 00000KT 3000 FU NSC 25/08 Q1014 NOSIG=
202512010000 METAR VABB NIL=
202512092030 METAR VABB 092030Z 07003KT 3000 FU NSC 25/09 Q1014 NOSIG=
202512092100 METAR VABB 092100Z 05006KT 3000 FU NSC 26/09 Q1014 NOSIG=
202512010000 METAR VABB NIL=
202512092130 METAR VABB 092130Z 08007KT 3000 FU NSC 25/08 Q1014 NOSIG=
202512092200 METAR VABB 092200Z 08003KT 3000 FU NSC 24/10 Q1014 NOSIG=
202512010000 METAR VABB NIL=
202512092230 METAR VABB 092230Z 12003KT 3000 FU NSC 21/11 Q1014 NOSIG=
202512092300 METAR VABB 092300Z 07007KT 3000 FU NSC 25/09 Q1014 NOSIG=
202512010000 METAR VABB NIL=
202512092330 METAR VABB 092330Z 10005KT 3000 FU NSC 24/08 Q1014 NOSIG=
202512100000 METAR VABB 100000Z 09004KT 3000 FU NSC 24/07 Q1014 NOSIG=
202512100030 METAR VABB 100030Z 08006KT 3000 FU NSC 24/08 Q1015 NOSIG=
202512100100 METAR VABB 100100Z 07006KT 2500 FU NSC 24/08 Q1015 NOSIG=
202512100130 METAR VABB 100130Z 08007KT 2500 FU NSC 25/07 Q1015 NOSIG=
202512100200 METAR VABB 100200Z 18004KT 2500 FU NSC 24/07 Q1015 NOSIG=
202512100230 METAR VABB 100230Z 10005KT 2500 FU NSC 25/07 Q1016 NOSIG=
202512100300 METAR VABB 100300Z 08004KT 2200 FU NSC 26/07 Q1016 NOSIG=
202512100330 METAR VABB 100330Z 06006KT 2500 FU NSC 26/08 Q1016 NOSIG=
202512100400 METAR VABB 100400Z 15003KT 2500 FU NSC 28/08 Q1017 NOSIG=
202512100430 METAR VABB 100430Z 04005KT 2500 FU NSC 29/08 Q1017 BECMG 3000 FU=
202512100500 METAR VABB 100500Z 10004KT 3000 FU NSC 30/07 Q1017 NOSIG=
202512100530 METAR VABB 100530Z 06007KT 3000 FU NSC 31/06 Q1017 NOSIG=
202512100600 METAR VABB 100600Z 06006KT 3000 FU NSC 31/06 Q1016 NOSIG=
202512100630 METAR VABB 100630Z 09006KT 3000 FU NSC 31/05 Q1016 NOSIG=
202512100700 METAR VABB 100700Z 06006KT 3000 FU NSC 32/06 Q1015 BECMG 5000 FU=
202512100730 METAR VABB 100730Z 09005KT 4000 FU NSC 32/07 Q1015 NOSIG=
202512100800 METAR VABB 100800Z 03008KT 4000 FU NSC 33/06 Q1014 NOSIG=
202512100830 METAR VABB 100830Z 04006KT 4000 FU NSC 33/07 Q1014 NOSIG=
202512100900 METAR VABB 100900Z 02007KT 4000 FU NSC 33/07 Q1013 BECMG 5000 FU=
202512100930 METAR VABB 100930Z 07007KT 5000 FU NSC 33/06 Q1013 NOSIG=
202512101000 METAR VABB 101000Z 02008KT 5000 FU NSC 33/05 Q1013 NOSIG=
202512101030 METAR VABB 101030Z 06007KT 5000 FU NSC 34/06 Q1013 NOSIG=
202512101100 METAR VABB 101100Z 02007KT 5000 FU NSC 34/06 Q1013 NOSIG=
202512101130 METAR VABB 101130Z 02007KT 5000 FU NSC 33/13 Q1013 NOSIG=
202512101200 METAR VABB 101200Z 35006KT 5000 FU NSC 31/13 Q1013 NOSIG=
202512101230 METAR VABB 101230Z 36007KT 4000 FU NSC 30/12 Q1013 NOSIG=
202512101300 METAR VABB 101300Z 01006KT 4000 FU NSC 29/14 Q1013 NOSIG=
202512101330 METAR VABB 101330Z 36006KT 4000 FU NSC 29/12 Q1014 NOSIG=
202512101400 METAR VABB 101400Z 01005KT 3500 FU NSC 28/13 Q1014 NOSIG=
202512101430 METAR VABB 101430Z 02006KT 3500 FU NSC 28/14 Q1014 NOSIG=
202512101500 METAR VABB 101500Z 36005KT 3500 FU NSC 28/13 Q1015 NOSIG=
202512101530 METAR VABB 101530Z 08004KT 3500 FU NSC 27/13 Q1015 NOSIG=
202512101600 METAR VABB 101600Z 10003KT 3500 FU NSC 28/12 Q1015 NOSIG=
202512101601 METAR VABB 101601Z 10003KT 3500 FU NSC 28/12 Q1015 NOSIG=
202512101630 METAR VABB 101630Z 02003KT 3500 FU NSC 27/12 Q1015 NOSIG=
202512101700 METAR VABB 101700Z 16004KT 3500 FU NSC 27/13 Q1015 NOSIG=
202512101730 METAR VABB 101730Z 06003KT 3500 FU NSC 27/11 Q1015 BECMG 3000 FU=
202512101800 METAR VABB 101800Z 15003KT 3000 FU NSC 26/11 Q1015 NOSIG=
202512101830 METAR VABB 101830Z 00000KT 3000 FU NSC 26/09 Q1015 NOSIG=
202512101900 METAR VABB 101900Z 00000KT 3000 FU NSC 25/10 Q1015 NOSIG=
202512010000 METAR VABB NIL=
202512101930 METAR VABB 101930Z 15003KT 3000 FU NSC 26/10 Q1015 NOSIG=
202512102000 METAR VABB 102000Z 13005KT 3000 FU NSC 25/10 Q1014 NOSIG=
202512102030 METAR VABB 102030Z 17003KT 3000 FU NSC 25/10 Q1014 NOSIG=
202512102100 METAR VABB 102100Z 00000KT 3000 FU NSC 24/09 Q1014 NOSIG=
202512102130 METAR VABB 102130Z 17003KT 2500 FU NSC 25/08 Q1014 NOSIG=
202512102200 METAR VABB 102200Z 13003KT 2500 FU NSC 23/10 Q1014 NOSIG=
202512102230 METAR VABB 102230Z 00000KT 3000 FU NSC 22/11 Q1014 NOSIG=
202512102300 METAR VABB 102300Z 00000KT 3000 FU NSC 24/09 Q1014 NOSIG=
202512102330 METAR VABB 102330Z 12004KT 3000 FU NSC 25/07 Q1014 NOSIG=
202512110000 METAR VABB 110000Z 09006KT 3000 FU NSC 25/07 Q1014 NOSIG=
202512110030 METAR VABB 110030Z 11008KT 3000 FU NSC 23/08 Q1014 NOSIG=
202512110100 METAR VABB 110100Z 12009KT 3000 FU NSC 24/07 Q1014 NOSIG=
202512110130 METAR VABB 110130Z 11008KT 2500 FU NSC 24/07 Q1015 NOSIG=
202512110200 METAR VABB 110200Z 11009KT 2100 FU NSC 24/07 Q1015 NOSIG=
202512110230 METAR VABB 110230Z 13008KT 2100 FU NSC 24/08 Q1016 NOSIG=
202512110300 METAR VABB 110300Z 08005KT 2100 FU NSC 25/08 Q1016 NOSIG=
202512110330 METAR VABB 110330Z 08005KT 2500 FU NSC 26/08 Q1017 NOSIG=
202512110400 METAR VABB 110400Z 13009KT 2500 FU NSC 27/07 Q1017 BECMG 3000 FU=
202512110430 METAR VABB 110430Z 12008KT 3000 FU NSC 27/08 Q1017 NOSIG=
202512110500 METAR VABB 110500Z 14009KT 3000 FU NSC 29/08 Q1016 NOSIG=
202512110530 METAR VABB 110530Z 13009KT 3000 FU NSC 29/06 Q1016 NOSIG=
202512110600 METAR VABB 110600Z 13010KT 3000 FU NSC 31/07 Q1016 NOSIG=
202512110630 METAR VABB 110630Z 10007KT 3500 FU NSC 31/08 Q1015 NOSIG=
202512110700 METAR VABB 110700Z 09008KT 3500 FU NSC 32/06 Q1015 NOSIG=
202512110730 METAR VABB 110730Z 10007KT 3500 FU NSC 32/05 Q1014 NOSIG=
202512110800 METAR VABB 110800Z 09008KT 4000 FU NSC 32/04 Q1013 NOSIG=
202512110830 METAR VABB 110830Z 03006KT 4000 FU NSC 32/05 Q1013 NOSIG=
202512110900 METAR VABB 110900Z 03006KT 4000 FU NSC 32/05 Q1012 BECMG 5000 FU=
202512110930 METAR VABB 110930Z 04008KT 5000 FU NSC 32/06 Q1012 NOSIG=
202512111000 METAR VABB 111000Z 05004KT 5000 FU NSC 32/06 Q1012 NOSIG=
202512111030 METAR VABB 111030Z 01005KT 5000 FU NSC 32/05 Q1012 NOSIG=
202512111100 METAR VABB 111100Z 01007KT 5000 FU NSC 32/04 Q1012 NOSIG=
202512111130 METAR VABB 111130Z 01007KT 5000 FU NSC 32/05 Q1012 NOSIG=
202512111200 METAR VABB 111200Z 36006KT 5000 FU NSC 31/07 Q1012 NOSIG=
202512111230 METAR VABB 111230Z 33007KT 4000 FU NSC 29/14 Q1012 NOSIG=
202512111300 METAR VABB 111300Z 34006KT 4000 FU NSC 28/14 Q1012 NOSIG=
202512111330 METAR VABB 111330Z 35006KT 4000 FU NSC 28/14 Q1013 NOSIG=
202512111400 METAR VABB 111400Z 35006KT 4000 FU NSC 28/13 Q1013 NOSIG=
202512111430 METAR VABB 111430Z 01006KT 4000 FU NSC 27/14 Q1013 NOSIG=
202512111500 METAR VABB 111500Z 02007KT 3500 FU NSC 27/14 Q1013 BECMG 3000 FU=
202512111530 METAR VABB 111530Z 02007KT 3000 FU NSC 26/14 Q1013 NOSIG=
202512111600 METAR VABB 111600Z 04007KT 3000 FU NSC 27/14 Q1014 NOSIG=
202512111630 METAR VABB 111630Z 00000KT 3000 FU NSC 26/13 Q1014 NOSIG=
202512111700 METAR VABB 111700Z 11004KT 3000 FU NSC 25/14 Q1014 NOSIG=
202512111730 METAR VABB 111730Z 00000KT 3000 FU NSC 25/14 Q1014 NOSIG=
202512111800 METAR VABB 111800Z 10003KT 3000 FU NSC 24/14 Q1014 NOSIG=
202512111830 METAR VABB 111830Z 16005KT 3000 FU NSC 24/13 Q1013 NOSIG=
202512111900 METAR VABB 111900Z 14004KT 3000 FU NSC 24/12 Q1013 NOSIG=
202512111930 METAR VABB 111930Z 13003KT 3000 FU NSC 24/12 Q1013 NOSIG=
202512112000 METAR VABB 112000Z 11007KT 3000 FU NSC 24/12 Q1013 NOSIG=
202512112030 METAR VABB 112030Z 09004KT 3000 FU NSC 24/11 Q1012 NOSIG=
202512112100 METAR VABB 112100Z 14005KT 3000 FU NSC 25/11 Q1012 NOSIG=
202512112130 METAR VABB 112130Z 11004KT 3000 FU NSC 24/11 Q1012 NOSIG=
202512112200 METAR VABB 112200Z 11003KT 3000 FU NSC 23/11 Q1012 NOSIG=
202512112230 METAR VABB 112230Z 14003KT 3000 FU NSC 22/12 Q1012 NOSIG=
202512112300 METAR VABB 112300Z 14003KT 3000 FU NSC 23/12 Q1013 NOSIG=
202512010000 METAR VABB NIL=
202512112330 METAR VABB 112330Z 13005KT 3000 FU NSC 23/11 Q1013 NOSIG=
202512120000 METAR VABB 120000Z 12006KT 2500 FU NSC 23/11 Q1013 NOSIG=
202512120030 METAR VABB 120030Z 13007KT 2500 FU NSC 22/11 Q1013 NOSIG=
202512120100 METAR VABB 120100Z 14005KT 2500 FU NSC 22/12 Q1013 NOSIG=
202512120130 METAR VABB 120130Z 12006KT 2500 FU NSC 21/12 Q1014 NOSIG=
202512120200 METAR VABB 120200Z 12006KT 2500 FU NSC 22/11 Q1014 NOSIG=
202512120230 METAR VABB 120230Z 11005KT 2500 FU NSC 23/11 Q1014 NOSIG=
202512120300 METAR VABB 120300Z 13006KT 2500 FU NSC 23/12 Q1015 NOSIG=
202512120330 METAR VABB 120330Z 13009KT 2500 FU NSC 25/11 Q1015 NOSIG=
202512120400 METAR VABB 120400Z 11009KT 2500 FU NSC 26/09 Q1015 NOSIG=
202512120430 METAR VABB 120430Z 13008KT 2500 FU NSC 27/09 Q1015 BECMG 3000 FU=
202512120500 METAR VABB 120500Z 12008KT 3000 FU NSC 28/09 Q1015 NOSIG=
202512120530 METAR VABB 120530Z 12009KT 3000 FU NSC 28/10 Q1015 NOSIG=
202512120600 METAR VABB 120600Z 14009KT 3000 FU NSC 29/09 Q1014 NOSIG=
202512120630 METAR VABB 120630Z 14009KT 3000 FU NSC 30/08 Q1014 NOSIG=
202512120700 METAR VABB 120700Z 14008KT 3000 FU NSC 31/08 Q1013 NOSIG=
202512120730 METAR VABB 120730Z 14004KT 3500 FU NSC 31/07 Q1013 NOSIG=
202512120800 METAR VABB 120800Z 16007KT 4000 FU NSC 32/08 Q1012 NOSIG=
202512010000 METAR VABB NIL=
202512120830 METAR VABB 120830Z 30010KT 4000 FU NSC 30/15 Q1012 NOSIG=
202512120900 METAR VABB 120900Z 28010KT 4000 FU NSC 31/11 Q1011 NOSIG=
202512010000 METAR VABB NIL=
202512120930 METAR VABB 120930Z 28009KT 4000 FU NSC 31/11 Q1011 NOSIG=
202512121000 METAR VABB 121000Z 28008KT 4000 FU NSC 31/12 Q1011 NOSIG=
202512010000 METAR VABB NIL=
202512121030 METAR VABB 121030Z 33008KT 4000 FU NSC 31/10 Q1011 NOSIG=
202512121100 METAR VABB 121100Z 31009KT 4000 FU NSC 30/11 Q1011 NOSIG=
202512010000 METAR VABB NIL=
202512121130 METAR VABB 121130Z 31009KT 4000 FU NSC 30/10 Q1011 NOSIG=
202512121200 METAR VABB 121200Z 33007KT 4000 FU NSC 29/10 Q1011 NOSIG=
202512010000 METAR VABB NIL=
202512121230 METAR VABB 121230Z 33006KT 4000 FU NSC 28/11 Q1012 NOSIG=
202512121300 METAR VABB 121300Z 32006KT 3500 FU NSC 28/11 Q1012 NOSIG=
202512010000 METAR VABB NIL=
202512121330 METAR VABB 121330Z 35006KT 3500 FU NSC 28/12 Q1013 NOSIG=
202512121400 METAR VABB 121400Z 34005KT 3500 FU NSC 27/12 Q1013 NOSIG=
202512010000 METAR VABB NIL=
202512121430 METAR VABB 121430Z 01006KT 3500 FU NSC 27/13 Q1013 NOSIG=
202512121500 METAR VABB 121500Z 04005KT 3500 FU NSC 27/13 Q1013 NOSIG=
202512121530 METAR VABB 121530Z 01004KT 3500 FU NSC 26/12 Q1014 NOSIG=
202512121600 METAR VABB 121600Z 02005KT 3500 FU NSC 26/12 Q1014 NOSIG=
202512121630 METAR VABB 121630Z 14005KT 3500 FU NSC 26/10 Q1014 NOSIG=
202512121700 METAR VABB 121700Z 15004KT 3500 FU NSC 26/11 Q1014 NOSIG=
202512121730 METAR VABB 121730Z 12004KT 3500 FU NSC 25/12 Q1014 NOSIG=
202512121800 METAR VABB 121800Z 14003KT 3500 FU NSC 25/12 Q1013 BECMG 3000 FU=
202512121830 METAR VABB 121830Z 08004KT 3000 FU NSC 26/12 Q1013 NOSIG=
202512121900 METAR VABB 121900Z 05004KT 3000 FU NSC 25/13 Q1013 NOSIG=
202512121930 METAR VABB 121930Z 00000KT 3000 FU NSC 25/13 Q1013 NOSIG=
202512122000 METAR VABB 122000Z 00000KT 3000 FU NSC 24/14 Q1013 NOSIG=
202512122030 METAR VABB 122030Z 09003KT 3000 FU NSC 24/13 Q1012 NOSIG=
202512122100 METAR VABB 122100Z 00000KT 3000 FU NSC 24/12 Q1012 NOSIG=
202512122130 METAR VABB 122130Z 10004KT 3000 FU NSC 24/12 Q1012 NOSIG=
202512122200 METAR VABB 122200Z 10006KT 3000 FU NSC 22/13 Q1012 NOSIG=
202512122230 METAR VABB 122230Z 09005KT 3000 FU NSC 22/13 Q1012 NOSIG=
202512122300 METAR VABB 122300Z 15004KT 3000 FU NSC 23/13 Q1012 NOSIG=
202512122330 METAR VABB 122330Z 00000KT 3000 FU NSC 22/13 Q1012 NOSIG=
202512130000 METAR VABB 130000Z 10003KT 3000 FU NSC 22/14 Q1012 NOSIG=
202512130030 METAR VABB 130030Z 14004KT 3000 FU NSC 22/14 Q1012 NOSIG=
202512130100 METAR VABB 130100Z 10006KT 3000 FU NSC 21/14 Q1013 NOSIG=
202512130130 METAR VABB 130130Z 10006KT 2500 FU NSC 22/13 Q1013 NOSIG=
202512130200 METAR VABB 130200Z 11004KT 2500 FU NSC 23/13 Q1013 NOSIG=
202512130230 METAR VABB 130230Z 11005KT 2100 FU NSC 23/13 Q1014 NOSIG=
202512130300 METAR VABB 130300Z 13005KT 2100 FU NSC 24/13 Q1014 NOSIG=
202512130330 METAR VABB 130330Z 10005KT 2100 FU NSC 26/12 Q1014 NOSIG=
202512130400 METAR VABB 130400Z 12007KT 2500 FU NSC 27/12 Q1015 NOSIG=
202512130430 METAR VABB 130430Z 11009KT 2500 FU NSC 29/09 Q1015 NOSIG=
202512130500 METAR VABB 130500Z 12009KT 2500 FU NSC 29/09 Q1015 BECMG 3000 FU=
202512130530 METAR VABB 130530Z 13011KT 3000 FU NSC 30/08 Q1015 NOSIG=
202512130600 METAR VABB 130600Z 11009KT 3000 FU NSC 30/10 Q1014 NOSIG=
202512130630 METAR VABB 130630Z 13008KT 3000 FU NSC 31/09 Q1014 NOSIG=
202512130700 METAR VABB 130700Z 14008KT 3000 FU NSC 32/08 Q1013 NOSIG=
202512130730 METAR VABB 130730Z 16005KT 3500 FU NSC 32/08 Q1012 NOSIG=
202512130800 METAR VABB 130800Z 17003KT 3500 FU NSC 32/07 Q1012 NOSIG=
202512130830 METAR VABB 130830Z 30009KT 3500 FU NSC 30/16 Q1012 NOSIG=
202512130900 METAR VABB 130900Z 27008KT 3500 FU NSC 32/15 Q1012 NOSIG=
202512130930 METAR VABB 130930Z 25009KT 3500 FU NSC 31/16 Q1011 NOSIG=
202512131000 METAR VABB 131000Z 27008KT 3500 FU NSC 31/14 Q1011 NOSIG=
202512131030 METAR VABB 131030Z 27009KT 3500 FU NSC 30/15 Q1011 NOSIG=
202512131100 METAR VABB 131100Z 27008KT 3500 FU NSC 30/15 Q1011 NOSIG=
202512131130 METAR VABB 131130Z 29008KT 3500 FU NSC 30/14 Q1011 NOSIG=
202512131200 METAR VABB 131200Z 31008KT 3500 FU NSC 30/13 Q1011 NOSIG=
202512131230 METAR VABB 131230Z 29006KT 3500 FU NSC 28/13 Q1012 BECMG 3000 FU=
202512131300 METAR VABB 131300Z 33006KT 3000 FU NSC 28/17 Q1012 NOSIG=
202512131330 METAR VABB 131330Z 32005KT 3000 FU NSC 28/17 Q1013 NOSIG=
202512131400 METAR VABB 131400Z 33005KT 3000 FU NSC 27/16 Q1013 NOSIG=
202512131430 METAR VABB 131430Z 36005KT 3000 FU NSC 28/14 Q1013 NOSIG=
202512131500 METAR VABB 131500Z 03004KT 3000 FU NSC 27/15 Q1014 NOSIG=
202512131530 METAR VABB 131530Z 36004KT 3000 FU NSC 27/14 Q1014 NOSIG=
202512131600 METAR VABB 131600Z 04004KT 3000 FU NSC 26/14 Q1014 NOSIG=
202512131630 METAR VABB 131630Z 16003KT 3000 FU NSC 27/11 Q1014 NOSIG=
202512131700 METAR VABB 131700Z 18004KT 3000 FU NSC 26/13 Q1014 NOSIG=
202512131730 METAR VABB 131730Z 16004KT 3000 FU NSC 26/14 Q1014 NOSIG=
202512131800 METAR VABB 131800Z 13005KT 3000 FU NSC 26/14 Q1013 NOSIG=
202512131830 METAR VABB 131830Z 13004KT 3000 FU NSC 25/15 Q1013 NOSIG=
202512131900 METAR VABB 131900Z 14005KT 3000 FU NSC 25/16 Q1013 NOSIG=
202512131930 METAR VABB 131930Z 17004KT 3000 FU NSC 24/16 Q1013 NOSIG=
202512132000 METAR VABB 132000Z 00000KT 3000 FU NSC 24/13 Q1013 NOSIG=
202512132030 METAR VABB 132030Z 09004KT 3000 FU NSC 24/13 Q1012 NOSIG=
202512132100 METAR VABB 132100Z 12006KT 3000 FU NSC 24/13 Q1013 NOSIG=
202512132130 METAR VABB 132130Z 10006KT 3000 FU NSC 23/14 Q1013 NOSIG=
202512132200 METAR VABB 132200Z 10005KT 3000 FU NSC 23/14 Q1013 NOSIG=
202512132230 METAR VABB 132230Z 13004KT 3000 FU NSC 22/14 Q1013 NOSIG=
202512132300 METAR VABB 132300Z 13007KT 3000 FU NSC 23/14 Q1013 NOSIG=
202512132330 METAR VABB 132330Z 13005KT 3000 FU NSC 23/14 Q1013 NOSIG=
202512140000 METAR VABB 140000Z 11006KT 3000 FU NSC 23/14 Q1013 NOSIG=
202512140030 METAR VABB 140030Z 12006KT 3000 FU NSC 23/14 Q1013 NOSIG=
202512140100 METAR VABB 140100Z 16005KT 3000 FU NSC 22/14 Q1014 NOSIG=
202512140130 METAR VABB 140130Z 13005KT 2100 FU NSC 23/14 Q1014 NOSIG=
202512140200 METAR VABB 140200Z 13006KT 2100 FU NSC 22/14 Q1014 NOSIG=
202512010000 METAR VABB NIL=
202512140230 METAR VABB 140230Z 12008KT 2100 FU NSC 23/14 Q1015 NOSIG=
202512140300 METAR VABB 140300Z 12008KT 2100 FU NSC 23/14 Q1015 NOSIG=
202512010000 METAR VABB NIL=
202512140330 METAR VABB 140330Z 12008KT 2100 FU NSC 24/14 Q1016 NOSIG=
202512140400 METAR VABB 140400Z 11008KT 2100 FU NSC 26/14 Q1016 NOSIG=
202512140430 METAR VABB 140430Z 13007KT 2500 FU NSC 28/13 Q1016 NOSIG=
202512140500 METAR VABB 140500Z 14008KT 2500 FU NSC 29/11 Q1016 BECMG 3000 FU=
202512140530 METAR VABB 140530Z 13010G20KT 3000 FU NSC 29/09 Q1015 NOSIG=
202512140600 METAR VABB 140600Z 13008KT 3000 FU NSC 30/10 Q1015 NOSIG=
202512140630 METAR VABB 140630Z 11006KT 3000 FU NSC 31/09 Q1015 NOSIG=
202512140700 METAR VABB 140700Z 13007KT 3500 FU NSC 31/09 Q1014 NOSIG=
202512140730 METAR VABB 140730Z 13007KT 4000 FU NSC 31/09 Q1014 NOSIG=
202512140800 METAR VABB 140800Z 11007KT 4000 FU NSC 32/10 Q1013 NOSIG=
202512140830 METAR VABB 140830Z 15006KT 4000 FU NSC 32/09 Q1012 NOSIG=
202512140900 METAR VABB 140900Z 11007KT 4000 FU NSC 32/10 Q1012 NOSIG=
202512140930 METAR VABB 140930Z 04007KT 4000 FU NSC 32/10 Q1012 NOSIG=
202512141000 METAR VABB 141000Z 06006KT 4000 FU NSC 32/10 Q1012 NOSIG=
202512141030 METAR VABB 141030Z 27010KT 4000 FU NSC 31/12 Q1011 NOSIG=
202512141100 METAR VABB 141100Z 29008KT 4000 FU NSC 31/13 Q1011 NOSIG=
202512141130 METAR VABB 141130Z 31008KT 4000 FU NSC 30/13 Q1012 NOSIG=
202512141200 METAR VABB 141200Z 33007KT 4000 FU NSC 30/12 Q1012 NOSIG=
202512141230 METAR COR VABB 141230Z 32005KT 3500 FU FEW100 29/12 Q1012 NOSIG=
202512141300 METAR VABB 141300Z 34005KT 3500 FU FEW100 29/12 Q1012 BECMG 3000 FU=
202512141330 METAR VABB 141330Z 36007KT 3000 FU NSC 28/13 Q1013 NOSIG=
202512141400 METAR VABB 141400Z 36006KT 3000 FU NSC 28/13 Q1013 NOSIG=
202512141430 METAR VABB 141430Z 02004KT 3000 FU NSC 28/13 Q1014 NOSIG=
202512141500 METAR VABB 141500Z 07005KT 3000 FU NSC 28/13 Q1014 NOSIG=
202512141530 METAR VABB 141530Z 03005KT 3000 FU NSC 27/13 Q1014 NOSIG=
202512141600 METAR VABB 141600Z 02008KT 3000 FU NSC 27/13 Q1015 NOSIG=
202512141630 METAR VABB 141630Z 04008KT 3000 FU NSC 28/13 Q1015 NOSIG=
202512141700 METAR VABB 141700Z 05006KT 3000 FU NSC 28/13 Q1015 NOSIG=
202512141730 METAR VABB 141730Z 07006KT 3000 FU NSC 27/13 Q1015 NOSIG=
202512141800 METAR VABB 141800Z 18004KT 3000 FU NSC 26/15 Q1014 NOSIG=
202512141830 METAR VABB 141830Z 17005KT 3000 FU NSC 25/15 Q1014 NOSIG=
202512141900 METAR VABB 141900Z 16005KT 3000 FU NSC 25/15 Q1014 NOSIG=
202512141930 METAR VABB 141930Z 16004KT 3000 FU NSC 25/15 Q1014 NOSIG=
202512142000 METAR VABB 142000Z 15004KT 3000 FU NSC 25/14 Q1014 NOSIG=
202512142030 METAR VABB 142030Z 18004KT 3000 FU NSC 25/14 Q1013 NOSIG=
202512142100 METAR VABB 142100Z 09003KT 2500 FU NSC 25/13 Q1013 NOSIG=
202512142130 METAR VABB 142130Z 16005KT 2500 FU NSC 24/13 Q1013 NOSIG=
202512142200 METAR VABB 142200Z 00000KT 2500 FU NSC 23/13 Q1013 NOSIG=
202512142230 METAR VABB 142230Z 13003KT 2500 FU NSC 22/14 Q1013 NOSIG=
202512142300 METAR VABB 142300Z 12004KT 2500 FU NSC 23/13 Q1013 NOSIG=
202512142330 METAR VABB 142330Z 10005KT 2500 FU NSC 23/13 Q1013 NOSIG=
202512150000 METAR VABB 150000Z 10004KT 2500 FU NSC 23/13 Q1013 NOSIG=
202512150030 METAR VABB 150030Z 00000KT 2500 FU NSC 23/13 Q1013 NOSIG=
202512150100 METAR VABB 150100Z 15005KT 2500 FU NSC 23/12 Q1014 NOSIG=
202512150130 METAR VABB 150130Z 11004KT 1800 FU NSC 23/12 Q1014 NOSIG=
202512150200 METAR VABB 150200Z 10005KT 1800 FU NSC 23/12 Q1015 NOSIG=
202512150230 METAR VABB 150230Z 11004KT 2000 FU NSC 24/12 Q1015 NOSIG=
202512150300 METAR VABB 150300Z 13005KT 2000 FU NSC 25/12 Q1016 NOSIG=
202512150330 METAR VABB 150330Z 10004KT 2500 FU NSC 26/12 Q1016 NOSIG=
202512150400 METAR VABB 150400Z 13005KT 2500 FU NSC 26/12 Q1017 NOSIG=
202512150430 METAR VABB 150430Z 11008KT 2500 FU NSC 27/12 Q1017 NOSIG=
202512150500 METAR VABB 150500Z 10008KT 2500 FU NSC 28/11 Q1016 NOSIG=
202512150530 METAR VABB 150530Z 10007KT 2500 FU NSC 29/12 Q1016 BECMG 3000 FU=
202512150600 METAR VABB 150600Z 12006KT 3000 FU NSC 30/11 Q1016 NOSIG=
202512150630 METAR VABB 150630Z 09007KT 3000 FU NSC 30/11 Q1016 NOSIG=
202512150700 METAR VABB 150700Z 08008KT 3000 FU NSC 30/10 Q1015 NOSIG=
202512150730 METAR VABB 150730Z 11009KT 3000 FU NSC 31/10 Q1014 NOSIG=
202512150800 METAR VABB 150800Z 05007KT 3000 FU NSC 31/11 Q1014 NOSIG=
202512150830 METAR VABB 150830Z 06007KT 3500 FU NSC 31/10 Q1013 NOSIG=
202512150900 METAR VABB 150900Z 02006KT 4000 FU NSC 32/09 Q1012 NOSIG=
202512150930 METAR VABB 150930Z 04008KT 4000 FU NSC 32/09 Q1012 NOSIG=
202512151000 METAR VABB 151000Z 06008KT 4000 FU NSC 32/09 Q1012 NOSIG=
202512151030 METAR VABB 151030Z 05009KT 4000 FU NSC 32/09 Q1011 NOSIG=
202512151100 METAR VABB 151100Z 07009KT 4000 FU NSC 32/08 Q1011 NOSIG=
202512151130 METAR VABB 151130Z 04006KT 4000 FU NSC 31/09 Q1011 NOSIG=
202512151200 METAR VABB 151200Z 02008KT 4000 FU NSC 31/10 Q1011 NOSIG=
202512151230 METAR VABB 151230Z 02007KT 4000 FU NSC 30/10 Q1011 NOSIG=
202512151300 METAR VABB 151300Z 01005KT 4000 FU NSC 29/14 Q1012 NOSIG=
202512151330 METAR VABB 151330Z 36006KT 3500 FU NSC 29/14 Q1012 BECMG 3000 FU=
202512151400 METAR VABB 151400Z 01005KT 3000 FU NSC 28/13 Q1012 NOSIG=
202512151430 METAR VABB 151430Z 01005KT 3000 FU NSC 28/14 Q1012 NOSIG=
202512151500 METAR VABB 151500Z 02004KT 3000 FU NSC 27/14 Q1013 NOSIG=
202512151530 METAR VABB 151530Z 00000KT 3000 FU NSC 26/14 Q1013 NOSIG=
202512151600 METAR VABB 151600Z 31003KT 3000 FU NSC 27/14 Q1013 NOSIG=
202512151630 METAR VABB 151630Z 18003KT 3000 FU NSC 27/14 Q1013 NOSIG=
202512151700 METAR VABB 151700Z 10004KT 3000 FU NSC 26/13 Q1013 NOSIG=
202512151730 METAR VABB 151730Z 06006KT 3000 FU NSC 26/13 Q1013 NOSIG=
202512151800 METAR VABB 151800Z 11004KT 3000 FU NSC 26/11 Q1013 NOSIG=
202512151830 METAR VABB 151830Z 08004KT 3000 FU NSC 25/12 Q1013 NOSIG=
202512151900 METAR VABB 151900Z 09004KT 3000 FU NSC 25/12 Q1013 NOSIG=
202512151930 METAR VABB 151930Z 09005KT 3000 FU NSC 25/12 Q1012 NOSIG=
202512152000 METAR VABB 152000Z 07005KT 3000 FU NSC 24/11 Q1012 NOSIG=
202512152030 METAR VABB 152030Z 07006KT 3000 FU NSC 25/11 Q1012 NOSIG=
202512152100 METAR VABB 152100Z 07006KT 3000 FU NSC 25/10 Q1012 NOSIG=
202512152130 METAR VABB 152130Z 07006KT 3000 FU NSC 25/09 Q1012 NOSIG=
202512152200 METAR VABB 152200Z 00000KT 3000 FU NSC 23/09 Q1012 NOSIG=
202512152230 METAR VABB 152230Z 14003KT 3000 FU NSC 22/09 Q1012 NOSIG=
202512152300 METAR VABB 152300Z 15006KT 3000 FU NSC 24/09 Q1012 NOSIG=
202512152330 METAR VABB 152330Z 12008KT 3000 FU NSC 24/08 Q1012 NOSIG=
202512160000 METAR VABB 160000Z 10008KT 3000 FU NSC 23/09 Q1012 NOSIG=
202512160030 METAR VABB 160030Z 12009KT 3000 FU NSC 22/09 Q1013 NOSIG=
202512160100 METAR VABB 160100Z 11009KT 3000 FU NSC 23/09 Q1013 NOSIG=
202512160130 METAR VABB 160130Z 12010KT 2500 FU NSC 23/09 Q1013 NOSIG=
202512160200 METAR VABB 160200Z 12010KT 2500 FU NSC 22/09 Q1014 NOSIG=
202512160230 METAR VABB 160230Z 12010KT 2500 FU NSC 23/10 Q1014 NOSIG=
202512160300 METAR VABB 160300Z 12010KT 2500 FU NSC 24/10 Q1014 NOSIG=
202512160330 METAR VABB 160330Z 12010KT 2500 FU NSC 24/11 Q1015 NOSIG=
202512160400 METAR VABB 160400Z 12011KT 2500 FU NSC 25/11 Q1015 NOSIG=
202512160430 METAR VABB 160430Z 13010KT 2500 FU NSC 26/13 Q1015 NOSIG=
202512160500 METAR VABB 160500Z 12010KT 2500 FU NSC 28/11 Q1015 BECMG 3000 FU=
202512160530 METAR VABB 160530Z 13011KT 3000 FU NSC 29/10 Q1015 NOSIG=
202512160600 METAR VABB 160600Z 13013KT 3000 FU NSC 29/10 Q1015 NOSIG=
202512160630 METAR VABB 160630Z 13012KT 3000 FU NSC 30/11 Q1014 NOSIG=
202512160700 METAR VABB 160700Z 11009KT 3000 FU NSC 30/12 Q1013 NOSIG=
202512160730 METAR VABB 160730Z 12010KT 3000 FU NSC 31/12 Q1013 NOSIG=
202512160800 METAR VABB 160800Z 10009KT 3500 FU NSC 32/12 Q1012 NOSIG=
202512160830 METAR VABB 160830Z 13009KT 4000 FU NSC 32/10 Q1012 NOSIG=
202512160900 METAR VABB 160900Z 12009KT 4000 FU NSC 32/10 Q1012 NOSIG=
202512160930 METAR VABB 160930Z 14009KT 4000 FU NSC 32/10 Q1011 NOSIG=
202512161000 METAR VABB 161000Z 15007KT 4000 FU NSC 32/11 Q1011 NOSIG=
202512161030 METAR VABB 161030Z 12004KT 4000 FU NSC 32/11 Q1011 NOSIG=
202512161100 METAR VABB 161100Z 00000KT 4000 FU NSC 32/11 Q1011 NOSIG=
202512161130 METAR VABB 161130Z 29007KT 3500 FU NSC 31/16 Q1011 NOSIG=
202512161200 METAR VABB 161200Z 29009KT 3500 FU NSC 29/16 Q1011 NOSIG=
202512161230 METAR VABB 161230Z 29008KT 3500 FU NSC 28/18 Q1012 NOSIG=
202512161300 METAR VABB 161300Z 32006KT 3500 FU NSC 28/17 Q1012 BECMG 3000 FU=
202512161330 METAR VABB 161330Z 33007KT 3000 FU NSC 28/18 Q1012 NOSIG=
202512161400 METAR VABB 161400Z 34006KT 3000 FU NSC 27/19 Q1013 NOSIG=
202512161430 METAR VABB 161430Z 36004KT 3000 FU NSC 27/18 Q1013 NOSIG=
202512161500 METAR VABB 161500Z 36006KT 3000 FU NSC 27/16 Q1014 NOSIG=
202512161530 METAR VABB 161530Z 05005KT 3000 FU NSC 27/18 Q1014 NOSIG=
202512161600 METAR VABB 161600Z 02005KT 3000 FU NSC 27/18 Q1014 NOSIG=
202512161630 METAR VABB 161630Z 06006KT 3000 FU NSC 28/17 Q1014 NOSIG=
202512161700 METAR VABB 161700Z 08004KT 3000 FU NSC 26/17 Q1014 NOSIG=
202512161730 METAR VABB 161730Z 06004KT 3000 FU NSC 26/16 Q1014 NOSIG=
202512161800 METAR VABB 161800Z 06004KT 3000 FU NSC 26/16 Q1014 NOSIG=
202512161830 METAR VABB 161830Z 06007KT 3000 FU NSC 27/15 Q1014 NOSIG=
202512161900 METAR VABB 161900Z 06007KT 3000 FU NSC 27/14 Q1013 NOSIG=
202512161930 METAR VABB 161930Z 05006KT 3000 FU NSC 26/14 Q1013 NOSIG=
202512162000 METAR VABB 162000Z 07006KT 3000 FU NSC 26/14 Q1013 NOSIG=
202512162030 METAR VABB 162030Z 15003KT 3000 FU NSC 25/14 Q1013 NOSIG=
202512162100 METAR VABB 162100Z 15003KT 3000 FU NSC 26/13 Q1013 NOSIG=
202512162130 METAR VABB 162130Z 12004KT 3000 FU NSC 25/13 Q1012 NOSIG=
202512162200 METAR VABB 162200Z 12004KT 3000 FU NSC 24/13 Q1012 NOSIG=
202512162230 METAR VABB 162230Z 00000KT 3000 FU NSC 22/14 Q1012 NOSIG=
202512162300 METAR VABB 162300Z 18003KT 3000 FU NSC 24/13 Q1013 NOSIG=
202512162330 METAR VABB 162330Z 12003KT 3000 FU NSC 24/13 Q1013 NOSIG=
202512170000 METAR VABB 170000Z 10003KT 3000 FU NSC 24/12 Q1013 NOSIG=
202512170030 METAR VABB 170030Z 08006KT 3000 FU NSC 25/12 Q1013 NOSIG=
202512170100 METAR VABB 170100Z 10004KT 3000 FU NSC 24/11 Q1014 NOSIG=
202512170130 METAR VABB 170130Z 14004KT 2500 FU FEW100 25/11 Q1014 NOSIG=
202512170200 METAR VABB 170200Z 08004KT 2500 FU FEW100 24/11 Q1014 NOSIG=
202512170230 METAR VABB 170230Z 12005KT 2500 FU FEW100 25/11 Q1015 NOSIG=
202512170300 METAR VABB 170300Z 12008KT 2500 FU 25/12 Q1015 NOSIG=
202512170330 METAR VABB 170330Z 12011KT 2500 FU 26/12 Q1016 NOSIG=
202512170400 METAR VABB 170400Z 13010KT 2500 FU 27/12 Q1016 NOSIG=
202512170430 METAR VABB 170430Z 12009KT 2500 FU 28/12 Q1016 NOSIG=
202512170500 METAR COR VABB 170500Z 12009KT 2500 FU NSC 28/13 Q1016 NOSIG=
202512170530 METAR VABB 170530Z 13008KT 2500 FU NSC 29/12 Q1016 NOSIG=
202512170600 METAR VABB 170600Z 12008KT 2500 FU NSC 30/13 Q1016 NOSIG=
202512170630 METAR VABB 170630Z 12009KT 2500 FU NSC 31/12 Q1016 BECMG 3000 FU=
202512170700 METAR VABB 170700Z 11006KT 2500 FU NSC 32/13 Q1015 NOSIG=
202512170730 METAR VABB 170730Z 13006KT 3000 FU NSC 32/13 Q1015 NOSIG=
202512170800 METAR VABB 170800Z 19004KT 3000 FU NSC 33/13 Q1014 NOSIG=
202512170830 METAR VABB 170830Z 28008KT 3000 FU NSC 31/17 Q1014 NOSIG=
202512170900 METAR VABB 170900Z 28007KT 3000 FU FEW100 33/15 Q1013 NOSIG=
202512170930 METAR VABB 170930Z 26007KT 3000 FU NSC 33/16 Q1013 NOSIG=
202512171000 METAR VABB 171000Z 27010KT 3000 FU NSC 32/16 Q1013 NOSIG=
202512171030 METAR VABB 171030Z 29007KT 3000 FU NSC 32/16 Q1012 NOSIG=
202512171100 METAR VABB 171100Z 31007KT 3000 FU NSC 32/16 Q1012 NOSIG=
202512171130 METAR VABB 171130Z 31008KT 3000 FU NSC 32/16 Q1013 NOSIG=
202512171200 METAR VABB 171200Z 33007KT 3000 FU NSC 31/16 Q1013 NOSIG=
202512171230 METAR VABB 171230Z 33005KT 3000 FU NSC 30/16 Q1013 NOSIG=
202512171300 METAR VABB 171300Z 35006KT 3000 FU NSC 30/16 Q1013 NOSIG=
202512171330 METAR VABB 171330Z 01005KT 3000 FU NSC 29/16 Q1014 NOSIG=
202512171400 METAR VABB 171400Z 36005KT 3000 FU NSC 29/16 Q1014 NOSIG=
202512171430 METAR VABB 171430Z 36005KT 3000 FU NSC 29/15 Q1014 NOSIG=
202512171500 METAR VABB 171500Z 36003KT 3000 FU NSC 28/16 Q1015 NOSIG=
202512171530 METAR VABB 171530Z 01004KT 3000 FU NSC 28/17 Q1015 NOSIG=
202512171600 METAR VABB 171600Z 36004KT 3000 FU NSC 28/17 Q1015 NOSIG=
202512171630 METAR VABB 171630Z 00000KT 2500 FU NSC 27/17 Q1015 NOSIG=
202512171700 METAR VABB 171700Z 15004KT 2500 FU NSC 28/16 Q1015 NOSIG=
202512171730 METAR VABB 171730Z 12007KT 2500 FU NSC 27/17 Q1015 NOSIG=
202512171800 METAR VABB 171800Z 12005KT 2500 FU NSC 27/16 Q1014 NOSIG=
202512171830 METAR VABB 171830Z 06005KT 2500 FU NSC 27/16 Q1014 NOSIG=
202512171900 METAR VABB 171900Z 08003KT 2500 FU NSC 27/15 Q1014 NOSIG=
202512171930 METAR VABB 171930Z 00000KT 2500 FU NSC 26/15 Q1014 NOSIG=
202512172000 METAR VABB 172000Z 00000KT 2500 FU NSC 26/15 Q1014 NOSIG=
202512172030 METAR VABB 172030Z 11003KT 2500 FU NSC 26/15 Q1014 NOSIG=
202512172100 METAR VABB 172100Z 00000KT 2500 FU NSC 26/15 Q1014 NOSIG=
202512172130 METAR VABB 172130Z 00000KT 2500 FU NSC 25/15 Q1014 NOSIG=
202512172200 METAR VABB 172200Z 00000KT 2500 FU NSC 24/16 Q1014 NOSIG=
202512172230 METAR VABB 172230Z 00000KT 2500 FU NSC 23/15 Q1014 NOSIG=
202512172300 METAR VABB 172300Z 17005KT 2500 FU NSC 24/14 Q1014 NOSIG=
202512172330 METAR VABB 172330Z 15003KT 2500 FU NSC 24/14 Q1014 NOSIG=
